{
"type": "FeatureCollection",
"name": "intersection_pieces",
"crs": { "type": "name", "properties": { "name": "urn:ogc:def:crs:OGC:1.3:CRS84" } },
"features": [
{ "type": "Feature", "properties": { "precinct_key": "SUMNER - 008628", "name20": "Sumner - 008628", "county_norm": "SUMNER", "prec_id": "008628", "district_num": "45", "area_weight": 0.70265227431588251, "geometry_status": "dominant", "suggested_action": "manual_split_review" }, "geometry": { "type": "Polygon", "coordinates": [ [ [ -86.601154, 36.337067 ], [ -86.605668, 36.337726 ], [ -86.610646, 36.338272 ], [ -86.611256, 36.338325 ], [ -86.614829, 36.338686 ], [ -86.613859, 36.340574 ], [ -86.614103, 36.344636 ], [ -86.612684, 36.348777 ], [ -86.612621, 36.353306 ], [ -86.6112, 36.355529 ], [ -86.609799, 36.356861 ], [ -86.609453, 36.357814 ], [ -86.609779, 36.359298 ], [ -86.611249, 36.362801 ], [ -86.611893, 36.364189 ], [ -86.613929, 36.366582 ], [ -86.615665, 36.367829 ], [ -86.616856, 36.370571 ], [ -86.617269, 36.37419 ], [ -86.617946, 36.376828 ], [ -86.615689, 36.378563 ], [ -86.615217, 36.380169 ], [ -86.61598, 36.381641 ], [ -86.615776, 36.38371 ], [ -86.615336, 36.384058 ], [ -86.613689, 36.385466 ], [ -86.61121, 36.386218 ], [ -86.608495, 36.388855 ], [ -86.608449, 36.3908 ], [ -86.607669, 36.391678 ], [ -86.602002, 36.39013 ], [ -86.593803, 36.389021 ], [ -86.591782, 36.388013 ], [ -86.588944, 36.38858 ], [ -86.586281, 36.38767 ], [ -86.585105, 36.387177 ], [ -86.582916, 36.38525 ], [ -86.578822, 36.385179 ], [ -86.574889, 36.385702 ], [ -86.572194, 36.385928 ], [ -86.569584, 36.38569 ], [ -86.563525, 36.383931 ], [ -86.56174, 36.38344 ], [ -86.561486, 36.383369 ], [ -86.560725, 36.383158 ], [ -86.560472, 36.383088 ], [ -86.560137, 36.382994 ], [ -86.559377, 36.382782 ], [ -86.559132, 36.382716 ], [ -86.55884, 36.382639 ], [ -86.558797, 36.382628 ], [ -86.558738, 36.382612 ], [ -86.55868, 36.382596 ], [ -86.558655, 36.38259 ], [ -86.558542, 36.382564 ], [ -86.558513, 36.382557 ], [ -86.558325, 36.382521 ], [ -86.558207, 36.382499 ], [ -86.558243, 36.381954 ], [ -86.558246, 36.38191 ], [ -86.558263, 36.381368 ], [ -86.558247, 36.381117 ], [ -86.558176, 36.380639 ], [ -86.558145, 36.380325 ], [ -86.558105, 36.379908 ], [ -86.558086, 36.379783 ], [ -86.558055, 36.379582 ], [ -86.558047, 36.37953 ], [ -86.557875, 36.379003 ], [ -86.557813, 36.378811 ], [ -86.557593, 36.378086 ], [ -86.557528398673611, 36.377604432060693 ], [ -86.557508, 36.377387 ], [ -86.557512, 36.377062 ], [ -86.557514, 36.376997 ], [ -86.55745, 36.376338 ], [ -86.557441, 36.376213 ], [ -86.557409, 36.376073 ], [ -86.557298044455806, 36.375887214459979 ], [ -86.557006, 36.37371 ], [ -86.55764, 36.372322 ], [ -86.557672, 36.372268 ], [ -86.557711, 36.372144 ], [ -86.557688, 36.372016 ], [ -86.557635, 36.371896 ], [ -86.557516, 36.371709 ], [ -86.557459, 36.37164 ], [ -86.557207, 36.371425 ], [ -86.55704, 36.371296 ], [ -86.556787, 36.371139 ], [ -86.556638, 36.371073 ], [ -86.556028, 36.370889 ], [ -86.555951, 36.370869 ], [ -86.555741, 36.370816 ], [ -86.555348, 36.370691 ], [ -86.555218, 36.370633 ], [ -86.553104, 36.36896 ], [ -86.553175, 36.368931 ], [ -86.553298, 36.368883 ], [ -86.553391, 36.368847 ], [ -86.553421, 36.368836 ], [ -86.553465, 36.368823 ], [ -86.553508, 36.368809 ], [ -86.553573, 36.36879 ], [ -86.553637, 36.36877 ], [ -86.553681, 36.368758 ], [ -86.555117, 36.368632 ], [ -86.555614, 36.368689 ], [ -86.555723, 36.368703 ], [ -86.555744, 36.368706 ], [ -86.555869, 36.368721 ], [ -86.556373, 36.368784 ], [ -86.557197, 36.368863 ], [ -86.557765, 36.36892 ], [ -86.558393, 36.368989 ], [ -86.558492, 36.369 ], [ -86.559667, 36.36912 ], [ -86.559833, 36.369137 ], [ -86.560273, 36.369183 ], [ -86.560415, 36.369201 ], [ -86.560488, 36.36921 ], [ -86.560806, 36.36924 ], [ -86.561201, 36.36928 ], [ -86.561572, 36.369312 ], [ -86.561795, 36.369332 ], [ -86.561869, 36.369339 ], [ -86.562145210761088, 36.369366767340622 ], [ -86.562287132975342, 36.369381600259644 ], [ -86.5625, 36.369406 ], [ -86.563066, 36.369463 ], [ -86.56321, 36.369464 ], [ -86.563444, 36.369445 ], [ -86.563913, 36.369352 ], [ -86.564112, 36.369287 ], [ -86.564219, 36.369252 ], [ -86.564711, 36.369094 ], [ -86.564911, 36.36903 ], [ -86.564936, 36.369022 ], [ -86.565019, 36.369003 ], [ -86.565261, 36.368949 ], [ -86.565349, 36.368937 ], [ -86.565461, 36.368923 ], [ -86.56562, 36.368918 ], [ -86.566294, 36.368963 ], [ -86.567566, 36.369091 ], [ -86.56844, 36.369179 ], [ -86.569169, 36.369243 ], [ -86.569851, 36.369325 ], [ -86.571675, 36.369485 ], [ -86.573343, 36.369656 ], [ -86.573875, 36.369719 ], [ -86.574337, 36.369775 ], [ -86.574918, 36.369844 ], [ -86.575361, 36.369876 ], [ -86.575826, 36.369873 ], [ -86.575979, 36.36989 ], [ -86.576009, 36.369792 ], [ -86.576086, 36.369104 ], [ -86.576154, 36.368579 ], [ -86.576169, 36.368431 ], [ -86.576249, 36.367651 ], [ -86.576229, 36.367522 ], [ -86.576231, 36.36725 ], [ -86.576239, 36.367183 ], [ -86.57631, 36.366598 ], [ -86.576447, 36.365793 ], [ -86.576545, 36.364923 ], [ -86.57659, 36.364444 ], [ -86.576628, 36.363982 ], [ -86.576657, 36.363649 ], [ -86.576699, 36.363361 ], [ -86.576717, 36.363304 ], [ -86.576736, 36.363245 ], [ -86.576809, 36.363149 ], [ -86.576818, 36.363139 ], [ -86.576863, 36.36311 ], [ -86.576937, 36.363062 ], [ -86.577066, 36.363018 ], [ -86.577344, 36.363011 ], [ -86.577401, 36.363011 ], [ -86.577667, 36.363032 ], [ -86.578527, 36.363105 ], [ -86.578617, 36.363113 ], [ -86.57891, 36.363124 ], [ -86.580741, 36.363312 ], [ -86.580846, 36.363317 ], [ -86.581043, 36.363328 ], [ -86.581238, 36.363311 ], [ -86.58134, 36.363279 ], [ -86.581402, 36.363228 ], [ -86.581492, 36.363107 ], [ -86.581608, 36.362793 ], [ -86.581694, 36.362482 ], [ -86.581763, 36.362229 ], [ -86.582007, 36.361414 ], [ -86.582072, 36.361234 ], [ -86.582087, 36.361203 ], [ -86.582161, 36.361128 ], [ -86.582256, 36.361079 ], [ -86.583023983456172, 36.361088675057459 ], [ -86.58304, 36.36109 ], [ -86.583288, 36.361092 ], [ -86.584128, 36.360218 ], [ -86.585091, 36.358556 ], [ -86.585242, 36.357345 ], [ -86.585244, 36.357326 ], [ -86.585248, 36.357296 ], [ -86.585248565876796, 36.357290114889317 ], [ -86.585529, 36.355086 ], [ -86.585619, 36.354425 ], [ -86.585966, 36.351701 ], [ -86.585991, 36.351502 ], [ -86.586053, 36.351163 ], [ -86.586167, 36.350861 ], [ -86.586409, 36.350875 ], [ -86.586835, 36.350916 ], [ -86.587241, 36.350955 ], [ -86.587881, 36.351018 ], [ -86.58846, 36.351074 ], [ -86.588867, 36.351114 ], [ -86.589018, 36.351119 ], [ -86.589198, 36.351107 ], [ -86.589427, 36.351092 ], [ -86.589702, 36.351094 ], [ -86.589757, 36.3511 ], [ -86.590031, 36.351132 ], [ -86.590189, 36.351154 ], [ -86.590518, 36.351201 ], [ -86.590605, 36.351213 ], [ -86.59086, 36.35124 ], [ -86.591625, 36.35132 ], [ -86.591825, 36.351338 ], [ -86.592037, 36.351357 ], [ -86.592409, 36.351386 ], [ -86.592562, 36.351385 ], [ -86.592617, 36.351373 ], [ -86.592724, 36.351352 ], [ -86.592794, 36.351327 ], [ -86.592888, 36.351273 ], [ -86.593041, 36.351124 ], [ -86.593131, 36.351023 ], [ -86.593247, 36.350889 ], [ -86.593365, 36.350753 ], [ -86.593414, 36.350697 ], [ -86.593614, 36.350507 ], [ -86.593777, 36.350403 ], [ -86.593969, 36.350324 ], [ -86.594119, 36.350263 ], [ -86.594316, 36.350175 ], [ -86.59451, 36.350099 ], [ -86.594475, 36.349981 ], [ -86.594471, 36.349968 ], [ -86.594302, 36.349404 ], [ -86.594281, 36.349167 ], [ -86.594282, 36.349133 ], [ -86.594305, 36.348896 ], [ -86.594308, 36.348866 ], [ -86.594387, 36.348362 ], [ -86.594436, 36.348046 ], [ -86.594478, 36.347791 ], [ -86.594485, 36.34762 ], [ -86.594479, 36.347553 ], [ -86.594453, 36.347422 ], [ -86.594441, 36.347386 ], [ -86.594436, 36.347371 ], [ -86.594273, 36.346906 ], [ -86.594255, 36.346832 ], [ -86.594222, 36.34659 ], [ -86.594222, 36.346551 ], [ -86.59422, 36.346268 ], [ -86.594235, 36.345019 ], [ -86.594245, 36.344325 ], [ -86.594246, 36.344226 ], [ -86.594248, 36.344138 ], [ -86.594252, 36.34395 ], [ -86.594291, 36.342157 ], [ -86.594265, 36.342045 ], [ -86.594172, 36.341823 ], [ -86.59408, 36.341703 ], [ -86.593964, 36.341525 ], [ -86.593838, 36.34127 ], [ -86.593779, 36.341121 ], [ -86.593749, 36.340864 ], [ -86.593717, 36.340618 ], [ -86.593875, 36.339605 ], [ -86.5939, 36.339443 ], [ -86.593919, 36.339179 ], [ -86.593917, 36.33913 ], [ -86.593891, 36.338906 ], [ -86.593848, 36.338739 ], [ -86.593749, 36.338432 ], [ -86.593711, 36.338216 ], [ -86.59363, 36.337511 ], [ -86.593605, 36.337345 ], [ -86.593556, 36.336637 ], [ -86.593546, 36.336481 ], [ -86.593544, 36.336445 ], [ -86.593871, 36.336471 ], [ -86.601154, 36.337067 ] ] ] } },
{ "type": "Feature", "properties": { "precinct_key": "SUMNER - 008628", "name20": "Sumner - 008628", "county_norm": "SUMNER", "prec_id": "008628", "district_num": "44", "area_weight": 0.29734772568411699, "geometry_status": "real_secondary", "suggested_action": "manual_split_review" }, "geometry": { "type": "GeometryCollection", "geometries": [ { "type": "Polygon", "coordinates": [ [ [ -86.58017, 36.354791 ], [ -86.580188, 36.354551 ], [ -86.580283, 36.353243 ], [ -86.569384, 36.352308 ], [ -86.570322, 36.346744 ], [ -86.570768, 36.344104 ], [ -86.570468, 36.344071 ], [ -86.570519, 36.343606 ], [ -86.570618, 36.342705 ], [ -86.571001, 36.342543 ], [ -86.571407, 36.339676 ], [ -86.574061, 36.339319 ], [ -86.57482, 36.333492 ], [ -86.573473, 36.333365 ], [ -86.573783, 36.331048 ], [ -86.578844, 36.331606 ], [ -86.580342, 36.334692 ], [ -86.580998, 36.335161 ], [ -86.582685, 36.335425 ], [ -86.590556, 36.336149 ], [ -86.593544, 36.336445 ], [ -86.593546, 36.336481 ], [ -86.593556, 36.336637 ], [ -86.593605, 36.337345 ], [ -86.59363, 36.337511 ], [ -86.593711, 36.338216 ], [ -86.593749, 36.338432 ], [ -86.593848, 36.338739 ], [ -86.593891, 36.338906 ], [ -86.593917, 36.33913 ], [ -86.593919, 36.339179 ], [ -86.5939, 36.339443 ], [ -86.593875, 36.339605 ], [ -86.593717, 36.340618 ], [ -86.593749, 36.340864 ], [ -86.593779, 36.341121 ], [ -86.593838, 36.34127 ], [ -86.593964, 36.341525 ], [ -86.59408, 36.341703 ], [ -86.594172, 36.341823 ], [ -86.594265, 36.342045 ], [ -86.594291, 36.342157 ], [ -86.594252, 36.34395 ], [ -86.594248, 36.344138 ], [ -86.594246, 36.344226 ], [ -86.594245, 36.344325 ], [ -86.594235, 36.345019 ], [ -86.59422, 36.346268 ], [ -86.594222, 36.346551 ], [ -86.594222, 36.34659 ], [ -86.594255, 36.346832 ], [ -86.594273, 36.346906 ], [ -86.594436, 36.347371 ], [ -86.594441, 36.347386 ], [ -86.594453, 36.347422 ], [ -86.594479, 36.347553 ], [ -86.594485, 36.34762 ], [ -86.594478, 36.347791 ], [ -86.594436, 36.348046 ], [ -86.594387, 36.348362 ], [ -86.594308, 36.348866 ], [ -86.594305, 36.348896 ], [ -86.594282, 36.349133 ], [ -86.594281, 36.349167 ], [ -86.594302, 36.349404 ], [ -86.594471, 36.349968 ], [ -86.594475, 36.349981 ], [ -86.59451, 36.350099 ], [ -86.594316, 36.350175 ], [ -86.594119, 36.350263 ], [ -86.593969, 36.350324 ], [ -86.593777, 36.350403 ], [ -86.593614, 36.350507 ], [ -86.593414, 36.350697 ], [ -86.593365, 36.350753 ], [ -86.593247, 36.350889 ], [ -86.593131, 36.351023 ], [ -86.593041, 36.351124 ], [ -86.592888, 36.351273 ], [ -86.592794, 36.351327 ], [ -86.592724, 36.351352 ], [ -86.592617, 36.351373 ], [ -86.592562, 36.351385 ], [ -86.592409, 36.351386 ], [ -86.592037, 36.351357 ], [ -86.591825, 36.351338 ], [ -86.591625, 36.35132 ], [ -86.59086, 36.35124 ], [ -86.590605, 36.351213 ], [ -86.590518, 36.351201 ], [ -86.590189, 36.351154 ], [ -86.590031, 36.351132 ], [ -86.589757, 36.3511 ], [ -86.589702, 36.351094 ], [ -86.589427, 36.351092 ], [ -86.589198, 36.351107 ], [ -86.589018, 36.351119 ], [ -86.588867, 36.351114 ], [ -86.58846, 36.351074 ], [ -86.587881, 36.351018 ], [ -86.587241, 36.350955 ], [ -86.586835, 36.350916 ], [ -86.586409, 36.350875 ], [ -86.586167, 36.350861 ], [ -86.586053, 36.351163 ], [ -86.585991, 36.351502 ], [ -86.585966, 36.351701 ], [ -86.585619, 36.354425 ], [ -86.585529, 36.355086 ], [ -86.58017, 36.354791 ] ] ] }, { "type": "Polygon", "coordinates": [ [ [ -86.585248565876796, 36.357290114889317 ], [ -86.585248, 36.357296 ], [ -86.585244, 36.357326 ], [ -86.585248565876796, 36.357290114889317 ] ] ] }, { "type": "Polygon", "coordinates": [ [ [ -86.583288, 36.361092 ], [ -86.58304, 36.36109 ], [ -86.583023983456172, 36.361088675057459 ], [ -86.583288, 36.361092 ] ] ] }, { "type": "Polygon", "coordinates": [ [ [ -86.563709, 36.366961 ], [ -86.564244, 36.366722 ], [ -86.568295, 36.364576 ], [ -86.571821, 36.365322 ], [ -86.572201, 36.362912 ], [ -86.568727, 36.362607 ], [ -86.569403, 36.35711 ], [ -86.570307, 36.357201 ], [ -86.574458, 36.357609 ], [ -86.574682, 36.356257 ], [ -86.575174, 36.357331 ], [ -86.574784, 36.358366 ], [ -86.574922, 36.361065 ], [ -86.576187, 36.362435 ], [ -86.576786, 36.362201 ], [ -86.577123, 36.360623 ], [ -86.582256, 36.361079 ], [ -86.582161, 36.361128 ], [ -86.582087, 36.361203 ], [ -86.582072, 36.361234 ], [ -86.582007, 36.361414 ], [ -86.581763, 36.362229 ], [ -86.581694, 36.362482 ], [ -86.581608, 36.362793 ], [ -86.581492, 36.363107 ], [ -86.581402, 36.363228 ], [ -86.58134, 36.363279 ], [ -86.581238, 36.363311 ], [ -86.581043, 36.363328 ], [ -86.580846, 36.363317 ], [ -86.580741, 36.363312 ], [ -86.57891, 36.363124 ], [ -86.578617, 36.363113 ], [ -86.578527, 36.363105 ], [ -86.577667, 36.363032 ], [ -86.577401, 36.363011 ], [ -86.577344, 36.363011 ], [ -86.577066, 36.363018 ], [ -86.576937, 36.363062 ], [ -86.576863, 36.36311 ], [ -86.576818, 36.363139 ], [ -86.576809, 36.363149 ], [ -86.576736, 36.363245 ], [ -86.576717, 36.363304 ], [ -86.576699, 36.363361 ], [ -86.576657, 36.363649 ], [ -86.576628, 36.363982 ], [ -86.57659, 36.364444 ], [ -86.576545, 36.364923 ], [ -86.576447, 36.365793 ], [ -86.57631, 36.366598 ], [ -86.576239, 36.367183 ], [ -86.576231, 36.36725 ], [ -86.576229, 36.367522 ], [ -86.576249, 36.367651 ], [ -86.576169, 36.368431 ], [ -86.576154, 36.368579 ], [ -86.576086, 36.369104 ], [ -86.576009, 36.369792 ], [ -86.575979, 36.36989 ], [ -86.575826, 36.369873 ], [ -86.575361, 36.369876 ], [ -86.574918, 36.369844 ], [ -86.574337, 36.369775 ], [ -86.573875, 36.369719 ], [ -86.573343, 36.369656 ], [ -86.571675, 36.369485 ], [ -86.569851, 36.369325 ], [ -86.569169, 36.369243 ], [ -86.56844, 36.369179 ], [ -86.567566, 36.369091 ], [ -86.566294, 36.368963 ], [ -86.56562, 36.368918 ], [ -86.565461, 36.368923 ], [ -86.565349, 36.368937 ], [ -86.565261, 36.368949 ], [ -86.565019, 36.369003 ], [ -86.564936, 36.369022 ], [ -86.564911, 36.36903 ], [ -86.564711, 36.369094 ], [ -86.564219, 36.369252 ], [ -86.564112, 36.369287 ], [ -86.563913, 36.369352 ], [ -86.563709, 36.366961 ] ] ] }, { "type": "Polygon", "coordinates": [ [ [ -86.563913, 36.369352 ], [ -86.563444, 36.369445 ], [ -86.56321, 36.369464 ], [ -86.563066, 36.369463 ], [ -86.563913, 36.369352 ] ] ] }, { "type": "Polygon", "coordinates": [ [ [ -86.563066, 36.369463 ], [ -86.5625, 36.369406 ], [ -86.562287132975342, 36.369381600259644 ], [ -86.563066, 36.369463 ] ] ] }, { "type": "Polygon", "coordinates": [ [ [ -86.562145210761088, 36.369366767340622 ], [ -86.561869, 36.369339 ], [ -86.561795, 36.369332 ], [ -86.561572, 36.369312 ], [ -86.561201, 36.36928 ], [ -86.560806, 36.36924 ], [ -86.560488, 36.36921 ], [ -86.560415, 36.369201 ], [ -86.560273, 36.369183 ], [ -86.559833, 36.369137 ], [ -86.559667, 36.36912 ], [ -86.558492, 36.369 ], [ -86.558393, 36.368989 ], [ -86.557765, 36.36892 ], [ -86.557197, 36.368863 ], [ -86.556373, 36.368784 ], [ -86.555869, 36.368721 ], [ -86.555744, 36.368706 ], [ -86.555723, 36.368703 ], [ -86.555614, 36.368689 ], [ -86.555117, 36.368632 ], [ -86.562145210761088, 36.369366767340622 ] ] ] }, { "type": "Polygon", "coordinates": [ [ [ -86.551068, 36.363143 ], [ -86.550888, 36.362928 ], [ -86.550703, 36.362689 ], [ -86.55062, 36.362373 ], [ -86.550619, 36.36169 ], [ -86.550515, 36.361468 ], [ -86.549799, 36.360602 ], [ -86.549495, 36.360299 ], [ -86.549246, 36.360172 ], [ -86.548515, 36.359958 ], [ -86.547378, 36.359548 ], [ -86.547187, 36.359459 ], [ -86.546913, 36.359255 ], [ -86.546608, 36.358882 ], [ -86.546352, 36.358696 ], [ -86.545782, 36.358467 ], [ -86.545464, 36.358374 ], [ -86.545021, 36.358221 ], [ -86.544505, 36.35793 ], [ -86.544152, 36.357597 ], [ -86.543985, 36.357372 ], [ -86.543758, 36.356912 ], [ -86.543606, 36.35672 ], [ -86.543419, 36.356603 ], [ -86.542764, 36.356269 ], [ -86.542084, 36.355968 ], [ -86.541629, 36.355781 ], [ -86.5413, 36.355665 ], [ -86.541078, 36.355628 ], [ -86.540785, 36.355639 ], [ -86.540263, 36.355802 ], [ -86.540054, 36.355817 ], [ -86.539613, 36.355796 ], [ -86.538398, 36.355687 ], [ -86.538128, 36.355655 ], [ -86.537821, 36.355607 ], [ -86.537299, 36.355434 ], [ -86.537544, 36.355247 ], [ -86.537698, 36.355122 ], [ -86.537874, 36.354993 ], [ -86.542675, 36.351066 ], [ -86.546471, 36.347674 ], [ -86.549225, 36.345138 ], [ -86.550003, 36.344058 ], [ -86.550508, 36.342204 ], [ -86.549497, 36.337946 ], [ -86.551048, 36.337692 ], [ -86.553724, 36.337874 ], [ -86.555826, 36.338665 ], [ -86.557145, 36.339263 ], [ -86.558211, 36.339136 ], [ -86.558257, 36.339129 ], [ -86.558492, 36.339105 ], [ -86.558551, 36.339107 ], [ -86.558668, 36.339129 ], [ -86.558936, 36.339245 ], [ -86.559043, 36.33926 ], [ -86.559655, 36.339219 ], [ -86.559975, 36.339202 ], [ -86.56024, 36.339168 ], [ -86.560411, 36.339209 ], [ -86.560153, 36.340533 ], [ -86.559893, 36.341561 ], [ -86.559519, 36.343073 ], [ -86.559079, 36.347311 ], [ -86.558949, 36.34817 ], [ -86.558845, 36.348901 ], [ -86.558815, 36.349092 ], [ -86.55861, 36.350367 ], [ -86.558576, 36.350363 ], [ -86.55824, 36.350325 ], [ -86.557749, 36.350244 ], [ -86.557585, 36.350227 ], [ -86.557293, 36.350186 ], [ -86.557125, 36.350172 ], [ -86.557056, 36.350169 ], [ -86.556968, 36.350164 ], [ -86.556876, 36.350178 ], [ -86.55678, 36.350182 ], [ -86.556579, 36.350226 ], [ -86.556421, 36.350269 ], [ -86.556324, 36.350313 ], [ -86.554625, 36.352222 ], [ -86.552719, 36.352239 ], [ -86.552933, 36.353247 ], [ -86.552918, 36.3542 ], [ -86.553744, 36.35432 ], [ -86.55462, 36.354872 ], [ -86.554828, 36.355785 ], [ -86.556882, 36.356 ], [ -86.557448, 36.353543 ], [ -86.556913, 36.357201 ], [ -86.556167, 36.358266 ], [ -86.55537, 36.359163 ], [ -86.554938, 36.359639 ], [ -86.554505, 36.360139 ], [ -86.552746, 36.362092 ], [ -86.551492, 36.36261 ], [ -86.552492, 36.365334 ], [ -86.553681, 36.368758 ], [ -86.553637, 36.36877 ], [ -86.553573, 36.36879 ], [ -86.553508, 36.368809 ], [ -86.553465, 36.368823 ], [ -86.553421, 36.368836 ], [ -86.553391, 36.368847 ], [ -86.553298, 36.368883 ], [ -86.553175, 36.368931 ], [ -86.553104, 36.36896 ], [ -86.551068, 36.363143 ] ] ] }, { "type": "Polygon", "coordinates": [ [ [ -86.555218, 36.370633 ], [ -86.555348, 36.370691 ], [ -86.555741, 36.370816 ], [ -86.555951, 36.370869 ], [ -86.556028, 36.370889 ], [ -86.556638, 36.371073 ], [ -86.556787, 36.371139 ], [ -86.55704, 36.371296 ], [ -86.557207, 36.371425 ], [ -86.557459, 36.37164 ], [ -86.555218, 36.370633 ] ] ] }, { "type": "Polygon", "coordinates": [ [ [ -86.557459, 36.37164 ], [ -86.557516, 36.371709 ], [ -86.557635, 36.371896 ], [ -86.557688, 36.372016 ], [ -86.557711, 36.372144 ], [ -86.557672, 36.372268 ], [ -86.55764, 36.372322 ], [ -86.557459, 36.37164 ] ] ] }, { "type": "Polygon", "coordinates": [ [ [ -86.557298044455806, 36.375887214459979 ], [ -86.557409, 36.376073 ], [ -86.557441, 36.376213 ], [ -86.55745, 36.376338 ], [ -86.557514, 36.376997 ], [ -86.557512, 36.377062 ], [ -86.557508, 36.377387 ], [ -86.557528398673611, 36.377604432060693 ], [ -86.557298044455806, 36.375887214459979 ] ] ] }, { "type": "Polygon", "coordinates": [ [ [ -86.557593, 36.378086 ], [ -86.557813, 36.378811 ], [ -86.557875, 36.379003 ], [ -86.558047, 36.37953 ], [ -86.558055, 36.379582 ], [ -86.558086, 36.379783 ], [ -86.557593, 36.378086 ] ] ] }, { "type": "Polygon", "coordinates": [ [ [ -86.558086, 36.379783 ], [ -86.558105, 36.379908 ], [ -86.558145, 36.380325 ], [ -86.558176, 36.380639 ], [ -86.558247, 36.381117 ], [ -86.558263, 36.381368 ], [ -86.558246, 36.38191 ], [ -86.558243, 36.381954 ], [ -86.558207, 36.382499 ], [ -86.558086, 36.379783 ] ] ] }, { "type": "Polygon", "coordinates": [ [ [ -86.558207, 36.382499 ], [ -86.558325, 36.382521 ], [ -86.558513, 36.382557 ], [ -86.558542, 36.382564 ], [ -86.558207, 36.382499 ] ] ] }, { "type": "Polygon", "coordinates": [ [ [ -86.558542, 36.382564 ], [ -86.558655, 36.38259 ], [ -86.55868, 36.382596 ], [ -86.558738, 36.382612 ], [ -86.558797, 36.382628 ], [ -86.55884, 36.382639 ], [ -86.559132, 36.382716 ], [ -86.559377, 36.382782 ], [ -86.560137, 36.382994 ], [ -86.560472, 36.383088 ], [ -86.560725, 36.383158 ], [ -86.561486, 36.383369 ], [ -86.56174, 36.38344 ], [ -86.558542, 36.382564 ] ] ] }, { "type": "LineString", "coordinates": [ [ -86.593871, 36.336471 ], [ -86.593544, 36.336445 ] ] }, { "type": "Point", "coordinates": [ -86.557006, 36.37371 ] } ] } }
]
}
