{
"type": "FeatureCollection",
"name": "precinct",
"crs": { "type": "name", "properties": { "name": "urn:ogc:def:crs:OGC:1.3:CRS84" } },
"features": [
{ "type": "Feature", "properties": { "precinct_key": "SUMNER - 008628", "name20": "Sumner - 008628", "county_norm": "SUMNER", "prec_id": "008628" }, "geometry": { "type": "Polygon", "coordinates": [ [ [ -86.609779, 36.359298 ], [ -86.609453, 36.357814 ], [ -86.609799, 36.356861 ], [ -86.6112, 36.355529 ], [ -86.612621, 36.353306 ], [ -86.612684, 36.348777 ], [ -86.614103, 36.344636 ], [ -86.613859, 36.340574 ], [ -86.614829, 36.338686 ], [ -86.611256, 36.338325 ], [ -86.610646, 36.338272 ], [ -86.605668, 36.337726 ], [ -86.601154, 36.337067 ], [ -86.593871, 36.336471 ], [ -86.593544, 36.336445 ], [ -86.590556, 36.336149 ], [ -86.582685, 36.335425 ], [ -86.580998, 36.335161 ], [ -86.580342, 36.334692 ], [ -86.578844, 36.331606 ], [ -86.573783, 36.331048 ], [ -86.573473, 36.333365 ], [ -86.57482, 36.333492 ], [ -86.574061, 36.339319 ], [ -86.571407, 36.339676 ], [ -86.571001, 36.342543 ], [ -86.570618, 36.342705 ], [ -86.570519, 36.343606 ], [ -86.570468, 36.344071 ], [ -86.570768, 36.344104 ], [ -86.570322, 36.346744 ], [ -86.569384, 36.352308 ], [ -86.580283, 36.353243 ], [ -86.580188, 36.354551 ], [ -86.58017, 36.354791 ], [ -86.585529, 36.355086 ], [ -86.585244, 36.357326 ], [ -86.585242, 36.357345 ], [ -86.585091, 36.358556 ], [ -86.584128, 36.360218 ], [ -86.583288, 36.361092 ], [ -86.582256, 36.361079 ], [ -86.577123, 36.360623 ], [ -86.576786, 36.362201 ], [ -86.576187, 36.362435 ], [ -86.574922, 36.361065 ], [ -86.574784, 36.358366 ], [ -86.575174, 36.357331 ], [ -86.574682, 36.356257 ], [ -86.574458, 36.357609 ], [ -86.570307, 36.357201 ], [ -86.569403, 36.35711 ], [ -86.568727, 36.362607 ], [ -86.572201, 36.362912 ], [ -86.571821, 36.365322 ], [ -86.568295, 36.364576 ], [ -86.564244, 36.366722 ], [ -86.563709, 36.366961 ], [ -86.563913, 36.369352 ], [ -86.563066, 36.369463 ], [ -86.555117, 36.368632 ], [ -86.553681, 36.368758 ], [ -86.552492, 36.365334 ], [ -86.551492, 36.36261 ], [ -86.552746, 36.362092 ], [ -86.554505, 36.360139 ], [ -86.554938, 36.359639 ], [ -86.55537, 36.359163 ], [ -86.556167, 36.358266 ], [ -86.556913, 36.357201 ], [ -86.557448, 36.353543 ], [ -86.556882, 36.356 ], [ -86.554828, 36.355785 ], [ -86.55462, 36.354872 ], [ -86.553744, 36.35432 ], [ -86.552918, 36.3542 ], [ -86.552933, 36.353247 ], [ -86.552719, 36.352239 ], [ -86.554625, 36.352222 ], [ -86.556324, 36.350313 ], [ -86.556421, 36.350269 ], [ -86.556579, 36.350226 ], [ -86.55678, 36.350182 ], [ -86.556876, 36.350178 ], [ -86.556968, 36.350164 ], [ -86.557056, 36.350169 ], [ -86.557125, 36.350172 ], [ -86.557293, 36.350186 ], [ -86.557585, 36.350227 ], [ -86.557749, 36.350244 ], [ -86.55824, 36.350325 ], [ -86.558576, 36.350363 ], [ -86.55861, 36.350367 ], [ -86.558815, 36.349092 ], [ -86.558845, 36.348901 ], [ -86.558949, 36.34817 ], [ -86.559079, 36.347311 ], [ -86.559519, 36.343073 ], [ -86.559893, 36.341561 ], [ -86.560153, 36.340533 ], [ -86.560411, 36.339209 ], [ -86.56024, 36.339168 ], [ -86.559975, 36.339202 ], [ -86.559655, 36.339219 ], [ -86.559043, 36.33926 ], [ -86.558936, 36.339245 ], [ -86.558668, 36.339129 ], [ -86.558551, 36.339107 ], [ -86.558492, 36.339105 ], [ -86.558257, 36.339129 ], [ -86.558211, 36.339136 ], [ -86.557145, 36.339263 ], [ -86.555826, 36.338665 ], [ -86.553724, 36.337874 ], [ -86.551048, 36.337692 ], [ -86.549497, 36.337946 ], [ -86.550508, 36.342204 ], [ -86.550003, 36.344058 ], [ -86.549225, 36.345138 ], [ -86.546471, 36.347674 ], [ -86.542675, 36.351066 ], [ -86.537874, 36.354993 ], [ -86.537698, 36.355122 ], [ -86.537544, 36.355247 ], [ -86.537299, 36.355434 ], [ -86.537821, 36.355607 ], [ -86.538128, 36.355655 ], [ -86.538398, 36.355687 ], [ -86.539613, 36.355796 ], [ -86.540054, 36.355817 ], [ -86.540263, 36.355802 ], [ -86.540785, 36.355639 ], [ -86.541078, 36.355628 ], [ -86.5413, 36.355665 ], [ -86.541629, 36.355781 ], [ -86.542084, 36.355968 ], [ -86.542764, 36.356269 ], [ -86.543419, 36.356603 ], [ -86.543606, 36.35672 ], [ -86.543758, 36.356912 ], [ -86.543985, 36.357372 ], [ -86.544152, 36.357597 ], [ -86.544505, 36.35793 ], [ -86.545021, 36.358221 ], [ -86.545464, 36.358374 ], [ -86.545782, 36.358467 ], [ -86.546352, 36.358696 ], [ -86.546608, 36.358882 ], [ -86.546913, 36.359255 ], [ -86.547187, 36.359459 ], [ -86.547378, 36.359548 ], [ -86.548515, 36.359958 ], [ -86.549246, 36.360172 ], [ -86.549495, 36.360299 ], [ -86.549799, 36.360602 ], [ -86.550515, 36.361468 ], [ -86.550619, 36.36169 ], [ -86.55062, 36.362373 ], [ -86.550703, 36.362689 ], [ -86.550888, 36.362928 ], [ -86.551068, 36.363143 ], [ -86.553104, 36.36896 ], [ -86.555218, 36.370633 ], [ -86.557459, 36.37164 ], [ -86.55764, 36.372322 ], [ -86.557006, 36.37371 ], [ -86.557593, 36.378086 ], [ -86.558086, 36.379783 ], [ -86.558207, 36.382499 ], [ -86.558542, 36.382564 ], [ -86.56174, 36.38344 ], [ -86.563525, 36.383931 ], [ -86.569584, 36.38569 ], [ -86.572194, 36.385928 ], [ -86.574889, 36.385702 ], [ -86.578822, 36.385179 ], [ -86.582916, 36.38525 ], [ -86.585105, 36.387177 ], [ -86.586281, 36.38767 ], [ -86.588944, 36.38858 ], [ -86.591782, 36.388013 ], [ -86.593803, 36.389021 ], [ -86.602002, 36.39013 ], [ -86.607669, 36.391678 ], [ -86.608449, 36.3908 ], [ -86.608495, 36.388855 ], [ -86.61121, 36.386218 ], [ -86.613689, 36.385466 ], [ -86.615336, 36.384058 ], [ -86.615776, 36.38371 ], [ -86.61598, 36.381641 ], [ -86.615217, 36.380169 ], [ -86.615689, 36.378563 ], [ -86.617946, 36.376828 ], [ -86.617269, 36.37419 ], [ -86.616856, 36.370571 ], [ -86.615665, 36.367829 ], [ -86.613929, 36.366582 ], [ -86.611893, 36.364189 ], [ -86.611249, 36.362801 ], [ -86.609779, 36.359298 ] ] ] } }
]
}
