{
"type": "FeatureCollection",
"name": "intersection_pieces",
"crs": { "type": "name", "properties": { "name": "urn:ogc:def:crs:OGC:1.3:CRS84" } },
"features": [
{ "type": "Feature", "properties": { "precinct_key": "RUTHERFORD - 007665", "name20": "Rutherford - 007665", "county_norm": "RUTHERFORD", "prec_id": "007665", "district_num": "13", "area_weight": 0.584216112091966, "geometry_status": "dominant", "suggested_action": "manual_split_review" }, "geometry": { "type": "Polygon", "coordinates": [ [ [ -86.598344, 35.733225 ], [ -86.596261, 35.74574 ], [ -86.595837, 35.748658 ], [ -86.595642, 35.749975 ], [ -86.595205, 35.753082 ], [ -86.594537, 35.757616 ], [ -86.596005, 35.757537 ], [ -86.595595, 35.761255 ], [ -86.599069, 35.761774 ], [ -86.598986, 35.766206 ], [ -86.59736, 35.771562 ], [ -86.59999, 35.772941 ], [ -86.601895, 35.775071 ], [ -86.602547, 35.775366 ], [ -86.608415, 35.777945 ], [ -86.614263, 35.779952 ], [ -86.619071, 35.781189 ], [ -86.620148, 35.782942 ], [ -86.622226, 35.785134 ], [ -86.623718, 35.788296 ], [ -86.623795, 35.790379 ], [ -86.623703, 35.791191 ], [ -86.618838, 35.790787 ], [ -86.61849, 35.790758 ], [ -86.613328, 35.790331 ], [ -86.613241, 35.790824 ], [ -86.611751, 35.799307 ], [ -86.610908, 35.804115 ], [ -86.610991, 35.804207 ], [ -86.611086, 35.804279 ], [ -86.611250502442715, 35.80436093860169 ], [ -86.611855, 35.804795 ], [ -86.611944, 35.804972 ], [ -86.611957, 35.804998 ], [ -86.612146, 35.805498 ], [ -86.612234, 35.805625 ], [ -86.612375, 35.805855 ], [ -86.612608181146598, 35.80613464549544 ], [ -86.612754, 35.806394 ], [ -86.612734, 35.806537 ], [ -86.612572, 35.806845 ], [ -86.612558, 35.806905 ], [ -86.612558, 35.80701 ], [ -86.612646, 35.807416 ], [ -86.612754, 35.807663 ], [ -86.612806947141905, 35.80790169625071 ], [ -86.612815, 35.808131 ], [ -86.612903, 35.808394 ], [ -86.612995205589712, 35.808592597049184 ], [ -86.613531, 35.809965 ], [ -86.615283735725953, 35.809496212230371 ], [ -86.61536, 35.809476 ], [ -86.616937, 35.809054 ], [ -86.619016, 35.808499 ], [ -86.619486, 35.807851 ], [ -86.61971, 35.807174 ], [ -86.619678, 35.806859 ], [ -86.619475, 35.805714 ], [ -86.622415, 35.805227 ], [ -86.622689, 35.806742 ], [ -86.622878, 35.806967 ], [ -86.623284, 35.807223 ], [ -86.623386133708337, 35.807261859075801 ], [ -86.624996, 35.808196 ], [ -86.625198, 35.808897 ], [ -86.624995, 35.80927 ], [ -86.624564, 35.810196 ], [ -86.623863, 35.812403 ], [ -86.623826, 35.812522 ], [ -86.623615, 35.81366 ], [ -86.623291, 35.815735 ], [ -86.622619, 35.815689 ], [ -86.622548086585937, 35.815994815425782 ], [ -86.621684, 35.816297 ], [ -86.620919, 35.815445 ], [ -86.618748, 35.815551 ], [ -86.618691, 35.816156 ], [ -86.618354, 35.81617 ], [ -86.617033, 35.816227 ], [ -86.61691, 35.813484 ], [ -86.61387, 35.813486 ], [ -86.613433, 35.813486 ], [ -86.612951, 35.813515 ], [ -86.612868, 35.813965 ], [ -86.612494, 35.816003 ], [ -86.61232, 35.816786 ], [ -86.612245, 35.817448 ], [ -86.612707, 35.819215 ], [ -86.612505027577427, 35.820426222877728 ], [ -86.612109, 35.82237 ], [ -86.611996, 35.823148 ], [ -86.611806, 35.824469 ], [ -86.611816, 35.824558 ], [ -86.612657, 35.824739 ], [ -86.613195435227425, 35.824650236254982 ], [ -86.613506, 35.824671 ], [ -86.616046, 35.825127 ], [ -86.619306, 35.82566 ], [ -86.619792, 35.82574 ], [ -86.620805263880186, 35.825877022825743 ], [ -86.626018, 35.826738 ], [ -86.625534, 35.832249 ], [ -86.617335, 35.831287 ], [ -86.617084, 35.833264 ], [ -86.617015614466851, 35.833806022566506 ], [ -86.616383, 35.838795 ], [ -86.608358, 35.838738 ], [ -86.608061, 35.838735 ], [ -86.60343, 35.838704 ], [ -86.603384, 35.839017 ], [ -86.603247, 35.839957 ], [ -86.603221, 35.84014 ], [ -86.60309, 35.840161 ], [ -86.602988, 35.840177 ], [ -86.602683, 35.840228 ], [ -86.602582, 35.840246 ], [ -86.601943379360463, 35.840989085332822 ], [ -86.601931, 35.840997 ], [ -86.6019, 35.841022 ], [ -86.601851, 35.841062 ], [ -86.601752, 35.841161 ], [ -86.601598, 35.841331 ], [ -86.601547, 35.841417 ], [ -86.601506, 35.841498 ], [ -86.60149, 35.841567 ], [ -86.60146, 35.841759 ], [ -86.601443, 35.841963 ], [ -86.601439, 35.84208 ], [ -86.601445, 35.842213 ], [ -86.60147, 35.84242 ], [ -86.601515, 35.842691 ], [ -86.601557615439788, 35.842873084402513 ], [ -86.60162, 35.844535 ], [ -86.601026, 35.84514 ], [ -86.601178, 35.846465 ], [ -86.601457, 35.848891 ], [ -86.600221, 35.849847 ], [ -86.600032, 35.849994 ], [ -86.600168434432987, 35.851094866199396 ], [ -86.600176, 35.851168 ], [ -86.600209, 35.851429 ], [ -86.600221, 35.851519 ], [ -86.59766, 35.850955 ], [ -86.595144, 35.8508 ], [ -86.594075, 35.850795 ], [ -86.586686, 35.850791 ], [ -86.585626, 35.850791 ], [ -86.583511, 35.850721 ], [ -86.562051, 35.847186 ], [ -86.561143, 35.847039 ], [ -86.545298, 35.843898 ], [ -86.544929, 35.843829 ], [ -86.54597, 35.837091 ], [ -86.546378, 35.833106 ], [ -86.547453, 35.830309 ], [ -86.547144, 35.829798 ], [ -86.546119, 35.827626 ], [ -86.545608, 35.824816 ], [ -86.545428, 35.823129 ], [ -86.545827, 35.820533 ], [ -86.54451, 35.819531 ], [ -86.54436, 35.815647 ], [ -86.545707, 35.807362 ], [ -86.545709, 35.805442 ], [ -86.539346, 35.806135 ], [ -86.536652, 35.807075 ], [ -86.531689, 35.806738 ], [ -86.528243, 35.807695 ], [ -86.527258, 35.80836 ], [ -86.526983, 35.809603 ], [ -86.526341, 35.810346 ], [ -86.524326, 35.810398 ], [ -86.516933, 35.809663 ], [ -86.5122, 35.810742 ], [ -86.50984, 35.811502 ], [ -86.506749, 35.810532 ], [ -86.503002, 35.810086 ], [ -86.499439, 35.809602 ], [ -86.49852, 35.809493 ], [ -86.496945, 35.809325 ], [ -86.49604, 35.809245 ], [ -86.482489, 35.808034 ], [ -86.482292, 35.808018 ], [ -86.482225, 35.807944 ], [ -86.481861, 35.807541 ], [ -86.481728, 35.8074 ], [ -86.481259, 35.807688 ], [ -86.481214, 35.807715 ], [ -86.481041, 35.80784 ], [ -86.480988, 35.807879 ], [ -86.480896, 35.807946 ], [ -86.480868, 35.807947 ], [ -86.480702, 35.808055 ], [ -86.480621313237037, 35.808119525523409 ], [ -86.478789, 35.809277 ], [ -86.47694, 35.809211 ], [ -86.475557, 35.809139 ], [ -86.475287, 35.809125 ], [ -86.47141, 35.808939 ], [ -86.470028, 35.808874 ], [ -86.469873278695175, 35.808863909560174 ], [ -86.469807, 35.808859 ], [ -86.469752, 35.808856 ], [ -86.46954, 35.808785 ], [ -86.46905, 35.80831 ], [ -86.470305, 35.80769 ], [ -86.470883, 35.807404 ], [ -86.471194, 35.80726 ], [ -86.471549, 35.807049 ], [ -86.471926, 35.806848 ], [ -86.472044, 35.80679 ], [ -86.474554, 35.805563 ], [ -86.476461, 35.804631 ], [ -86.478321, 35.803682 ], [ -86.478344, 35.803672 ], [ -86.479159, 35.803308 ], [ -86.480555, 35.802618 ], [ -86.480434, 35.802519 ], [ -86.482382, 35.801531 ], [ -86.48251, 35.801655 ], [ -86.484635, 35.800606 ], [ -86.485107, 35.800371 ], [ -86.485554, 35.800148 ], [ -86.489396, 35.798236 ], [ -86.489608, 35.798129 ], [ -86.490382, 35.797739 ], [ -86.491159, 35.797309 ], [ -86.491604, 35.797041 ], [ -86.492016, 35.796794 ], [ -86.492335, 35.79659 ], [ -86.492413, 35.79654 ], [ -86.492487, 35.796492 ], [ -86.493164, 35.796059 ], [ -86.494426, 35.795163 ], [ -86.495573, 35.794277 ], [ -86.496603, 35.793391 ], [ -86.496998, 35.793009 ], [ -86.497317, 35.792704 ], [ -86.497493, 35.792534 ], [ -86.497597, 35.792429 ], [ -86.497924, 35.792102 ], [ -86.499733, 35.790162 ], [ -86.499984, 35.789894 ], [ -86.500247, 35.789594 ], [ -86.500299, 35.789535 ], [ -86.50041, 35.789378 ], [ -86.500591, 35.789124 ], [ -86.500886, 35.788549 ], [ -86.50105, 35.788157 ], [ -86.501344, 35.787464 ], [ -86.50163, 35.786794 ], [ -86.502001, 35.785889 ], [ -86.502367, 35.785045 ], [ -86.50251, 35.784743 ], [ -86.502646, 35.784493 ], [ -86.502711, 35.784375 ], [ -86.502975, 35.784012 ], [ -86.503815, 35.783211 ], [ -86.505803, 35.781638 ], [ -86.505912, 35.781549 ], [ -86.507217, 35.780487 ], [ -86.508223, 35.779396 ], [ -86.511095, 35.77626 ], [ -86.511201, 35.776148 ], [ -86.512064, 35.775244 ], [ -86.512509, 35.774788 ], [ -86.513904, 35.773359 ], [ -86.513984, 35.773279 ], [ -86.51463, 35.77262 ], [ -86.514697, 35.772553 ], [ -86.515529, 35.771708 ], [ -86.516301, 35.771008 ], [ -86.516901, 35.770573 ], [ -86.516973, 35.770527 ], [ -86.517835, 35.769986 ], [ -86.517921, 35.769932 ], [ -86.518113, 35.769819 ], [ -86.518953, 35.769327 ], [ -86.519234, 35.769163 ], [ -86.519378, 35.769077 ], [ -86.519588, 35.768955 ], [ -86.519812, 35.768821 ], [ -86.519957, 35.768735 ], [ -86.52122, 35.768 ], [ -86.521562, 35.767798 ], [ -86.524251, 35.766216 ], [ -86.526678, 35.764796 ], [ -86.528411, 35.763782 ], [ -86.52902, 35.763417 ], [ -86.530617, 35.762458 ], [ -86.531364, 35.762065 ], [ -86.532197, 35.761627 ], [ -86.533601, 35.760889 ], [ -86.539664, 35.757664 ], [ -86.541146, 35.756858 ], [ -86.542943, 35.755939 ], [ -86.544804, 35.755148 ], [ -86.54616, 35.754592 ], [ -86.54821, 35.753758 ], [ -86.551123, 35.752558 ], [ -86.552121, 35.752098 ], [ -86.552699, 35.751734 ], [ -86.553171, 35.751388 ], [ -86.553517, 35.751052 ], [ -86.553831, 35.750732 ], [ -86.554081, 35.750396 ], [ -86.554489, 35.74987 ], [ -86.554998, 35.749146 ], [ -86.555418, 35.74855 ], [ -86.557381, 35.745784 ], [ -86.5583, 35.744489 ], [ -86.558509, 35.744204 ], [ -86.559201, 35.743224 ], [ -86.561278, 35.740287 ], [ -86.561971, 35.739308 ], [ -86.562058, 35.739185 ], [ -86.562291, 35.738867 ], [ -86.562653, 35.738374 ], [ -86.563061, 35.737882 ], [ -86.563319, 35.737598 ], [ -86.563375, 35.737537 ], [ -86.563731, 35.737243 ], [ -86.564224, 35.736889 ], [ -86.564864, 35.736539 ], [ -86.56518, 35.736368 ], [ -86.565821, 35.736099 ], [ -86.566242, 35.735959 ], [ -86.566736, 35.735854 ], [ -86.567505, 35.73573 ], [ -86.568659, 35.735603 ], [ -86.569936, 35.73541 ], [ -86.57159, 35.7352 ], [ -86.574105, 35.734877 ], [ -86.576185, 35.734662 ], [ -86.577302, 35.73459 ], [ -86.577881, 35.734549 ], [ -86.579499, 35.734416 ], [ -86.582602, 35.73417 ], [ -86.584878, 35.734025 ], [ -86.587293, 35.733762 ], [ -86.58782, 35.733727 ], [ -86.588321, 35.733683 ], [ -86.588892, 35.733618 ], [ -86.59135, 35.733344 ], [ -86.593189, 35.733145 ], [ -86.595411, 35.732981 ], [ -86.597017784636023, 35.733114679634816 ], [ -86.597124, 35.733126 ], [ -86.597209997558437, 35.733130669680925 ], [ -86.598344, 35.733225 ] ] ] } },
{ "type": "Feature", "properties": { "precinct_key": "RUTHERFORD - 007665", "name20": "Rutherford - 007665", "county_norm": "RUTHERFORD", "prec_id": "007665", "district_num": "62", "area_weight": 1.6485038619244533e-05, "geometry_status": "sliver", "suggested_action": "manual_split_review" }, "geometry": { "type": "GeometryCollection", "geometries": [ { "type": "Polygon", "coordinates": [ [ [ -86.568295, 35.699246 ], [ -86.568082, 35.699244 ], [ -86.5627, 35.698892 ], [ -86.555130043512406, 35.698394945472025 ], [ -86.568295, 35.699246 ] ] ] }, { "type": "Polygon", "coordinates": [ [ [ -86.543116, 35.697617 ], [ -86.543585, 35.69486 ], [ -86.543685, 35.694278 ], [ -86.543116, 35.697617 ] ] ] }, { "type": "Polygon", "coordinates": [ [ [ -86.543685, 35.694278 ], [ -86.543235, 35.694207 ], [ -86.53734, 35.693266 ], [ -86.543685, 35.694278 ] ] ] }, { "type": "Polygon", "coordinates": [ [ [ -86.53481, 35.692076 ], [ -86.53375, 35.692 ], [ -86.532372, 35.691877 ], [ -86.531598248717401, 35.691798296737382 ], [ -86.53481, 35.692076 ] ] ] }, { "type": "Polygon", "coordinates": [ [ [ -86.529840724961431, 35.691646295189102 ], [ -86.529581, 35.691626 ], [ -86.529253307506735, 35.691595485740294 ], [ -86.529840724961431, 35.691646295189102 ] ] ] }, { "type": "Polygon", "coordinates": [ [ [ -86.526878, 35.69139 ], [ -86.526792, 35.691374 ], [ -86.526735, 35.691345 ], [ -86.526678, 35.691299 ], [ -86.526642, 35.691246 ], [ -86.526625, 35.691185 ], [ -86.526618, 35.691043 ], [ -86.526702900045265, 35.690334934835455 ], [ -86.526878, 35.69139 ] ] ] }, { "type": "LineString", "coordinates": [ [ -86.53734, 35.693266 ], [ -86.537514, 35.692235 ] ] }, { "type": "LineString", "coordinates": [ [ -86.537514, 35.692235 ], [ -86.535628, 35.69215 ] ] }, { "type": "Point", "coordinates": [ -86.581343, 35.699377 ] }, { "type": "Point", "coordinates": [ -86.57107, 35.699241 ] }, { "type": "Point", "coordinates": [ -86.523378, 35.689855 ] }, { "type": "Point", "coordinates": [ -86.526643, 35.689974 ] }, { "type": "Point", "coordinates": [ -86.523898, 35.689761 ] } ] } },
{ "type": "Feature", "properties": { "precinct_key": "RUTHERFORD - 007665", "name20": "Rutherford - 007665", "county_norm": "RUTHERFORD", "prec_id": "007665", "district_num": "63", "area_weight": 9.7349287813203479e-05, "geometry_status": "sliver", "suggested_action": "manual_split_review" }, "geometry": { "type": "GeometryCollection", "geometries": [ { "type": "Polygon", "coordinates": [ [ [ -86.600221, 35.851519 ], [ -86.600209, 35.851429 ], [ -86.600176, 35.851168 ], [ -86.600168434432987, 35.851094866199396 ], [ -86.600221, 35.851519 ] ] ] }, { "type": "Polygon", "coordinates": [ [ [ -86.600032, 35.849994 ], [ -86.600221, 35.849847 ], [ -86.601457, 35.848891 ], [ -86.600032, 35.849994 ] ] ] }, { "type": "Polygon", "coordinates": [ [ [ -86.601457, 35.848891 ], [ -86.601178, 35.846465 ], [ -86.601026, 35.84514 ], [ -86.601457, 35.848891 ] ] ] }, { "type": "Polygon", "coordinates": [ [ [ -86.601557615439788, 35.842873084402513 ], [ -86.601515, 35.842691 ], [ -86.60147, 35.84242 ], [ -86.601445, 35.842213 ], [ -86.601439, 35.84208 ], [ -86.601443, 35.841963 ], [ -86.60146, 35.841759 ], [ -86.60149, 35.841567 ], [ -86.601506, 35.841498 ], [ -86.601557615439788, 35.842873084402513 ] ] ] }, { "type": "Polygon", "coordinates": [ [ [ -86.601506, 35.841498 ], [ -86.601547, 35.841417 ], [ -86.601598, 35.841331 ], [ -86.601752, 35.841161 ], [ -86.601851, 35.841062 ], [ -86.6019, 35.841022 ], [ -86.601931, 35.840997 ], [ -86.601943379360463, 35.840989085332822 ], [ -86.601506, 35.841498 ] ] ] }, { "type": "Polygon", "coordinates": [ [ [ -86.602582, 35.840246 ], [ -86.602683, 35.840228 ], [ -86.602988, 35.840177 ], [ -86.60309, 35.840161 ], [ -86.603221, 35.84014 ], [ -86.602582, 35.840246 ] ] ] }, { "type": "Polygon", "coordinates": [ [ [ -86.603221, 35.84014 ], [ -86.603247, 35.839957 ], [ -86.603384, 35.839017 ], [ -86.60343, 35.838704 ], [ -86.603221, 35.84014 ] ] ] }, { "type": "Polygon", "coordinates": [ [ [ -86.60343, 35.838704 ], [ -86.608061, 35.838735 ], [ -86.608358, 35.838738 ], [ -86.616383, 35.838795 ], [ -86.60343, 35.838704 ] ] ] }, { "type": "Polygon", "coordinates": [ [ [ -86.617015614466851, 35.833806022566506 ], [ -86.617084, 35.833264 ], [ -86.617335, 35.831287 ], [ -86.617015614466851, 35.833806022566506 ] ] ] }, { "type": "Polygon", "coordinates": [ [ [ -86.620805263880186, 35.825877022825743 ], [ -86.619792, 35.82574 ], [ -86.619306, 35.82566 ], [ -86.616046, 35.825127 ], [ -86.613506, 35.824671 ], [ -86.620805263880186, 35.825877022825743 ] ] ] }, { "type": "Polygon", "coordinates": [ [ [ -86.613195435227425, 35.824650236254982 ], [ -86.612657, 35.824739 ], [ -86.611816, 35.824558 ], [ -86.613195435227425, 35.824650236254982 ] ] ] }, { "type": "Polygon", "coordinates": [ [ [ -86.611816, 35.824558 ], [ -86.611806, 35.824469 ], [ -86.611996, 35.823148 ], [ -86.612109, 35.82237 ], [ -86.612505027577427, 35.820426222877728 ], [ -86.611816, 35.824558 ] ] ] }, { "type": "Polygon", "coordinates": [ [ [ -86.612245, 35.817448 ], [ -86.61232, 35.816786 ], [ -86.612494, 35.816003 ], [ -86.612868, 35.813965 ], [ -86.612951, 35.813515 ], [ -86.612245, 35.817448 ] ] ] }, { "type": "Polygon", "coordinates": [ [ [ -86.612951, 35.813515 ], [ -86.613433, 35.813486 ], [ -86.61387, 35.813486 ], [ -86.612951, 35.813515 ] ] ] }, { "type": "Polygon", "coordinates": [ [ [ -86.617033, 35.816227 ], [ -86.618354, 35.81617 ], [ -86.618691, 35.816156 ], [ -86.617033, 35.816227 ] ] ] }, { "type": "Polygon", "coordinates": [ [ [ -86.622548086585937, 35.815994815425782 ], [ -86.622619, 35.815689 ], [ -86.623291, 35.815735 ], [ -86.622548086585937, 35.815994815425782 ] ] ] }, { "type": "Polygon", "coordinates": [ [ [ -86.623291, 35.815735 ], [ -86.623615, 35.81366 ], [ -86.623826, 35.812522 ], [ -86.623291, 35.815735 ] ] ] }, { "type": "Polygon", "coordinates": [ [ [ -86.623826, 35.812522 ], [ -86.623863, 35.812403 ], [ -86.624564, 35.810196 ], [ -86.624995, 35.80927 ], [ -86.625198, 35.808897 ], [ -86.623826, 35.812522 ] ] ] }, { "type": "Polygon", "coordinates": [ [ [ -86.623386133708337, 35.807261859075801 ], [ -86.623284, 35.807223 ], [ -86.622878, 35.806967 ], [ -86.623386133708337, 35.807261859075801 ] ] ] }, { "type": "Polygon", "coordinates": [ [ [ -86.622878, 35.806967 ], [ -86.622689, 35.806742 ], [ -86.622415, 35.805227 ], [ -86.622878, 35.806967 ] ] ] }, { "type": "Polygon", "coordinates": [ [ [ -86.619475, 35.805714 ], [ -86.619678, 35.806859 ], [ -86.61971, 35.807174 ], [ -86.619475, 35.805714 ] ] ] }, { "type": "Polygon", "coordinates": [ [ [ -86.61971, 35.807174 ], [ -86.619486, 35.807851 ], [ -86.619016, 35.808499 ], [ -86.61971, 35.807174 ] ] ] }, { "type": "Polygon", "coordinates": [ [ [ -86.616937, 35.809054 ], [ -86.61536, 35.809476 ], [ -86.615283735725953, 35.809496212230371 ], [ -86.616937, 35.809054 ] ] ] }, { "type": "Polygon", "coordinates": [ [ [ -86.612995205589712, 35.808592597049184 ], [ -86.612903, 35.808394 ], [ -86.612815, 35.808131 ], [ -86.612995205589712, 35.808592597049184 ] ] ] }, { "type": "Polygon", "coordinates": [ [ [ -86.612806947141905, 35.80790169625071 ], [ -86.612754, 35.807663 ], [ -86.612646, 35.807416 ], [ -86.612558, 35.80701 ], [ -86.612558, 35.806905 ], [ -86.612572, 35.806845 ], [ -86.612734, 35.806537 ], [ -86.612754, 35.806394 ], [ -86.612806947141905, 35.80790169625071 ] ] ] }, { "type": "Polygon", "coordinates": [ [ [ -86.612608181146598, 35.80613464549544 ], [ -86.612375, 35.805855 ], [ -86.612234, 35.805625 ], [ -86.612146, 35.805498 ], [ -86.611957, 35.804998 ], [ -86.611944, 35.804972 ], [ -86.611855, 35.804795 ], [ -86.612608181146598, 35.80613464549544 ] ] ] }, { "type": "Polygon", "coordinates": [ [ [ -86.611250502442715, 35.80436093860169 ], [ -86.611086, 35.804279 ], [ -86.610991, 35.804207 ], [ -86.610908, 35.804115 ], [ -86.611250502442715, 35.80436093860169 ] ] ] }, { "type": "Polygon", "coordinates": [ [ [ -86.610908, 35.804115 ], [ -86.611751, 35.799307 ], [ -86.613241, 35.790824 ], [ -86.610908, 35.804115 ] ] ] }, { "type": "Polygon", "coordinates": [ [ [ -86.613328, 35.790331 ], [ -86.61849, 35.790758 ], [ -86.618838, 35.790787 ], [ -86.623703, 35.791191 ], [ -86.613328, 35.790331 ] ] ] }, { "type": "LineString", "coordinates": [ [ -86.61387, 35.813486 ], [ -86.61691, 35.813484 ] ] }, { "type": "LineString", "coordinates": [ [ -86.61691, 35.813484 ], [ -86.617033, 35.816227 ] ] }, { "type": "LineString", "coordinates": [ [ -86.618691, 35.816156 ], [ -86.618748, 35.815551 ] ] }, { "type": "LineString", "coordinates": [ [ -86.618748, 35.815551 ], [ -86.620919, 35.815445 ] ] }, { "type": "LineString", "coordinates": [ [ -86.620919, 35.815445 ], [ -86.621684, 35.816297 ] ] }, { "type": "LineString", "coordinates": [ [ -86.619016, 35.808499 ], [ -86.616937, 35.809054 ] ] }, { "type": "LineString", "coordinates": [ [ -86.613241, 35.790824 ], [ -86.613328, 35.790331 ] ] }, { "type": "Point", "coordinates": [ -86.60162, 35.844535 ] }, { "type": "Point", "coordinates": [ -86.613531, 35.809965 ] }, { "type": "Point", "coordinates": [ -86.625534, 35.832249 ] }, { "type": "Point", "coordinates": [ -86.626018, 35.826738 ] }, { "type": "Point", "coordinates": [ -86.612707, 35.819215 ] }, { "type": "Point", "coordinates": [ -86.624996, 35.808196 ] } ] } },
{ "type": "Feature", "properties": { "precinct_key": "RUTHERFORD - 007665", "name20": "Rutherford - 007665", "county_norm": "RUTHERFORD", "prec_id": "007665", "district_num": "34", "area_weight": 0.41567005358160086, "geometry_status": "real_secondary", "suggested_action": "manual_split_review" }, "geometry": { "type": "GeometryCollection", "geometries": [ { "type": "Polygon", "coordinates": [ [ [ -86.597209997558437, 35.733130669680925 ], [ -86.597124, 35.733126 ], [ -86.597017784636023, 35.733114679634816 ], [ -86.597209997558437, 35.733130669680925 ] ] ] }, { "type": "Polygon", "coordinates": [ [ [ -86.579497, 35.700735 ], [ -86.578647, 35.707748 ], [ -86.579249, 35.708102 ], [ -86.587512, 35.708959 ], [ -86.587396, 35.712219 ], [ -86.588655, 35.713255 ], [ -86.588846, 35.714835 ], [ -86.586471, 35.715818 ], [ -86.58582, 35.717515 ], [ -86.585889, 35.721426 ], [ -86.586516, 35.722089 ], [ -86.589832, 35.724242 ], [ -86.591441, 35.726822 ], [ -86.593553, 35.728008 ], [ -86.593765, 35.728581 ], [ -86.593391, 35.731578 ], [ -86.593189, 35.733145 ], [ -86.59135, 35.733344 ], [ -86.588892, 35.733618 ], [ -86.588321, 35.733683 ], [ -86.58782, 35.733727 ], [ -86.587293, 35.733762 ], [ -86.584878, 35.734025 ], [ -86.582602, 35.73417 ], [ -86.579499, 35.734416 ], [ -86.577881, 35.734549 ], [ -86.577302, 35.73459 ], [ -86.576185, 35.734662 ], [ -86.574105, 35.734877 ], [ -86.57159, 35.7352 ], [ -86.569936, 35.73541 ], [ -86.568659, 35.735603 ], [ -86.567505, 35.73573 ], [ -86.566736, 35.735854 ], [ -86.566242, 35.735959 ], [ -86.565821, 35.736099 ], [ -86.56518, 35.736368 ], [ -86.564864, 35.736539 ], [ -86.564224, 35.736889 ], [ -86.563731, 35.737243 ], [ -86.563375, 35.737537 ], [ -86.563319, 35.737598 ], [ -86.563061, 35.737882 ], [ -86.562653, 35.738374 ], [ -86.562291, 35.738867 ], [ -86.562058, 35.739185 ], [ -86.561971, 35.739308 ], [ -86.561278, 35.740287 ], [ -86.559201, 35.743224 ], [ -86.558509, 35.744204 ], [ -86.5583, 35.744489 ], [ -86.557381, 35.745784 ], [ -86.555418, 35.74855 ], [ -86.554998, 35.749146 ], [ -86.554489, 35.74987 ], [ -86.554081, 35.750396 ], [ -86.553831, 35.750732 ], [ -86.553517, 35.751052 ], [ -86.553171, 35.751388 ], [ -86.552699, 35.751734 ], [ -86.552121, 35.752098 ], [ -86.551123, 35.752558 ], [ -86.54821, 35.753758 ], [ -86.54616, 35.754592 ], [ -86.544804, 35.755148 ], [ -86.542943, 35.755939 ], [ -86.541146, 35.756858 ], [ -86.539664, 35.757664 ], [ -86.533601, 35.760889 ], [ -86.532197, 35.761627 ], [ -86.531364, 35.762065 ], [ -86.530617, 35.762458 ], [ -86.52902, 35.763417 ], [ -86.528411, 35.763782 ], [ -86.526678, 35.764796 ], [ -86.524251, 35.766216 ], [ -86.521562, 35.767798 ], [ -86.52122, 35.768 ], [ -86.519957, 35.768735 ], [ -86.519812, 35.768821 ], [ -86.519588, 35.768955 ], [ -86.519378, 35.769077 ], [ -86.519234, 35.769163 ], [ -86.518953, 35.769327 ], [ -86.518113, 35.769819 ], [ -86.517921, 35.769932 ], [ -86.517835, 35.769986 ], [ -86.516973, 35.770527 ], [ -86.516901, 35.770573 ], [ -86.516301, 35.771008 ], [ -86.515529, 35.771708 ], [ -86.514697, 35.772553 ], [ -86.51463, 35.77262 ], [ -86.513984, 35.773279 ], [ -86.513904, 35.773359 ], [ -86.512509, 35.774788 ], [ -86.512064, 35.775244 ], [ -86.511201, 35.776148 ], [ -86.511095, 35.77626 ], [ -86.508223, 35.779396 ], [ -86.507217, 35.780487 ], [ -86.505912, 35.781549 ], [ -86.505803, 35.781638 ], [ -86.503815, 35.783211 ], [ -86.502975, 35.784012 ], [ -86.502711, 35.784375 ], [ -86.502646, 35.784493 ], [ -86.50251, 35.784743 ], [ -86.502367, 35.785045 ], [ -86.502001, 35.785889 ], [ -86.50163, 35.786794 ], [ -86.501344, 35.787464 ], [ -86.50105, 35.788157 ], [ -86.500886, 35.788549 ], [ -86.500591, 35.789124 ], [ -86.50041, 35.789378 ], [ -86.500299, 35.789535 ], [ -86.500247, 35.789594 ], [ -86.499984, 35.789894 ], [ -86.499733, 35.790162 ], [ -86.497924, 35.792102 ], [ -86.497597, 35.792429 ], [ -86.497493, 35.792534 ], [ -86.497317, 35.792704 ], [ -86.496998, 35.793009 ], [ -86.496603, 35.793391 ], [ -86.495573, 35.794277 ], [ -86.494426, 35.795163 ], [ -86.493164, 35.796059 ], [ -86.492487, 35.796492 ], [ -86.492413, 35.79654 ], [ -86.492335, 35.79659 ], [ -86.492016, 35.796794 ], [ -86.491604, 35.797041 ], [ -86.491159, 35.797309 ], [ -86.490382, 35.797739 ], [ -86.489608, 35.798129 ], [ -86.489396, 35.798236 ], [ -86.485554, 35.800148 ], [ -86.485107, 35.800371 ], [ -86.484635, 35.800606 ], [ -86.48251, 35.801655 ], [ -86.482382, 35.801531 ], [ -86.480434, 35.802519 ], [ -86.480555, 35.802618 ], [ -86.479159, 35.803308 ], [ -86.478344, 35.803672 ], [ -86.478321, 35.803682 ], [ -86.476461, 35.804631 ], [ -86.474554, 35.805563 ], [ -86.472044, 35.80679 ], [ -86.471926, 35.806848 ], [ -86.471549, 35.807049 ], [ -86.471194, 35.80726 ], [ -86.470883, 35.807404 ], [ -86.470305, 35.80769 ], [ -86.46905, 35.80831 ], [ -86.468149, 35.80869 ], [ -86.466789, 35.809161 ], [ -86.464832, 35.809605 ], [ -86.459229, 35.810716 ], [ -86.459504, 35.808932 ], [ -86.459781, 35.807227 ], [ -86.460046, 35.804728 ], [ -86.460246, 35.803824 ], [ -86.460404, 35.80314 ], [ -86.460643, 35.801657 ], [ -86.461032, 35.799296 ], [ -86.461218, 35.798321 ], [ -86.461217, 35.798218 ], [ -86.461216, 35.798044 ], [ -86.461163, 35.79781 ], [ -86.461013, 35.79759 ], [ -86.460785, 35.797413 ], [ -86.46045, 35.797264 ], [ -86.459434, 35.79684 ], [ -86.458694, 35.796532 ], [ -86.456855, 35.795724 ], [ -86.455018, 35.794916 ], [ -86.450583, 35.793127 ], [ -86.448618, 35.79234 ], [ -86.446897, 35.7904 ], [ -86.445171, 35.789132 ], [ -86.443442, 35.788852 ], [ -86.444188, 35.782937 ], [ -86.444437, 35.781397 ], [ -86.445546, 35.78108 ], [ -86.448554, 35.781127 ], [ -86.452013, 35.780084 ], [ -86.455068, 35.780422 ], [ -86.458089, 35.783057 ], [ -86.465877, 35.783715 ], [ -86.467068, 35.783312 ], [ -86.472369, 35.783858 ], [ -86.471995, 35.782095 ], [ -86.472413, 35.77971 ], [ -86.470758, 35.778101 ], [ -86.469393, 35.773688 ], [ -86.46947, 35.772723 ], [ -86.469202, 35.771764 ], [ -86.466665, 35.771538 ], [ -86.465996, 35.769573 ], [ -86.466383, 35.765801 ], [ -86.465816, 35.764506 ], [ -86.465386, 35.759496 ], [ -86.465093, 35.758786 ], [ -86.462764, 35.758252 ], [ -86.462247, 35.755565 ], [ -86.46058, 35.75263 ], [ -86.459842, 35.750823 ], [ -86.466487, 35.751371 ], [ -86.469946, 35.752616 ], [ -86.47122, 35.752649 ], [ -86.475273, 35.751728 ], [ -86.47885, 35.750239 ], [ -86.481064, 35.749949 ], [ -86.483014, 35.750118 ], [ -86.489259, 35.750613 ], [ -86.492231, 35.752401 ], [ -86.493477, 35.751765 ], [ -86.493954, 35.748121 ], [ -86.495882, 35.74693 ], [ -86.498008, 35.746735 ], [ -86.50028, 35.744658 ], [ -86.500965, 35.742195 ], [ -86.500231, 35.741403 ], [ -86.499538, 35.740254 ], [ -86.501648, 35.736582 ], [ -86.502217, 35.735791 ], [ -86.501817, 35.73463 ], [ -86.502317, 35.731952 ], [ -86.503094, 35.730702 ], [ -86.504032, 35.728993 ], [ -86.501537, 35.728528 ], [ -86.501735, 35.725626 ], [ -86.503682, 35.724835 ], [ -86.505854, 35.724307 ], [ -86.515877, 35.723486 ], [ -86.51716, 35.723516 ], [ -86.521674, 35.72441 ], [ -86.526562, 35.72538 ], [ -86.527586, 35.725573 ], [ -86.527559, 35.724741 ], [ -86.525352, 35.719651 ], [ -86.523738, 35.711463 ], [ -86.52377, 35.709699 ], [ -86.524454, 35.704696 ], [ -86.524731, 35.702642 ], [ -86.524996, 35.700443 ], [ -86.524752, 35.699026 ], [ -86.523953, 35.695295 ], [ -86.523378, 35.689855 ], [ -86.523898, 35.689761 ], [ -86.526643, 35.689974 ], [ -86.526702900045265, 35.690334934835455 ], [ -86.526618, 35.691043 ], [ -86.526625, 35.691185 ], [ -86.526642, 35.691246 ], [ -86.526678, 35.691299 ], [ -86.526735, 35.691345 ], [ -86.526792, 35.691374 ], [ -86.526878, 35.69139 ], [ -86.529253307506735, 35.691595485740294 ], [ -86.529581, 35.691626 ], [ -86.529840724961431, 35.691646295189102 ], [ -86.531598248717401, 35.691798296737382 ], [ -86.532372, 35.691877 ], [ -86.53375, 35.692 ], [ -86.53481, 35.692076 ], [ -86.535628, 35.69215 ], [ -86.537514, 35.692235 ], [ -86.53734, 35.693266 ], [ -86.543235, 35.694207 ], [ -86.543685, 35.694278 ], [ -86.543585, 35.69486 ], [ -86.543116, 35.697617 ], [ -86.555130043512406, 35.698394945472025 ], [ -86.5627, 35.698892 ], [ -86.568082, 35.699244 ], [ -86.568295, 35.699246 ], [ -86.57107, 35.699241 ], [ -86.581343, 35.699377 ], [ -86.579497, 35.700735 ] ] ] }, { "type": "Polygon", "coordinates": [ [ [ -86.469752, 35.808856 ], [ -86.469807, 35.808859 ], [ -86.469873278695175, 35.808863909560174 ], [ -86.469752, 35.808856 ] ] ] }, { "type": "Polygon", "coordinates": [ [ [ -86.470028, 35.808874 ], [ -86.47141, 35.808939 ], [ -86.475287, 35.809125 ], [ -86.475557, 35.809139 ], [ -86.47694, 35.809211 ], [ -86.470028, 35.808874 ] ] ] }, { "type": "Polygon", "coordinates": [ [ [ -86.480621313237037, 35.808119525523409 ], [ -86.480702, 35.808055 ], [ -86.480868, 35.807947 ], [ -86.480896, 35.807946 ], [ -86.480621313237037, 35.808119525523409 ] ] ] }, { "type": "Polygon", "coordinates": [ [ [ -86.480896, 35.807946 ], [ -86.480988, 35.807879 ], [ -86.481041, 35.80784 ], [ -86.481214, 35.807715 ], [ -86.481259, 35.807688 ], [ -86.481728, 35.8074 ], [ -86.481861, 35.807541 ], [ -86.482225, 35.807944 ], [ -86.482292, 35.808018 ], [ -86.480896, 35.807946 ] ] ] }, { "type": "LineString", "coordinates": [ [ -86.482292, 35.808018 ], [ -86.482489, 35.808034 ] ] }, { "type": "Point", "coordinates": [ -86.598344, 35.733225 ] }, { "type": "Point", "coordinates": [ -86.595411, 35.732981 ] }, { "type": "Point", "coordinates": [ -86.46954, 35.808785 ] }, { "type": "Point", "coordinates": [ -86.478789, 35.809277 ] } ] } }
]
}
