{
"type": "FeatureCollection",
"name": "precinct",
"crs": { "type": "name", "properties": { "name": "urn:ogc:def:crs:OGC:1.3:CRS84" } },
"features": [
{ "type": "Feature", "properties": { "precinct_key": "RUTHERFORD - 007665", "name20": "Rutherford - 007665", "county_norm": "RUTHERFORD", "prec_id": "007665" }, "geometry": { "type": "Polygon", "coordinates": [ [ [ -86.598344, 35.733225 ], [ -86.595411, 35.732981 ], [ -86.593189, 35.733145 ], [ -86.593391, 35.731578 ], [ -86.593765, 35.728581 ], [ -86.593553, 35.728008 ], [ -86.591441, 35.726822 ], [ -86.589832, 35.724242 ], [ -86.586516, 35.722089 ], [ -86.585889, 35.721426 ], [ -86.58582, 35.717515 ], [ -86.586471, 35.715818 ], [ -86.588846, 35.714835 ], [ -86.588655, 35.713255 ], [ -86.587396, 35.712219 ], [ -86.587512, 35.708959 ], [ -86.579249, 35.708102 ], [ -86.578647, 35.707748 ], [ -86.579497, 35.700735 ], [ -86.581343, 35.699377 ], [ -86.57107, 35.699241 ], [ -86.568295, 35.699246 ], [ -86.543116, 35.697617 ], [ -86.543685, 35.694278 ], [ -86.53734, 35.693266 ], [ -86.537514, 35.692235 ], [ -86.535628, 35.69215 ], [ -86.53481, 35.692076 ], [ -86.526878, 35.69139 ], [ -86.526643, 35.689974 ], [ -86.523898, 35.689761 ], [ -86.523378, 35.689855 ], [ -86.523953, 35.695295 ], [ -86.524752, 35.699026 ], [ -86.524996, 35.700443 ], [ -86.524731, 35.702642 ], [ -86.524454, 35.704696 ], [ -86.52377, 35.709699 ], [ -86.523738, 35.711463 ], [ -86.525352, 35.719651 ], [ -86.527559, 35.724741 ], [ -86.527586, 35.725573 ], [ -86.526562, 35.72538 ], [ -86.521674, 35.72441 ], [ -86.51716, 35.723516 ], [ -86.515877, 35.723486 ], [ -86.505854, 35.724307 ], [ -86.503682, 35.724835 ], [ -86.501735, 35.725626 ], [ -86.501537, 35.728528 ], [ -86.504032, 35.728993 ], [ -86.503094, 35.730702 ], [ -86.502317, 35.731952 ], [ -86.501817, 35.73463 ], [ -86.502217, 35.735791 ], [ -86.501648, 35.736582 ], [ -86.499538, 35.740254 ], [ -86.500231, 35.741403 ], [ -86.500965, 35.742195 ], [ -86.50028, 35.744658 ], [ -86.498008, 35.746735 ], [ -86.495882, 35.74693 ], [ -86.493954, 35.748121 ], [ -86.493477, 35.751765 ], [ -86.492231, 35.752401 ], [ -86.489259, 35.750613 ], [ -86.483014, 35.750118 ], [ -86.481064, 35.749949 ], [ -86.47885, 35.750239 ], [ -86.475273, 35.751728 ], [ -86.47122, 35.752649 ], [ -86.469946, 35.752616 ], [ -86.466487, 35.751371 ], [ -86.459842, 35.750823 ], [ -86.46058, 35.75263 ], [ -86.462247, 35.755565 ], [ -86.462764, 35.758252 ], [ -86.465093, 35.758786 ], [ -86.465386, 35.759496 ], [ -86.465816, 35.764506 ], [ -86.466383, 35.765801 ], [ -86.465996, 35.769573 ], [ -86.466665, 35.771538 ], [ -86.469202, 35.771764 ], [ -86.46947, 35.772723 ], [ -86.469393, 35.773688 ], [ -86.470758, 35.778101 ], [ -86.472413, 35.77971 ], [ -86.471995, 35.782095 ], [ -86.472369, 35.783858 ], [ -86.467068, 35.783312 ], [ -86.465877, 35.783715 ], [ -86.458089, 35.783057 ], [ -86.455068, 35.780422 ], [ -86.452013, 35.780084 ], [ -86.448554, 35.781127 ], [ -86.445546, 35.78108 ], [ -86.444437, 35.781397 ], [ -86.444188, 35.782937 ], [ -86.443442, 35.788852 ], [ -86.445171, 35.789132 ], [ -86.446897, 35.7904 ], [ -86.448618, 35.79234 ], [ -86.450583, 35.793127 ], [ -86.455018, 35.794916 ], [ -86.456855, 35.795724 ], [ -86.458694, 35.796532 ], [ -86.459434, 35.79684 ], [ -86.46045, 35.797264 ], [ -86.460785, 35.797413 ], [ -86.461013, 35.79759 ], [ -86.461163, 35.79781 ], [ -86.461216, 35.798044 ], [ -86.461217, 35.798218 ], [ -86.461218, 35.798321 ], [ -86.461032, 35.799296 ], [ -86.460643, 35.801657 ], [ -86.460404, 35.80314 ], [ -86.460246, 35.803824 ], [ -86.460046, 35.804728 ], [ -86.459781, 35.807227 ], [ -86.459504, 35.808932 ], [ -86.459229, 35.810716 ], [ -86.464832, 35.809605 ], [ -86.466789, 35.809161 ], [ -86.468149, 35.80869 ], [ -86.46905, 35.80831 ], [ -86.46954, 35.808785 ], [ -86.469752, 35.808856 ], [ -86.470028, 35.808874 ], [ -86.47694, 35.809211 ], [ -86.478789, 35.809277 ], [ -86.480896, 35.807946 ], [ -86.482292, 35.808018 ], [ -86.482489, 35.808034 ], [ -86.49604, 35.809245 ], [ -86.496945, 35.809325 ], [ -86.49852, 35.809493 ], [ -86.499439, 35.809602 ], [ -86.503002, 35.810086 ], [ -86.506749, 35.810532 ], [ -86.50984, 35.811502 ], [ -86.5122, 35.810742 ], [ -86.516933, 35.809663 ], [ -86.524326, 35.810398 ], [ -86.526341, 35.810346 ], [ -86.526983, 35.809603 ], [ -86.527258, 35.80836 ], [ -86.528243, 35.807695 ], [ -86.531689, 35.806738 ], [ -86.536652, 35.807075 ], [ -86.539346, 35.806135 ], [ -86.545709, 35.805442 ], [ -86.545707, 35.807362 ], [ -86.54436, 35.815647 ], [ -86.54451, 35.819531 ], [ -86.545827, 35.820533 ], [ -86.545428, 35.823129 ], [ -86.545608, 35.824816 ], [ -86.546119, 35.827626 ], [ -86.547144, 35.829798 ], [ -86.547453, 35.830309 ], [ -86.546378, 35.833106 ], [ -86.54597, 35.837091 ], [ -86.544929, 35.843829 ], [ -86.545298, 35.843898 ], [ -86.561143, 35.847039 ], [ -86.562051, 35.847186 ], [ -86.583511, 35.850721 ], [ -86.585626, 35.850791 ], [ -86.586686, 35.850791 ], [ -86.594075, 35.850795 ], [ -86.595144, 35.8508 ], [ -86.59766, 35.850955 ], [ -86.600221, 35.851519 ], [ -86.600032, 35.849994 ], [ -86.601457, 35.848891 ], [ -86.601026, 35.84514 ], [ -86.60162, 35.844535 ], [ -86.601506, 35.841498 ], [ -86.602582, 35.840246 ], [ -86.603221, 35.84014 ], [ -86.60343, 35.838704 ], [ -86.616383, 35.838795 ], [ -86.617335, 35.831287 ], [ -86.625534, 35.832249 ], [ -86.626018, 35.826738 ], [ -86.613506, 35.824671 ], [ -86.611816, 35.824558 ], [ -86.612707, 35.819215 ], [ -86.612245, 35.817448 ], [ -86.612951, 35.813515 ], [ -86.61387, 35.813486 ], [ -86.61691, 35.813484 ], [ -86.617033, 35.816227 ], [ -86.618691, 35.816156 ], [ -86.618748, 35.815551 ], [ -86.620919, 35.815445 ], [ -86.621684, 35.816297 ], [ -86.623291, 35.815735 ], [ -86.623826, 35.812522 ], [ -86.625198, 35.808897 ], [ -86.624996, 35.808196 ], [ -86.622878, 35.806967 ], [ -86.622415, 35.805227 ], [ -86.619475, 35.805714 ], [ -86.61971, 35.807174 ], [ -86.619016, 35.808499 ], [ -86.616937, 35.809054 ], [ -86.613531, 35.809965 ], [ -86.612815, 35.808131 ], [ -86.612754, 35.806394 ], [ -86.611855, 35.804795 ], [ -86.610908, 35.804115 ], [ -86.613241, 35.790824 ], [ -86.613328, 35.790331 ], [ -86.623703, 35.791191 ], [ -86.623795, 35.790379 ], [ -86.623718, 35.788296 ], [ -86.622226, 35.785134 ], [ -86.620148, 35.782942 ], [ -86.619071, 35.781189 ], [ -86.614263, 35.779952 ], [ -86.608415, 35.777945 ], [ -86.602547, 35.775366 ], [ -86.601895, 35.775071 ], [ -86.59999, 35.772941 ], [ -86.59736, 35.771562 ], [ -86.598986, 35.766206 ], [ -86.599069, 35.761774 ], [ -86.595595, 35.761255 ], [ -86.596005, 35.757537 ], [ -86.594537, 35.757616 ], [ -86.595205, 35.753082 ], [ -86.595642, 35.749975 ], [ -86.595837, 35.748658 ], [ -86.596261, 35.74574 ], [ -86.598344, 35.733225 ] ] ] } }
]
}
