{
"type": "FeatureCollection",
"name": "intersection_pieces",
"crs": { "type": "name", "properties": { "name": "urn:ogc:def:crs:OGC:1.3:CRS84" } },
"features": [
{ "type": "Feature", "properties": { "precinct_key": "KNOX - 004831", "name20": "Knox - 004831", "county_norm": "KNOX", "prec_id": "004831", "district_num": "18", "area_weight": 0.40371330028790386, "geometry_status": "real_secondary", "suggested_action": "manual_split_review" }, "geometry": { "type": "GeometryCollection", "geometries": [ { "type": "Polygon", "coordinates": [ [ [ -83.924944, 35.921583 ], [ -83.925907, 35.921191 ], [ -83.925988, 35.921087 ], [ -83.926173, 35.920901 ], [ -83.926244, 35.920847 ], [ -83.926253, 35.92084 ], [ -83.926342, 35.920787 ], [ -83.926393, 35.920755 ], [ -83.926602, 35.920638 ], [ -83.926938, 35.920487 ], [ -83.929964, 35.918566 ], [ -83.932211, 35.916784 ], [ -83.932833, 35.916361 ], [ -83.935069, 35.915025 ], [ -83.93723, 35.917339 ], [ -83.93778, 35.917403 ], [ -83.93804, 35.917299 ], [ -83.940067, 35.91641 ], [ -83.941734, 35.916457 ], [ -83.943674, 35.917251 ], [ -83.944912, 35.918252 ], [ -83.946218, 35.920812 ], [ -83.946211, 35.920861 ], [ -83.947512, 35.921134 ], [ -83.947786, 35.921234 ], [ -83.94804, 35.92139 ], [ -83.948258, 35.921594 ], [ -83.948591, 35.921959 ], [ -83.949019, 35.922463 ], [ -83.949233, 35.922661 ], [ -83.949626, 35.922886 ], [ -83.949971, 35.923032 ], [ -83.950383, 35.923133 ], [ -83.950653, 35.923162 ], [ -83.950782, 35.923176 ], [ -83.951442, 35.923233 ], [ -83.951638, 35.923253 ], [ -83.951798, 35.923268 ], [ -83.951921, 35.923293 ], [ -83.952048, 35.923331 ], [ -83.952186, 35.923389 ], [ -83.952209, 35.923401 ], [ -83.952412, 35.923508 ], [ -83.952545, 35.923593 ], [ -83.952654, 35.923682 ], [ -83.952735, 35.923766 ], [ -83.952808, 35.923863 ], [ -83.95292, 35.924043 ], [ -83.952948, 35.924093 ], [ -83.953045, 35.924266 ], [ -83.953336, 35.924785 ], [ -83.953378, 35.924859 ], [ -83.953444, 35.924953 ], [ -83.953459, 35.924975 ], [ -83.953497, 35.925017 ], [ -83.95353, 35.925053 ], [ -83.953614, 35.925123 ], [ -83.95366, 35.925153 ], [ -83.953686, 35.925175 ], [ -83.953762, 35.925224 ], [ -83.953988, 35.925333 ], [ -83.954062, 35.92536 ], [ -83.956362, 35.921585 ], [ -83.9567, 35.921644 ], [ -83.955882, 35.923531 ], [ -83.954752, 35.925108 ], [ -83.955209, 35.925728 ], [ -83.95455, 35.925924 ], [ -83.951314, 35.928295 ], [ -83.950855, 35.930085 ], [ -83.951099, 35.93438 ], [ -83.953173, 35.936801 ], [ -83.954984, 35.941183 ], [ -83.955369, 35.942605 ], [ -83.955005, 35.945625 ], [ -83.954013, 35.94729 ], [ -83.952399, 35.948273 ], [ -83.949428, 35.947988 ], [ -83.946602, 35.946586 ], [ -83.946374, 35.94649 ], [ -83.946891, 35.946007 ], [ -83.946784, 35.9459 ], [ -83.946751, 35.94585 ], [ -83.946741, 35.945812 ], [ -83.946737, 35.945774 ], [ -83.946737, 35.945707 ], [ -83.946744, 35.945643 ], [ -83.946757, 35.945608 ], [ -83.946816, 35.945539 ], [ -83.946932, 35.945456 ], [ -83.94705, 35.945364 ], [ -83.947032, 35.94533 ], [ -83.946968, 35.945287 ], [ -83.946801, 35.945209 ], [ -83.946088, 35.944879 ], [ -83.945645, 35.944646 ], [ -83.94533, 35.944468 ], [ -83.94508, 35.944311 ], [ -83.944961, 35.944233 ], [ -83.944817, 35.944134 ], [ -83.944678, 35.944033 ], [ -83.944587, 35.943952 ], [ -83.944539, 35.943899 ], [ -83.944498, 35.943848 ], [ -83.944463, 35.943795 ], [ -83.944355, 35.943678 ], [ -83.944224, 35.943566 ], [ -83.944073, 35.943481 ], [ -83.94393, 35.943431 ], [ -83.943718, 35.943377 ], [ -83.943502, 35.943381 ], [ -83.94324, 35.943377 ], [ -83.943024, 35.943389 ], [ -83.942897, 35.943369 ], [ -83.942819, 35.943346 ], [ -83.942727, 35.943296 ], [ -83.942619, 35.9432 ], [ -83.942488, 35.94303 ], [ -83.941988, 35.942377 ], [ -83.941857, 35.942205 ], [ -83.941621, 35.941878 ], [ -83.941282, 35.941382 ], [ -83.941034, 35.940706 ], [ -83.940854, 35.939917 ], [ -83.940786, 35.938733 ], [ -83.94082, 35.938293 ], [ -83.940956, 35.938 ], [ -83.941158, 35.937729 ], [ -83.941364, 35.937506 ], [ -83.941299, 35.937465 ], [ -83.94127, 35.937446 ], [ -83.94108, 35.937277 ], [ -83.940663, 35.93686 ], [ -83.940373, 35.936563 ], [ -83.940306, 35.936494 ], [ -83.94012, 35.936302 ], [ -83.940107, 35.93629 ], [ -83.940037, 35.936226 ], [ -83.939852, 35.936063 ], [ -83.939663, 35.935911 ], [ -83.939409, 35.935707 ], [ -83.939148, 35.935512 ], [ -83.938748, 35.935256 ], [ -83.938454, 35.935088 ], [ -83.938413, 35.935065 ], [ -83.938176, 35.934945 ], [ -83.938075, 35.934907 ], [ -83.93801, 35.934892 ], [ -83.937957, 35.93488 ], [ -83.93786, 35.934871 ], [ -83.937738, 35.934876 ], [ -83.937642, 35.934892 ], [ -83.93755, 35.934918 ], [ -83.937324, 35.935033 ], [ -83.937021, 35.935188 ], [ -83.936686, 35.935379 ], [ -83.936666, 35.935391 ], [ -83.936464, 35.935499 ], [ -83.936271, 35.935585 ], [ -83.936069, 35.935653 ], [ -83.935937, 35.935686 ], [ -83.935935, 35.935617 ], [ -83.93604, 35.935589 ], [ -83.936106, 35.935569 ], [ -83.93627, 35.935509 ], [ -83.936432, 35.935434 ], [ -83.936609, 35.93534 ], [ -83.936789, 35.935237 ], [ -83.936946, 35.935147 ], [ -83.937076, 35.935079 ], [ -83.937281, 35.934974 ], [ -83.937397, 35.934914 ], [ -83.937512, 35.934859 ], [ -83.937619, 35.934827 ], [ -83.937754, 35.934806 ], [ -83.93786, 35.934804 ], [ -83.937964, 35.934591 ], [ -83.938632, 35.934371 ], [ -83.938618, 35.934202 ], [ -83.938402, 35.932691 ], [ -83.935322, 35.932757 ], [ -83.935095, 35.932762 ], [ -83.93559, 35.933472 ], [ -83.934764, 35.933481 ], [ -83.934677, 35.933372 ], [ -83.934396, 35.933018 ], [ -83.934159, 35.932718 ], [ -83.933964, 35.932473 ], [ -83.933922, 35.932415 ], [ -83.933892, 35.932368 ], [ -83.932953, 35.930841 ], [ -83.933196, 35.930383 ], [ -83.933234, 35.930376 ], [ -83.933249, 35.930363 ], [ -83.933113, 35.930355 ], [ -83.932847, 35.930367 ], [ -83.932766, 35.93038 ], [ -83.932608, 35.930416 ], [ -83.932512, 35.930446 ], [ -83.932467, 35.930448 ], [ -83.932423, 35.930437 ], [ -83.932382, 35.930409 ], [ -83.932358, 35.930371 ], [ -83.932367, 35.930307 ], [ -83.932442, 35.930116 ], [ -83.932469, 35.930046 ], [ -83.932504, 35.929812 ], [ -83.932508, 35.929715 ], [ -83.93251, 35.929673 ], [ -83.932497, 35.929632 ], [ -83.932475, 35.929601 ], [ -83.932336, 35.929456 ], [ -83.932276, 35.929406 ], [ -83.931945, 35.929121 ], [ -83.931726, 35.928932 ], [ -83.93096, 35.928294 ], [ -83.930944, 35.928281 ], [ -83.930715, 35.928087 ], [ -83.93061, 35.928002 ], [ -83.930411, 35.927841 ], [ -83.930332, 35.927774 ], [ -83.929513, 35.927074 ], [ -83.929383, 35.926963 ], [ -83.929279, 35.926879 ], [ -83.929235, 35.926848 ], [ -83.929215, 35.926834 ], [ -83.92918, 35.926809 ], [ -83.929137, 35.926778 ], [ -83.929042, 35.926678 ], [ -83.92878, 35.926399 ], [ -83.928603, 35.926345 ], [ -83.928529, 35.926296 ], [ -83.928491, 35.926271 ], [ -83.92829, 35.926117 ], [ -83.928067, 35.925921 ], [ -83.927909, 35.925759 ], [ -83.927875, 35.925724 ], [ -83.927696, 35.925589 ], [ -83.927483, 35.925411 ], [ -83.927316, 35.925272 ], [ -83.927102, 35.925102 ], [ -83.926974, 35.924978 ], [ -83.926935, 35.924933 ], [ -83.926874, 35.92485 ], [ -83.926845, 35.92481 ], [ -83.926789, 35.924707 ], [ -83.926727, 35.924616 ], [ -83.926706, 35.924594 ], [ -83.926682, 35.924569 ], [ -83.926646, 35.924543 ], [ -83.926599, 35.924509 ], [ -83.926518, 35.924469 ], [ -83.926505, 35.924463 ], [ -83.926323, 35.924388 ], [ -83.926227, 35.924331 ], [ -83.926215, 35.924324 ], [ -83.926142, 35.924266 ], [ -83.926112, 35.924243 ], [ -83.926095, 35.924233 ], [ -83.925951, 35.924144 ], [ -83.925903, 35.924115 ], [ -83.925875, 35.924098 ], [ -83.92582, 35.924064 ], [ -83.925793, 35.924047 ], [ -83.925761, 35.924028 ], [ -83.925692, 35.923985 ], [ -83.925549, 35.923898 ], [ -83.925531, 35.923888 ], [ -83.925468, 35.923853 ], [ -83.925429, 35.923835 ], [ -83.925388, 35.923821 ], [ -83.925367, 35.923814 ], [ -83.925264, 35.923785 ], [ -83.925234, 35.923777 ], [ -83.925141, 35.923751 ], [ -83.924862, 35.923674 ], [ -83.92477, 35.923649 ], [ -83.924815, 35.923556 ], [ -83.924833, 35.923512 ], [ -83.925012, 35.923097 ], [ -83.925072, 35.922959 ], [ -83.924803, 35.9229 ], [ -83.924591, 35.922854 ], [ -83.923995, 35.92273 ], [ -83.923967, 35.922725 ], [ -83.923726, 35.922675 ], [ -83.923865, 35.922461 ], [ -83.923956, 35.922324 ], [ -83.924116, 35.92208 ], [ -83.924229, 35.921904 ], [ -83.924251, 35.921866 ], [ -83.924944, 35.921583 ] ] ] }, { "type": "Polygon", "coordinates": [ [ [ -83.92463, 35.918118 ], [ -83.923702, 35.918457 ], [ -83.922693, 35.918825 ], [ -83.922536, 35.918882 ], [ -83.92463, 35.918118 ] ] ] }, { "type": "Polygon", "coordinates": [ [ [ -83.922536, 35.918882 ], [ -83.922852, 35.91955 ], [ -83.923046, 35.920186 ], [ -83.922536, 35.918882 ] ] ] }, { "type": "Polygon", "coordinates": [ [ [ -83.923046, 35.920186 ], [ -83.922616, 35.920633 ], [ -83.922592770607054, 35.920578701397126 ], [ -83.923046, 35.920186 ] ] ] }, { "type": "Polygon", "coordinates": [ [ [ -83.921921036834092, 35.921160715431498 ], [ -83.921931, 35.921177 ], [ -83.921863, 35.921211 ], [ -83.921921036834092, 35.921160715431498 ] ] ] }, { "type": "Polygon", "coordinates": [ [ [ -83.921863, 35.921211 ], [ -83.921819, 35.921231 ], [ -83.921654, 35.920964 ], [ -83.921202, 35.920231 ], [ -83.920707, 35.919416 ], [ -83.920531, 35.919073 ], [ -83.921863, 35.921211 ] ] ] }, { "type": "Polygon", "coordinates": [ [ [ -83.914084, 35.921878 ], [ -83.913899, 35.921962 ], [ -83.913687, 35.922058 ], [ -83.913365, 35.922205 ], [ -83.913147, 35.922307 ], [ -83.912971, 35.922389 ], [ -83.912835, 35.92245 ], [ -83.912642, 35.922537 ], [ -83.912452, 35.922622 ], [ -83.912223, 35.922724 ], [ -83.912052, 35.9228 ], [ -83.911814, 35.922899 ], [ -83.911810683080134, 35.922900358359861 ], [ -83.914084, 35.921878 ] ] ] }, { "type": "Polygon", "coordinates": [ [ [ -83.911091, 35.923224 ], [ -83.911275, 35.923437 ], [ -83.911508, 35.923765 ], [ -83.910772, 35.924177 ], [ -83.910594, 35.924276 ], [ -83.91055, 35.924306 ], [ -83.911091, 35.923224 ] ] ] }, { "type": "LineString", "coordinates": [ [ -83.924251, 35.921866 ], [ -83.923185, 35.922296 ] ] }, { "type": "LineString", "coordinates": [ [ -83.923185, 35.922296 ], [ -83.922879, 35.922422 ] ] }, { "type": "LineString", "coordinates": [ [ -83.92533, 35.918567 ], [ -83.92463, 35.918118 ] ] }, { "type": "LineString", "coordinates": [ [ -83.914352, 35.922168 ], [ -83.914084, 35.921878 ] ] }, { "type": "Point", "coordinates": [ -83.916906, 35.920994 ] } ] } },
{ "type": "Feature", "properties": { "precinct_key": "KNOX - 004831", "name20": "Knox - 004831", "county_norm": "KNOX", "prec_id": "004831", "district_num": "15", "area_weight": 0.59628669971209569, "geometry_status": "dominant", "suggested_action": "manual_split_review" }, "geometry": { "type": "Polygon", "coordinates": [ [ [ -83.943369, 35.944633 ], [ -83.94035, 35.94191 ], [ -83.938655, 35.941245 ], [ -83.935293, 35.941194 ], [ -83.930916, 35.941685 ], [ -83.926885, 35.942832 ], [ -83.923899, 35.945282 ], [ -83.924805, 35.945832 ], [ -83.922151, 35.952712 ], [ -83.9201, 35.955505 ], [ -83.918665, 35.957413 ], [ -83.917413, 35.955699 ], [ -83.916452, 35.954376 ], [ -83.915931, 35.953699 ], [ -83.915661, 35.953359 ], [ -83.915381, 35.952988 ], [ -83.914835, 35.951972 ], [ -83.914682, 35.951612 ], [ -83.914208, 35.950514 ], [ -83.913227, 35.948372 ], [ -83.912335, 35.946429 ], [ -83.911657, 35.944697 ], [ -83.906808, 35.944501 ], [ -83.905905, 35.944512 ], [ -83.90112, 35.944126 ], [ -83.89939, 35.943843 ], [ -83.899022, 35.943345 ], [ -83.898777, 35.941839 ], [ -83.899908, 35.940984 ], [ -83.899988, 35.940923 ], [ -83.900471, 35.939217 ], [ -83.900722, 35.937329 ], [ -83.90264, 35.936327 ], [ -83.905751, 35.934501 ], [ -83.903959, 35.932817 ], [ -83.902263, 35.931522 ], [ -83.904092, 35.931911 ], [ -83.904789, 35.931475 ], [ -83.905597, 35.931303 ], [ -83.907079, 35.930732 ], [ -83.906554, 35.930032 ], [ -83.910357, 35.928214 ], [ -83.909904, 35.926505 ], [ -83.91083, 35.926028 ], [ -83.91055, 35.924306 ], [ -83.910594, 35.924276 ], [ -83.910772, 35.924177 ], [ -83.911508, 35.923765 ], [ -83.911275, 35.923437 ], [ -83.911091, 35.923224 ], [ -83.911810683080134, 35.922900358359861 ], [ -83.911814, 35.922899 ], [ -83.912052, 35.9228 ], [ -83.912223, 35.922724 ], [ -83.912452, 35.922622 ], [ -83.912642, 35.922537 ], [ -83.912835, 35.92245 ], [ -83.912971, 35.922389 ], [ -83.913147, 35.922307 ], [ -83.913365, 35.922205 ], [ -83.913687, 35.922058 ], [ -83.913899, 35.921962 ], [ -83.914084, 35.921878 ], [ -83.914352, 35.922168 ], [ -83.916906, 35.920994 ], [ -83.920531, 35.919073 ], [ -83.920707, 35.919416 ], [ -83.921202, 35.920231 ], [ -83.921654, 35.920964 ], [ -83.921819, 35.921231 ], [ -83.921863, 35.921211 ], [ -83.921931, 35.921177 ], [ -83.921921036834092, 35.921160715431498 ], [ -83.922592770607054, 35.920578701397126 ], [ -83.922616, 35.920633 ], [ -83.923046, 35.920186 ], [ -83.922852, 35.91955 ], [ -83.922536, 35.918882 ], [ -83.922693, 35.918825 ], [ -83.923702, 35.918457 ], [ -83.92463, 35.918118 ], [ -83.92533, 35.918567 ], [ -83.922879, 35.922422 ], [ -83.923185, 35.922296 ], [ -83.924251, 35.921866 ], [ -83.924229, 35.921904 ], [ -83.924116, 35.92208 ], [ -83.923956, 35.922324 ], [ -83.923865, 35.922461 ], [ -83.923726, 35.922675 ], [ -83.923967, 35.922725 ], [ -83.923995, 35.92273 ], [ -83.924591, 35.922854 ], [ -83.924803, 35.9229 ], [ -83.925072, 35.922959 ], [ -83.925012, 35.923097 ], [ -83.924833, 35.923512 ], [ -83.924815, 35.923556 ], [ -83.92477, 35.923649 ], [ -83.924862, 35.923674 ], [ -83.925141, 35.923751 ], [ -83.925234, 35.923777 ], [ -83.925264, 35.923785 ], [ -83.925367, 35.923814 ], [ -83.925388, 35.923821 ], [ -83.925429, 35.923835 ], [ -83.925468, 35.923853 ], [ -83.925531, 35.923888 ], [ -83.925549, 35.923898 ], [ -83.925692, 35.923985 ], [ -83.925761, 35.924028 ], [ -83.925793, 35.924047 ], [ -83.92582, 35.924064 ], [ -83.925875, 35.924098 ], [ -83.925903, 35.924115 ], [ -83.925951, 35.924144 ], [ -83.926095, 35.924233 ], [ -83.926112, 35.924243 ], [ -83.926142, 35.924266 ], [ -83.926215, 35.924324 ], [ -83.926227, 35.924331 ], [ -83.926323, 35.924388 ], [ -83.926505, 35.924463 ], [ -83.926518, 35.924469 ], [ -83.926599, 35.924509 ], [ -83.926646, 35.924543 ], [ -83.926682, 35.924569 ], [ -83.926706, 35.924594 ], [ -83.926727, 35.924616 ], [ -83.926789, 35.924707 ], [ -83.926845, 35.92481 ], [ -83.926874, 35.92485 ], [ -83.926935, 35.924933 ], [ -83.926974, 35.924978 ], [ -83.927102, 35.925102 ], [ -83.927316, 35.925272 ], [ -83.927483, 35.925411 ], [ -83.927696, 35.925589 ], [ -83.927875, 35.925724 ], [ -83.927909, 35.925759 ], [ -83.928067, 35.925921 ], [ -83.92829, 35.926117 ], [ -83.928491, 35.926271 ], [ -83.928529, 35.926296 ], [ -83.928603, 35.926345 ], [ -83.92878, 35.926399 ], [ -83.929042, 35.926678 ], [ -83.929137, 35.926778 ], [ -83.92918, 35.926809 ], [ -83.929215, 35.926834 ], [ -83.929235, 35.926848 ], [ -83.929279, 35.926879 ], [ -83.929383, 35.926963 ], [ -83.929513, 35.927074 ], [ -83.930332, 35.927774 ], [ -83.930411, 35.927841 ], [ -83.93061, 35.928002 ], [ -83.930715, 35.928087 ], [ -83.930944, 35.928281 ], [ -83.93096, 35.928294 ], [ -83.931726, 35.928932 ], [ -83.931945, 35.929121 ], [ -83.932276, 35.929406 ], [ -83.932336, 35.929456 ], [ -83.932475, 35.929601 ], [ -83.932497, 35.929632 ], [ -83.93251, 35.929673 ], [ -83.932508, 35.929715 ], [ -83.932504, 35.929812 ], [ -83.932469, 35.930046 ], [ -83.932442, 35.930116 ], [ -83.932367, 35.930307 ], [ -83.932358, 35.930371 ], [ -83.932382, 35.930409 ], [ -83.932423, 35.930437 ], [ -83.932467, 35.930448 ], [ -83.932512, 35.930446 ], [ -83.932608, 35.930416 ], [ -83.932766, 35.93038 ], [ -83.932847, 35.930367 ], [ -83.933113, 35.930355 ], [ -83.933249, 35.930363 ], [ -83.933234, 35.930376 ], [ -83.933196, 35.930383 ], [ -83.932953, 35.930841 ], [ -83.933892, 35.932368 ], [ -83.933922, 35.932415 ], [ -83.933964, 35.932473 ], [ -83.934159, 35.932718 ], [ -83.934396, 35.933018 ], [ -83.934677, 35.933372 ], [ -83.934764, 35.933481 ], [ -83.93559, 35.933472 ], [ -83.935095, 35.932762 ], [ -83.935322, 35.932757 ], [ -83.938402, 35.932691 ], [ -83.938618, 35.934202 ], [ -83.938632, 35.934371 ], [ -83.937964, 35.934591 ], [ -83.93786, 35.934804 ], [ -83.937754, 35.934806 ], [ -83.937619, 35.934827 ], [ -83.937512, 35.934859 ], [ -83.937397, 35.934914 ], [ -83.937281, 35.934974 ], [ -83.937076, 35.935079 ], [ -83.936946, 35.935147 ], [ -83.936789, 35.935237 ], [ -83.936609, 35.93534 ], [ -83.936432, 35.935434 ], [ -83.93627, 35.935509 ], [ -83.936106, 35.935569 ], [ -83.93604, 35.935589 ], [ -83.935935, 35.935617 ], [ -83.935937, 35.935686 ], [ -83.936069, 35.935653 ], [ -83.936271, 35.935585 ], [ -83.936464, 35.935499 ], [ -83.936666, 35.935391 ], [ -83.936686, 35.935379 ], [ -83.937021, 35.935188 ], [ -83.937324, 35.935033 ], [ -83.93755, 35.934918 ], [ -83.937642, 35.934892 ], [ -83.937738, 35.934876 ], [ -83.93786, 35.934871 ], [ -83.937957, 35.93488 ], [ -83.93801, 35.934892 ], [ -83.938075, 35.934907 ], [ -83.938176, 35.934945 ], [ -83.938413, 35.935065 ], [ -83.938454, 35.935088 ], [ -83.938748, 35.935256 ], [ -83.939148, 35.935512 ], [ -83.939409, 35.935707 ], [ -83.939663, 35.935911 ], [ -83.939852, 35.936063 ], [ -83.940037, 35.936226 ], [ -83.940107, 35.93629 ], [ -83.94012, 35.936302 ], [ -83.940306, 35.936494 ], [ -83.940373, 35.936563 ], [ -83.940663, 35.93686 ], [ -83.94108, 35.937277 ], [ -83.94127, 35.937446 ], [ -83.941299, 35.937465 ], [ -83.941364, 35.937506 ], [ -83.941158, 35.937729 ], [ -83.940956, 35.938 ], [ -83.94082, 35.938293 ], [ -83.940786, 35.938733 ], [ -83.940854, 35.939917 ], [ -83.941034, 35.940706 ], [ -83.941282, 35.941382 ], [ -83.941621, 35.941878 ], [ -83.941857, 35.942205 ], [ -83.941988, 35.942377 ], [ -83.942488, 35.94303 ], [ -83.942619, 35.9432 ], [ -83.942727, 35.943296 ], [ -83.942819, 35.943346 ], [ -83.942897, 35.943369 ], [ -83.943024, 35.943389 ], [ -83.94324, 35.943377 ], [ -83.943502, 35.943381 ], [ -83.943718, 35.943377 ], [ -83.94393, 35.943431 ], [ -83.944073, 35.943481 ], [ -83.944224, 35.943566 ], [ -83.944355, 35.943678 ], [ -83.944463, 35.943795 ], [ -83.944498, 35.943848 ], [ -83.944539, 35.943899 ], [ -83.944587, 35.943952 ], [ -83.944678, 35.944033 ], [ -83.944817, 35.944134 ], [ -83.944961, 35.944233 ], [ -83.94508, 35.944311 ], [ -83.94533, 35.944468 ], [ -83.945645, 35.944646 ], [ -83.946088, 35.944879 ], [ -83.946801, 35.945209 ], [ -83.946968, 35.945287 ], [ -83.947032, 35.94533 ], [ -83.94705, 35.945364 ], [ -83.946932, 35.945456 ], [ -83.946816, 35.945539 ], [ -83.946757, 35.945608 ], [ -83.946744, 35.945643 ], [ -83.946737, 35.945707 ], [ -83.946737, 35.945774 ], [ -83.946741, 35.945812 ], [ -83.946751, 35.94585 ], [ -83.946784, 35.9459 ], [ -83.946891, 35.946007 ], [ -83.946374, 35.94649 ], [ -83.943369, 35.944633 ] ] ] } }
]
}
