{
"type": "FeatureCollection",
"name": "precinct",
"crs": { "type": "name", "properties": { "name": "urn:ogc:def:crs:OGC:1.3:CRS84" } },
"features": [
{ "type": "Feature", "properties": { "precinct_key": "KNOX - 004831", "name20": "Knox - 004831", "county_norm": "KNOX", "prec_id": "004831" }, "geometry": { "type": "Polygon", "coordinates": [ [ [ -83.910357, 35.928214 ], [ -83.906554, 35.930032 ], [ -83.907079, 35.930732 ], [ -83.905597, 35.931303 ], [ -83.904789, 35.931475 ], [ -83.904092, 35.931911 ], [ -83.902263, 35.931522 ], [ -83.903959, 35.932817 ], [ -83.905751, 35.934501 ], [ -83.90264, 35.936327 ], [ -83.900722, 35.937329 ], [ -83.900471, 35.939217 ], [ -83.899988, 35.940923 ], [ -83.899908, 35.940984 ], [ -83.898777, 35.941839 ], [ -83.899022, 35.943345 ], [ -83.89939, 35.943843 ], [ -83.90112, 35.944126 ], [ -83.905905, 35.944512 ], [ -83.906808, 35.944501 ], [ -83.911657, 35.944697 ], [ -83.912335, 35.946429 ], [ -83.913227, 35.948372 ], [ -83.914208, 35.950514 ], [ -83.914682, 35.951612 ], [ -83.914835, 35.951972 ], [ -83.915381, 35.952988 ], [ -83.915661, 35.953359 ], [ -83.915931, 35.953699 ], [ -83.916452, 35.954376 ], [ -83.917413, 35.955699 ], [ -83.918665, 35.957413 ], [ -83.9201, 35.955505 ], [ -83.922151, 35.952712 ], [ -83.924805, 35.945832 ], [ -83.923899, 35.945282 ], [ -83.926885, 35.942832 ], [ -83.930916, 35.941685 ], [ -83.935293, 35.941194 ], [ -83.938655, 35.941245 ], [ -83.94035, 35.94191 ], [ -83.943369, 35.944633 ], [ -83.946374, 35.94649 ], [ -83.946602, 35.946586 ], [ -83.949428, 35.947988 ], [ -83.952399, 35.948273 ], [ -83.954013, 35.94729 ], [ -83.955005, 35.945625 ], [ -83.955369, 35.942605 ], [ -83.954984, 35.941183 ], [ -83.953173, 35.936801 ], [ -83.951099, 35.93438 ], [ -83.950855, 35.930085 ], [ -83.951314, 35.928295 ], [ -83.95455, 35.925924 ], [ -83.955209, 35.925728 ], [ -83.954752, 35.925108 ], [ -83.955882, 35.923531 ], [ -83.9567, 35.921644 ], [ -83.956362, 35.921585 ], [ -83.954062, 35.92536 ], [ -83.953988, 35.925333 ], [ -83.953762, 35.925224 ], [ -83.953686, 35.925175 ], [ -83.95366, 35.925153 ], [ -83.953614, 35.925123 ], [ -83.95353, 35.925053 ], [ -83.953497, 35.925017 ], [ -83.953459, 35.924975 ], [ -83.953444, 35.924953 ], [ -83.953378, 35.924859 ], [ -83.953336, 35.924785 ], [ -83.953045, 35.924266 ], [ -83.952948, 35.924093 ], [ -83.95292, 35.924043 ], [ -83.952808, 35.923863 ], [ -83.952735, 35.923766 ], [ -83.952654, 35.923682 ], [ -83.952545, 35.923593 ], [ -83.952412, 35.923508 ], [ -83.952209, 35.923401 ], [ -83.952186, 35.923389 ], [ -83.952048, 35.923331 ], [ -83.951921, 35.923293 ], [ -83.951798, 35.923268 ], [ -83.951638, 35.923253 ], [ -83.951442, 35.923233 ], [ -83.950782, 35.923176 ], [ -83.950653, 35.923162 ], [ -83.950383, 35.923133 ], [ -83.949971, 35.923032 ], [ -83.949626, 35.922886 ], [ -83.949233, 35.922661 ], [ -83.949019, 35.922463 ], [ -83.948591, 35.921959 ], [ -83.948258, 35.921594 ], [ -83.94804, 35.92139 ], [ -83.947786, 35.921234 ], [ -83.947512, 35.921134 ], [ -83.946211, 35.920861 ], [ -83.946218, 35.920812 ], [ -83.944912, 35.918252 ], [ -83.943674, 35.917251 ], [ -83.941734, 35.916457 ], [ -83.940067, 35.91641 ], [ -83.93804, 35.917299 ], [ -83.93778, 35.917403 ], [ -83.93723, 35.917339 ], [ -83.935069, 35.915025 ], [ -83.932833, 35.916361 ], [ -83.932211, 35.916784 ], [ -83.929964, 35.918566 ], [ -83.926938, 35.920487 ], [ -83.926602, 35.920638 ], [ -83.926393, 35.920755 ], [ -83.926342, 35.920787 ], [ -83.926253, 35.92084 ], [ -83.926244, 35.920847 ], [ -83.926173, 35.920901 ], [ -83.925988, 35.921087 ], [ -83.925907, 35.921191 ], [ -83.924944, 35.921583 ], [ -83.924251, 35.921866 ], [ -83.923185, 35.922296 ], [ -83.922879, 35.922422 ], [ -83.92533, 35.918567 ], [ -83.92463, 35.918118 ], [ -83.922536, 35.918882 ], [ -83.923046, 35.920186 ], [ -83.921863, 35.921211 ], [ -83.920531, 35.919073 ], [ -83.916906, 35.920994 ], [ -83.914352, 35.922168 ], [ -83.914084, 35.921878 ], [ -83.911091, 35.923224 ], [ -83.91055, 35.924306 ], [ -83.91083, 35.926028 ], [ -83.909904, 35.926505 ], [ -83.910357, 35.928214 ] ] ] } }
]
}
