{
"type": "FeatureCollection",
"name": "intersection_pieces",
"crs": { "type": "name", "properties": { "name": "urn:ogc:def:crs:OGC:1.3:CRS84" } },
"features": [
{ "type": "Feature", "properties": { "precinct_key": "RUTHERFORD - 007683", "name20": "Rutherford - 007683", "county_norm": "RUTHERFORD", "prec_id": "007683", "district_num": "37", "area_weight": 0.48575539280575669, "geometry_status": "real_secondary", "suggested_action": "manual_split_review" }, "geometry": { "type": "GeometryCollection", "geometries": [ { "type": "Polygon", "coordinates": [ [ [ -86.379508, 35.86084 ], [ -86.378352, 35.860751 ], [ -86.374975, 35.860487 ], [ -86.375131, 35.859595 ], [ -86.375266, 35.858731 ], [ -86.374022, 35.858146 ], [ -86.373162, 35.857554 ], [ -86.371371, 35.857403 ], [ -86.369994, 35.857271 ], [ -86.370294, 35.855652 ], [ -86.370385, 35.855025 ], [ -86.370467, 35.854551 ], [ -86.370714, 35.85313 ], [ -86.370727, 35.853059 ], [ -86.370786, 35.852655 ], [ -86.37105, 35.85089 ], [ -86.371115, 35.850457 ], [ -86.371201, 35.849897 ], [ -86.37131, 35.849154 ], [ -86.371465, 35.848097 ], [ -86.371731, 35.846302 ], [ -86.372124, 35.8437 ], [ -86.372418, 35.843754 ], [ -86.373301, 35.843916 ], [ -86.373596, 35.84397 ], [ -86.37422, 35.844044 ], [ -86.37507, 35.844142 ], [ -86.375138, 35.844152 ], [ -86.37664, 35.844338 ], [ -86.376733, 35.844347 ], [ -86.379775, 35.844708 ], [ -86.381478, 35.844894 ], [ -86.382703, 35.84503 ], [ -86.383837, 35.845161 ], [ -86.383786, 35.845372 ], [ -86.383635, 35.846005 ], [ -86.383585, 35.846217 ], [ -86.383543, 35.846443 ], [ -86.38342, 35.84712 ], [ -86.383379, 35.847347 ], [ -86.383349, 35.847504 ], [ -86.383344, 35.847537 ], [ -86.383265, 35.848111 ], [ -86.383239, 35.848303 ], [ -86.383213, 35.848484 ], [ -86.383135, 35.849026 ], [ -86.38311, 35.849208 ], [ -86.383091, 35.849356 ], [ -86.383034, 35.849802 ], [ -86.383016, 35.849951 ], [ -86.383001, 35.850057 ], [ -86.382958, 35.850377 ], [ -86.382945, 35.850484 ], [ -86.382913, 35.850706 ], [ -86.382819, 35.851375 ], [ -86.382789, 35.851598 ], [ -86.382755, 35.851844 ], [ -86.382654, 35.852584 ], [ -86.382621, 35.852831 ], [ -86.382593, 35.85303 ], [ -86.382509, 35.853627 ], [ -86.382482, 35.853827 ], [ -86.382395, 35.854411 ], [ -86.382184, 35.855834 ], [ -86.382137, 35.856167 ], [ -86.382069, 35.85666 ], [ -86.382055, 35.856753 ], [ -86.382005, 35.857089 ], [ -86.381857, 35.858099 ], [ -86.381808, 35.858436 ], [ -86.381768, 35.858729 ], [ -86.381649, 35.859607 ], [ -86.38161, 35.859901 ], [ -86.381578, 35.860122 ], [ -86.381482, 35.860786 ], [ -86.381451, 35.861008 ], [ -86.379508, 35.86084 ] ] ] }, { "type": "Polygon", "coordinates": [ [ [ -86.381451, 35.861008 ], [ -86.381849, 35.861039 ], [ -86.383046, 35.861132 ], [ -86.383445, 35.861164 ], [ -86.381451, 35.861008 ] ] ] }, { "type": "Polygon", "coordinates": [ [ [ -86.405628, 35.858662 ], [ -86.407047, 35.860659 ], [ -86.408903, 35.863244 ], [ -86.408764, 35.863312 ], [ -86.407606, 35.86393 ], [ -86.408683, 35.865465 ], [ -86.409311, 35.866751 ], [ -86.40923, 35.86855 ], [ -86.408943, 35.871215 ], [ -86.408799, 35.872346 ], [ -86.408743, 35.872764 ], [ -86.408443, 35.874694 ], [ -86.408376, 35.875124 ], [ -86.408283, 35.875743 ], [ -86.403456, 35.875068 ], [ -86.401637, 35.874839 ], [ -86.401069, 35.87476 ], [ -86.40088, 35.87301 ], [ -86.400759, 35.872018 ], [ -86.40065, 35.871107 ], [ -86.400429, 35.870145 ], [ -86.400103, 35.868361 ], [ -86.399993, 35.867769 ], [ -86.399408, 35.864489 ], [ -86.399491, 35.863397 ], [ -86.397266, 35.863123 ], [ -86.396337, 35.862272 ], [ -86.395195, 35.862173 ], [ -86.39306, 35.861981 ], [ -86.3903, 35.861723 ], [ -86.390451, 35.86095 ], [ -86.390569, 35.860633 ], [ -86.390718, 35.860333 ], [ -86.390798, 35.860184 ], [ -86.39097, 35.859924 ], [ -86.391193, 35.859659 ], [ -86.391897, 35.858945 ], [ -86.392564, 35.858271 ], [ -86.393962, 35.856775 ], [ -86.393989, 35.856745 ], [ -86.394611, 35.855898 ], [ -86.394659, 35.855844 ], [ -86.395479, 35.855823 ], [ -86.396832, 35.855722 ], [ -86.397982, 35.855671 ], [ -86.399296, 35.855624 ], [ -86.400477, 35.8556 ], [ -86.401537, 35.855644 ], [ -86.402826, 35.855679 ], [ -86.403373, 35.855601 ], [ -86.405628, 35.858662 ] ] ] }, { "type": "Polygon", "coordinates": [ [ [ -86.405026, 35.855603 ], [ -86.405202, 35.855598 ], [ -86.405375, 35.855603 ], [ -86.405523, 35.855614 ], [ -86.405605, 35.855625 ], [ -86.405026, 35.855603 ] ] ] }, { "type": "Polygon", "coordinates": [ [ [ -86.405605, 35.855625 ], [ -86.405666, 35.855634 ], [ -86.405683, 35.855637 ], [ -86.406261, 35.85576 ], [ -86.405605, 35.855625 ] ] ] }, { "type": "Polygon", "coordinates": [ [ [ -86.406261, 35.85576 ], [ -86.407026, 35.855921 ], [ -86.407552, 35.856033 ], [ -86.408181, 35.856168 ], [ -86.406261, 35.85576 ] ] ] }, { "type": "Polygon", "coordinates": [ [ [ -86.409463, 35.856274 ], [ -86.4096, 35.856283 ], [ -86.410093, 35.856315 ], [ -86.410631, 35.856351 ], [ -86.410975, 35.856441 ], [ -86.411294, 35.856559 ], [ -86.411527, 35.85664 ], [ -86.411896, 35.85677 ], [ -86.411994, 35.856805 ], [ -86.409463, 35.856274 ] ] ] }, { "type": "Point", "coordinates": [ -86.385077, 35.861304 ] } ] } },
{ "type": "Feature", "properties": { "precinct_key": "RUTHERFORD - 007683", "name20": "Rutherford - 007683", "county_norm": "RUTHERFORD", "prec_id": "007683", "district_num": "48", "area_weight": 1.2992933769239601e-05, "geometry_status": "sliver", "suggested_action": "manual_split_review" }, "geometry": { "type": "GeometryCollection", "geometries": [ { "type": "Polygon", "coordinates": [ [ [ -86.370786, 35.852655 ], [ -86.370727, 35.853059 ], [ -86.370714, 35.85313 ], [ -86.370467, 35.854551 ], [ -86.370385, 35.855025 ], [ -86.370786, 35.852655 ] ] ] }, { "type": "LineString", "coordinates": [ [ -86.370385, 35.855025 ], [ -86.370294, 35.855652 ] ] }, { "type": "Point", "coordinates": [ -86.369994, 35.857271 ] }, { "type": "Point", "coordinates": [ -86.372124, 35.8437 ] }, { "type": "Point", "coordinates": [ -86.371115, 35.850457 ] }, { "type": "Point", "coordinates": [ -86.37105, 35.85089 ] } ] } },
{ "type": "Feature", "properties": { "precinct_key": "RUTHERFORD - 007683", "name20": "Rutherford - 007683", "county_norm": "RUTHERFORD", "prec_id": "007683", "district_num": "34", "area_weight": 0.51423161426047403, "geometry_status": "dominant", "suggested_action": "manual_split_review" }, "geometry": { "type": "GeometryCollection", "geometries": [ { "type": "Polygon", "coordinates": [ [ [ -86.383445, 35.861164 ], [ -86.383046, 35.861132 ], [ -86.381849, 35.861039 ], [ -86.381451, 35.861008 ], [ -86.381482, 35.860786 ], [ -86.381578, 35.860122 ], [ -86.38161, 35.859901 ], [ -86.381649, 35.859607 ], [ -86.381768, 35.858729 ], [ -86.381808, 35.858436 ], [ -86.381857, 35.858099 ], [ -86.382005, 35.857089 ], [ -86.382055, 35.856753 ], [ -86.382069, 35.85666 ], [ -86.382137, 35.856167 ], [ -86.382184, 35.855834 ], [ -86.382395, 35.854411 ], [ -86.382482, 35.853827 ], [ -86.382509, 35.853627 ], [ -86.382593, 35.85303 ], [ -86.382621, 35.852831 ], [ -86.382654, 35.852584 ], [ -86.382755, 35.851844 ], [ -86.382789, 35.851598 ], [ -86.382819, 35.851375 ], [ -86.382913, 35.850706 ], [ -86.382945, 35.850484 ], [ -86.382958, 35.850377 ], [ -86.383001, 35.850057 ], [ -86.383016, 35.849951 ], [ -86.383034, 35.849802 ], [ -86.383091, 35.849356 ], [ -86.38311, 35.849208 ], [ -86.383135, 35.849026 ], [ -86.383213, 35.848484 ], [ -86.383239, 35.848303 ], [ -86.383265, 35.848111 ], [ -86.383344, 35.847537 ], [ -86.383349, 35.847504 ], [ -86.383379, 35.847347 ], [ -86.38342, 35.84712 ], [ -86.383543, 35.846443 ], [ -86.383585, 35.846217 ], [ -86.383635, 35.846005 ], [ -86.383786, 35.845372 ], [ -86.383837, 35.845161 ], [ -86.386618, 35.845468 ], [ -86.388966, 35.845717 ], [ -86.390175, 35.845843 ], [ -86.39144, 35.845967 ], [ -86.391501, 35.845555 ], [ -86.391595, 35.844934 ], [ -86.391729, 35.843945 ], [ -86.391977, 35.842257 ], [ -86.395155, 35.845184 ], [ -86.395464, 35.845514 ], [ -86.396172, 35.846218 ], [ -86.396444, 35.846488 ], [ -86.39787, 35.848019 ], [ -86.398305, 35.848546 ], [ -86.399249, 35.849796 ], [ -86.402147, 35.847843 ], [ -86.402569, 35.847535 ], [ -86.402766, 35.847394 ], [ -86.403999, 35.846674 ], [ -86.406872, 35.846464 ], [ -86.407742, 35.846431 ], [ -86.412627, 35.846242 ], [ -86.414406, 35.84619 ], [ -86.420327, 35.846038 ], [ -86.420333, 35.846264 ], [ -86.416141, 35.846386 ], [ -86.414499, 35.846437 ], [ -86.415026, 35.848085 ], [ -86.414762, 35.851081 ], [ -86.415781, 35.852098 ], [ -86.417044, 35.852367 ], [ -86.420871, 35.852395 ], [ -86.4237, 35.851951 ], [ -86.425448, 35.852968 ], [ -86.425718, 35.854248 ], [ -86.423821, 35.855578 ], [ -86.421613, 35.855627 ], [ -86.418406, 35.856407 ], [ -86.416037, 35.856028 ], [ -86.414876, 35.855329 ], [ -86.412922, 35.855329 ], [ -86.411994, 35.856805 ], [ -86.411896, 35.85677 ], [ -86.411527, 35.85664 ], [ -86.411294, 35.856559 ], [ -86.410975, 35.856441 ], [ -86.410631, 35.856351 ], [ -86.410093, 35.856315 ], [ -86.4096, 35.856283 ], [ -86.409463, 35.856274 ], [ -86.408181, 35.856168 ], [ -86.407552, 35.856033 ], [ -86.407026, 35.855921 ], [ -86.406261, 35.85576 ], [ -86.405683, 35.855637 ], [ -86.405666, 35.855634 ], [ -86.405605, 35.855625 ], [ -86.405523, 35.855614 ], [ -86.405375, 35.855603 ], [ -86.405202, 35.855598 ], [ -86.405026, 35.855603 ], [ -86.403373, 35.855601 ], [ -86.402826, 35.855679 ], [ -86.401537, 35.855644 ], [ -86.400477, 35.8556 ], [ -86.399296, 35.855624 ], [ -86.397982, 35.855671 ], [ -86.396832, 35.855722 ], [ -86.395479, 35.855823 ], [ -86.394659, 35.855844 ], [ -86.394611, 35.855898 ], [ -86.393989, 35.856745 ], [ -86.393962, 35.856775 ], [ -86.392564, 35.858271 ], [ -86.391897, 35.858945 ], [ -86.391193, 35.859659 ], [ -86.39097, 35.859924 ], [ -86.390798, 35.860184 ], [ -86.390718, 35.860333 ], [ -86.390569, 35.860633 ], [ -86.390451, 35.86095 ], [ -86.3903, 35.861723 ], [ -86.385077, 35.861304 ], [ -86.383445, 35.861164 ] ] ] }, { "type": "Polygon", "coordinates": [ [ [ -86.37507, 35.844142 ], [ -86.37422, 35.844044 ], [ -86.373596, 35.84397 ], [ -86.37507, 35.844142 ] ] ] }, { "type": "Polygon", "coordinates": [ [ [ -86.373596, 35.84397 ], [ -86.373301, 35.843916 ], [ -86.372418, 35.843754 ], [ -86.372124, 35.8437 ], [ -86.373596, 35.84397 ] ] ] }, { "type": "LineString", "coordinates": [ [ -86.381478, 35.844894 ], [ -86.379775, 35.844708 ] ] }, { "type": "LineString", "coordinates": [ [ -86.376733, 35.844347 ], [ -86.37664, 35.844338 ] ] }, { "type": "LineString", "coordinates": [ [ -86.37664, 35.844338 ], [ -86.375138, 35.844152 ] ] }, { "type": "LineString", "coordinates": [ [ -86.375138, 35.844152 ], [ -86.37507, 35.844142 ] ] }, { "type": "Point", "coordinates": [ -86.382703, 35.84503 ] } ] } }
]
}
