{
"type": "FeatureCollection",
"name": "precinct",
"crs": { "type": "name", "properties": { "name": "urn:ogc:def:crs:OGC:1.3:CRS84" } },
"features": [
{ "type": "Feature", "properties": { "precinct_key": "RUTHERFORD - 007683", "name20": "Rutherford - 007683", "county_norm": "RUTHERFORD", "prec_id": "007683" }, "geometry": { "type": "Polygon", "coordinates": [ [ [ -86.374022, 35.858146 ], [ -86.375266, 35.858731 ], [ -86.375131, 35.859595 ], [ -86.374975, 35.860487 ], [ -86.378352, 35.860751 ], [ -86.379508, 35.86084 ], [ -86.381451, 35.861008 ], [ -86.383445, 35.861164 ], [ -86.385077, 35.861304 ], [ -86.3903, 35.861723 ], [ -86.39306, 35.861981 ], [ -86.395195, 35.862173 ], [ -86.396337, 35.862272 ], [ -86.397266, 35.863123 ], [ -86.399491, 35.863397 ], [ -86.399408, 35.864489 ], [ -86.399993, 35.867769 ], [ -86.400103, 35.868361 ], [ -86.400429, 35.870145 ], [ -86.40065, 35.871107 ], [ -86.400759, 35.872018 ], [ -86.40088, 35.87301 ], [ -86.401069, 35.87476 ], [ -86.401637, 35.874839 ], [ -86.403456, 35.875068 ], [ -86.408283, 35.875743 ], [ -86.408376, 35.875124 ], [ -86.408443, 35.874694 ], [ -86.408743, 35.872764 ], [ -86.408799, 35.872346 ], [ -86.408943, 35.871215 ], [ -86.40923, 35.86855 ], [ -86.409311, 35.866751 ], [ -86.408683, 35.865465 ], [ -86.407606, 35.86393 ], [ -86.408764, 35.863312 ], [ -86.408903, 35.863244 ], [ -86.407047, 35.860659 ], [ -86.405628, 35.858662 ], [ -86.403373, 35.855601 ], [ -86.405026, 35.855603 ], [ -86.405605, 35.855625 ], [ -86.406261, 35.85576 ], [ -86.408181, 35.856168 ], [ -86.409463, 35.856274 ], [ -86.411994, 35.856805 ], [ -86.412922, 35.855329 ], [ -86.414876, 35.855329 ], [ -86.416037, 35.856028 ], [ -86.418406, 35.856407 ], [ -86.421613, 35.855627 ], [ -86.423821, 35.855578 ], [ -86.425718, 35.854248 ], [ -86.425448, 35.852968 ], [ -86.4237, 35.851951 ], [ -86.420871, 35.852395 ], [ -86.417044, 35.852367 ], [ -86.415781, 35.852098 ], [ -86.414762, 35.851081 ], [ -86.415026, 35.848085 ], [ -86.414499, 35.846437 ], [ -86.416141, 35.846386 ], [ -86.420333, 35.846264 ], [ -86.420327, 35.846038 ], [ -86.414406, 35.84619 ], [ -86.412627, 35.846242 ], [ -86.407742, 35.846431 ], [ -86.406872, 35.846464 ], [ -86.403999, 35.846674 ], [ -86.402766, 35.847394 ], [ -86.402569, 35.847535 ], [ -86.402147, 35.847843 ], [ -86.399249, 35.849796 ], [ -86.398305, 35.848546 ], [ -86.39787, 35.848019 ], [ -86.396444, 35.846488 ], [ -86.396172, 35.846218 ], [ -86.395464, 35.845514 ], [ -86.395155, 35.845184 ], [ -86.391977, 35.842257 ], [ -86.391729, 35.843945 ], [ -86.391595, 35.844934 ], [ -86.391501, 35.845555 ], [ -86.39144, 35.845967 ], [ -86.390175, 35.845843 ], [ -86.388966, 35.845717 ], [ -86.386618, 35.845468 ], [ -86.383837, 35.845161 ], [ -86.382703, 35.84503 ], [ -86.381478, 35.844894 ], [ -86.379775, 35.844708 ], [ -86.376733, 35.844347 ], [ -86.37664, 35.844338 ], [ -86.375138, 35.844152 ], [ -86.37507, 35.844142 ], [ -86.373596, 35.84397 ], [ -86.372124, 35.8437 ], [ -86.371731, 35.846302 ], [ -86.371465, 35.848097 ], [ -86.37131, 35.849154 ], [ -86.371201, 35.849897 ], [ -86.371115, 35.850457 ], [ -86.37105, 35.85089 ], [ -86.370786, 35.852655 ], [ -86.370385, 35.855025 ], [ -86.370294, 35.855652 ], [ -86.369994, 35.857271 ], [ -86.371371, 35.857403 ], [ -86.373162, 35.857554 ], [ -86.374022, 35.858146 ] ] ] } }
]
}
