{
"type": "FeatureCollection",
"name": "intersection_pieces",
"crs": { "type": "name", "properties": { "name": "urn:ogc:def:crs:OGC:1.3:CRS84" } },
"features": [
{ "type": "Feature", "properties": { "precinct_key": "KNOX - 004888", "name20": "Knox - 004888", "county_norm": "KNOX", "prec_id": "004888", "district_num": "7", "area_weight": 0.31011044420686812, "geometry_status": "real_secondary", "suggested_action": "manual_split_review" }, "geometry": { "type": "GeometryCollection", "geometries": [ { "type": "Polygon", "coordinates": [ [ [ -83.997651, 36.035001 ], [ -83.997599, 36.034953 ], [ -83.99687, 36.03602 ], [ -83.996777, 36.035937 ], [ -83.995769, 36.038131 ], [ -83.995657, 36.039499 ], [ -83.994339, 36.040724 ], [ -83.993797, 36.040975 ], [ -83.993632, 36.041052 ], [ -83.993429, 36.04116 ], [ -83.993239, 36.041285 ], [ -83.993106, 36.041392 ], [ -83.992974, 36.041517 ], [ -83.992575, 36.041949 ], [ -83.992441, 36.042085 ], [ -83.992152, 36.04238 ], [ -83.990883, 36.043658 ], [ -83.988843, 36.045041 ], [ -83.984924, 36.047227 ], [ -83.982675, 36.048093 ], [ -83.981744, 36.048793 ], [ -83.979658, 36.05035 ], [ -83.978416, 36.051346 ], [ -83.976697, 36.052761 ], [ -83.973043, 36.054675 ], [ -83.970367, 36.055773 ], [ -83.969902, 36.055352 ], [ -83.965948, 36.052211 ], [ -83.965117, 36.051328 ], [ -83.964311, 36.048907 ], [ -83.963627, 36.047149 ], [ -83.963495, 36.044624 ], [ -83.961681, 36.042698 ], [ -83.960095, 36.040694 ], [ -83.958566, 36.0393 ], [ -83.958159, 36.039119 ], [ -83.958132, 36.039111 ], [ -83.958296, 36.03901 ], [ -83.958331, 36.03899 ], [ -83.958819, 36.038764 ], [ -83.958994, 36.038684 ], [ -83.959108, 36.03863 ], [ -83.959452, 36.038472 ], [ -83.959567, 36.03842 ], [ -83.959632, 36.038385 ], [ -83.959736, 36.038337 ], [ -83.959965, 36.038233 ], [ -83.96025, 36.038099 ], [ -83.960422, 36.03802 ], [ -83.960589, 36.037941 ], [ -83.96109, 36.037707 ], [ -83.961258, 36.037629 ], [ -83.96144, 36.037543 ], [ -83.96199, 36.037287 ], [ -83.962024, 36.037272 ], [ -83.962174, 36.037204 ], [ -83.962342, 36.037127 ], [ -83.962847, 36.036897 ], [ -83.963016, 36.036821 ], [ -83.969861, 36.033664 ], [ -83.969923, 36.033689 ], [ -83.96985, 36.033812 ], [ -83.969736, 36.034005 ], [ -83.969527, 36.034355 ], [ -83.969629, 36.034381 ], [ -83.970008, 36.034467 ], [ -83.970138, 36.034443 ], [ -83.970882, 36.034305 ], [ -83.971708, 36.034151 ], [ -83.972473, 36.034009 ], [ -83.972741, 36.034073 ], [ -83.973448, 36.033695 ], [ -83.973517, 36.033659 ], [ -83.973589, 36.03362 ], [ -83.973691, 36.033566 ], [ -83.97382, 36.033497 ], [ -83.973909, 36.033449 ], [ -83.973971, 36.033416 ], [ -83.974549, 36.033108 ], [ -83.975356, 36.03268 ], [ -83.975347, 36.032659 ], [ -83.975325, 36.032586 ], [ -83.975281, 36.032478 ], [ -83.975271, 36.032453 ], [ -83.975246, 36.032392 ], [ -83.975233, 36.03236 ], [ -83.975221, 36.03233 ], [ -83.975143, 36.032136 ], [ -83.975114, 36.032064 ], [ -83.975101, 36.032032 ], [ -83.97523, 36.032028 ], [ -83.975858, 36.032004 ], [ -83.977998, 36.031935 ], [ -83.978626, 36.031738 ], [ -83.979948, 36.031325 ], [ -83.980892, 36.031043 ], [ -83.981046, 36.030993 ], [ -83.980955, 36.030916 ], [ -83.980961, 36.030903 ], [ -83.981001, 36.030845 ], [ -83.981056, 36.030722 ], [ -83.981102, 36.030618 ], [ -83.981155, 36.030502 ], [ -83.981166, 36.03047 ], [ -83.981172, 36.030453 ], [ -83.981182, 36.030378 ], [ -83.981189, 36.03033 ], [ -83.981189, 36.030303 ], [ -83.981215, 36.030138 ], [ -83.981222, 36.030102 ], [ -83.981242, 36.030012 ], [ -83.98125, 36.029973 ], [ -83.98131, 36.029795 ], [ -83.981337, 36.029734 ], [ -83.98136, 36.029685 ], [ -83.98142, 36.029533 ], [ -83.981446, 36.029507 ], [ -83.981446, 36.02941 ], [ -83.981483, 36.029285 ], [ -83.98161, 36.028963 ], [ -83.981623, 36.028909 ], [ -83.981682, 36.028686 ], [ -83.981702, 36.028626 ], [ -83.981711, 36.0286 ], [ -83.981768, 36.028308 ], [ -83.981802, 36.028057 ], [ -83.98182, 36.027927 ], [ -83.981834, 36.027762 ], [ -83.981858, 36.027653 ], [ -83.981927, 36.02755 ], [ -83.981995, 36.027481 ], [ -83.982096, 36.027399 ], [ -83.982346, 36.027221 ], [ -83.982609, 36.02705 ], [ -83.982887, 36.026834 ], [ -83.983011, 36.026739 ], [ -83.983223, 36.026547 ], [ -83.983321, 36.026453 ], [ -83.983384, 36.026392 ], [ -83.98344, 36.026351 ], [ -83.983465, 36.026329 ], [ -83.983808, 36.026043 ], [ -83.983906, 36.025964 ], [ -83.984034, 36.025863 ], [ -83.984822, 36.026354 ], [ -83.985317, 36.026673 ], [ -83.985673, 36.026909 ], [ -83.986226, 36.027268 ], [ -83.986772, 36.027618 ], [ -83.987206, 36.027896 ], [ -83.987724, 36.028234 ], [ -83.987994, 36.028385 ], [ -83.988281, 36.028564 ], [ -83.98838, 36.028626 ], [ -83.988831, 36.028827 ], [ -83.989056, 36.028928 ], [ -83.989255, 36.029017 ], [ -83.989299, 36.029051 ], [ -83.989336, 36.029082 ], [ -83.98945, 36.029117 ], [ -83.989602, 36.029163 ], [ -83.989739, 36.029206 ], [ -83.989851, 36.029244 ], [ -83.990083, 36.029311 ], [ -83.990619, 36.029482 ], [ -83.991049, 36.02962 ], [ -83.991504, 36.029762 ], [ -83.991679, 36.029816 ], [ -83.99232, 36.030025 ], [ -83.992612, 36.030119 ], [ -83.992967, 36.030242 ], [ -83.993111, 36.030295 ], [ -83.993321, 36.030379 ], [ -83.993551, 36.030472 ], [ -83.994017, 36.03066 ], [ -83.994316, 36.030781 ], [ -83.994348, 36.030795 ], [ -83.994444, 36.030844 ], [ -83.994661, 36.030954 ], [ -83.994964, 36.031121 ], [ -83.995206, 36.031261 ], [ -83.99556, 36.031481 ], [ -83.995941, 36.031731 ], [ -83.996135, 36.031635 ], [ -83.996252, 36.031722 ], [ -83.996458, 36.031874 ], [ -83.99658, 36.031969 ], [ -83.996818, 36.032141 ], [ -83.997351, 36.032544 ], [ -83.997545, 36.032692 ], [ -83.997748, 36.032845 ], [ -83.997936, 36.032985 ], [ -83.99796, 36.032913 ], [ -83.997979, 36.03288 ], [ -83.997995, 36.032857 ], [ -83.998, 36.032847 ], [ -83.998029, 36.032781 ], [ -83.998041, 36.032738 ], [ -83.99805, 36.032701 ], [ -83.998064, 36.032711 ], [ -83.998113, 36.032735 ], [ -83.998129, 36.032744 ], [ -83.99824, 36.032804 ], [ -83.9983, 36.032836 ], [ -83.998497, 36.032974 ], [ -83.998554, 36.033011 ], [ -83.998566, 36.033018 ], [ -83.998663, 36.033083 ], [ -83.99868, 36.033094 ], [ -83.998731, 36.033129 ], [ -83.998749, 36.033141 ], [ -83.998731, 36.033185 ], [ -83.998679, 36.033319 ], [ -83.998662, 36.033364 ], [ -83.998657, 36.033377 ], [ -83.998639, 36.033417 ], [ -83.998569, 36.033576 ], [ -83.998546, 36.033629 ], [ -83.997807, 36.035104 ], [ -83.997651, 36.035001 ] ] ] }, { "type": "Polygon", "coordinates": [ [ [ -84.033191, 36.013446 ], [ -84.033031, 36.013282 ], [ -84.032901, 36.013125 ], [ -84.032783, 36.012944 ], [ -84.032736, 36.012859 ], [ -84.032681, 36.012756 ], [ -84.032596, 36.012562 ], [ -84.03253, 36.012364 ], [ -84.033191, 36.013446 ] ] ] }, { "type": "Polygon", "coordinates": [ [ [ -84.03253, 36.012364 ], [ -84.032508, 36.012267 ], [ -84.032477, 36.012071 ], [ -84.032469, 36.011972 ], [ -84.032463, 36.011775 ], [ -84.032475, 36.011623 ], [ -84.032515, 36.011341 ], [ -84.032534414678935, 36.011244703556947 ], [ -84.03253, 36.012364 ] ] ] }, { "type": "Polygon", "coordinates": [ [ [ -84.031832, 36.008016 ], [ -84.031804, 36.007984 ], [ -84.031801340424607, 36.007980211743792 ], [ -84.031832, 36.008016 ] ] ] }, { "type": "Polygon", "coordinates": [ [ [ -84.031037, 36.007088 ], [ -84.030923, 36.007035 ], [ -84.030766, 36.006954 ], [ -84.030723, 36.006946 ], [ -84.030632, 36.006921 ], [ -84.03049, 36.006846 ], [ -84.030219, 36.006703 ], [ -84.029981, 36.006586 ], [ -84.029881, 36.006533 ], [ -84.029801, 36.006477 ], [ -84.029616, 36.006361 ], [ -84.029507, 36.006285 ], [ -84.029176, 36.006034 ], [ -84.031037, 36.007088 ] ] ] }, { "type": "Polygon", "coordinates": [ [ [ -84.027233, 36.004659 ], [ -84.026568, 36.00421 ], [ -84.026494, 36.004161 ], [ -84.025504, 36.003492 ], [ -84.02546, 36.00346 ], [ -84.025428, 36.003442 ], [ -84.024966, 36.003128 ], [ -84.024576, 36.002862 ], [ -84.024503, 36.002813 ], [ -84.024403, 36.002731 ], [ -84.023976, 36.002333 ], [ -84.027233, 36.004659 ] ] ] }, { "type": "Polygon", "coordinates": [ [ [ -84.021407, 36.000276 ], [ -84.021195, 36.000146 ], [ -84.021065, 36.000036 ], [ -84.020978, 35.999962 ], [ -84.020782, 35.999788 ], [ -84.020737, 35.999734 ], [ -84.020613601003092, 35.999600666616317 ], [ -84.021407, 36.000276 ] ] ] }, { "type": "Polygon", "coordinates": [ [ [ -83.97631659036341, 36.02089283386379 ], [ -83.976282, 36.02093 ], [ -83.976191, 36.020923 ], [ -83.97631659036341, 36.02089283386379 ] ] ] }, { "type": "Polygon", "coordinates": [ [ [ -83.976002930590255, 36.020917990132624 ], [ -83.975975, 36.020927 ], [ -83.975834, 36.020958 ], [ -83.97574, 36.020972 ], [ -83.975699, 36.020979 ], [ -83.975651, 36.020984 ], [ -83.975528, 36.020997 ], [ -83.975396, 36.020998 ], [ -83.975363, 36.020999 ], [ -83.975171, 36.020982 ], [ -83.975036, 36.020959 ], [ -83.976002930590255, 36.020917990132624 ] ] ] }, { "type": "Polygon", "coordinates": [ [ [ -83.975036, 36.020959 ], [ -83.974846, 36.020913 ], [ -83.974745, 36.02088 ], [ -83.97465, 36.020843 ], [ -83.974565, 36.020811 ], [ -83.97452, 36.02079 ], [ -83.975036, 36.020959 ] ] ] }, { "type": "Polygon", "coordinates": [ [ [ -83.972931587701552, 36.02125282373337 ], [ -83.972918, 36.021258 ], [ -83.969339, 36.022311 ], [ -83.969156, 36.022364 ], [ -83.972931587701552, 36.02125282373337 ] ] ] }, { "type": "Polygon", "coordinates": [ [ [ -83.972984162930842, 36.025917363596179 ], [ -83.973058, 36.026155 ], [ -83.9731, 36.026271 ], [ -83.973234, 36.026635 ], [ -83.973285, 36.026798 ], [ -83.973328, 36.026962 ], [ -83.973364, 36.027135 ], [ -83.97341, 36.027399 ], [ -83.973421, 36.027475 ], [ -83.97346, 36.027739 ], [ -83.973475, 36.027889 ], [ -83.973481, 36.027943 ], [ -83.97348, 36.028038 ], [ -83.973459, 36.028164 ], [ -83.973435, 36.02823 ], [ -83.973416, 36.028286 ], [ -83.973407818338373, 36.028301662095998 ], [ -83.972984162930842, 36.025917363596179 ] ] ] }, { "type": "Polygon", "coordinates": [ [ [ -83.973622, 36.029507 ], [ -83.973681, 36.029709 ], [ -83.973693, 36.029819 ], [ -83.973686, 36.029929 ], [ -83.973659, 36.030037 ], [ -83.973597, 36.030185 ], [ -83.973517, 36.030323 ], [ -83.973406, 36.030478 ], [ -83.973271, 36.030639 ], [ -83.973622, 36.029507 ] ] ] }, { "type": "Polygon", "coordinates": [ [ [ -83.973271, 36.030639 ], [ -83.973163, 36.030746 ], [ -83.972939, 36.030946 ], [ -83.972667427619839, 36.031174452289989 ], [ -83.973271, 36.030639 ] ] ] }, { "type": "LineString", "coordinates": [ [ -84.051636, 36.018357 ], [ -84.049989, 36.017302 ] ] }, { "type": "LineString", "coordinates": [ [ -84.035423, 36.014302 ], [ -84.034829, 36.014198 ] ] }, { "type": "LineString", "coordinates": [ [ -84.034829, 36.014198 ], [ -84.034646, 36.014155 ] ] }, { "type": "LineString", "coordinates": [ [ -84.034646, 36.014155 ], [ -84.034409, 36.014097 ] ] }, { "type": "LineString", "coordinates": [ [ -84.034409, 36.014097 ], [ -84.034254, 36.014047 ] ] }, { "type": "LineString", "coordinates": [ [ -84.034254, 36.014047 ], [ -84.034075, 36.013982 ] ] }, { "type": "LineString", "coordinates": [ [ -84.034075, 36.013982 ], [ -84.033878, 36.013892 ] ] }, { "type": "LineString", "coordinates": [ [ -84.033878, 36.013892 ], [ -84.033625, 36.013745 ] ] }, { "type": "LineString", "coordinates": [ [ -84.033625, 36.013745 ], [ -84.033439, 36.013612 ] ] }, { "type": "LineString", "coordinates": [ [ -84.033439, 36.013612 ], [ -84.033191, 36.013446 ] ] }, { "type": "LineString", "coordinates": [ [ -84.023976, 36.002333 ], [ -84.023516, 36.001855 ] ] }, { "type": "LineString", "coordinates": [ [ -84.023516, 36.001855 ], [ -84.023481, 36.001818 ] ] }, { "type": "LineString", "coordinates": [ [ -84.023481, 36.001818 ], [ -84.023102, 36.001401 ] ] }, { "type": "LineString", "coordinates": [ [ -84.023102, 36.001401 ], [ -84.022771, 36.001164 ] ] }, { "type": "LineString", "coordinates": [ [ -84.022771, 36.001164 ], [ -84.022304, 36.000849 ] ] }, { "type": "LineString", "coordinates": [ [ -84.022304, 36.000849 ], [ -84.021966, 36.000631 ] ] }, { "type": "LineString", "coordinates": [ [ -84.021966, 36.000631 ], [ -84.02161, 36.000401 ] ] }, { "type": "LineString", "coordinates": [ [ -84.02161, 36.000401 ], [ -84.021407, 36.000276 ] ] }, { "type": "LineString", "coordinates": [ [ -83.976927, 36.020677 ], [ -83.976599, 36.020825 ] ] }, { "type": "LineString", "coordinates": [ [ -83.97452, 36.02079 ], [ -83.974439, 36.020817 ] ] }, { "type": "LineString", "coordinates": [ [ -83.969156, 36.022364 ], [ -83.969053, 36.0224 ] ] }, { "type": "Point", "coordinates": [ -83.972961, 36.025787 ] }, { "type": "Point", "coordinates": [ -84.041947, 36.015202 ] }, { "type": "Point", "coordinates": [ -83.971914, 36.025684 ] }, { "type": "Point", "coordinates": [ -84.048587, 36.016442 ] }, { "type": "Point", "coordinates": [ -84.046886, 36.015894 ] }, { "type": "Point", "coordinates": [ -84.031996, 36.008481 ] }, { "type": "Point", "coordinates": [ -84.019989, 35.999069 ] }, { "type": "Point", "coordinates": [ -84.032541, 36.009575 ] }, { "type": "Point", "coordinates": [ -84.031808, 36.008254 ] }, { "type": "Point", "coordinates": [ -84.031892, 36.008156 ] }, { "type": "Point", "coordinates": [ -83.973196, 36.021175 ] }, { "type": "Point", "coordinates": [ -83.976097, 36.020914 ] }, { "type": "Point", "coordinates": [ -84.018431, 35.998714 ] }, { "type": "Point", "coordinates": [ -83.97396, 36.020952 ] }, { "type": "Point", "coordinates": [ -83.970076, 36.024058 ] }, { "type": "Point", "coordinates": [ -83.972415, 36.025818 ] } ] } },
{ "type": "Feature", "properties": { "precinct_key": "KNOX - 004888", "name20": "Knox - 004888", "county_norm": "KNOX", "prec_id": "004888", "district_num": "5", "area_weight": 0.68988955579313116, "geometry_status": "dominant", "suggested_action": "manual_split_review" }, "geometry": { "type": "Polygon", "coordinates": [ [ [ -84.051597, 36.018496 ], [ -84.050981, 36.019232 ], [ -84.049622, 36.019181 ], [ -84.05037, 36.018165 ], [ -84.049071, 36.017942 ], [ -84.046981, 36.018863 ], [ -84.045428, 36.020577 ], [ -84.044012, 36.01992 ], [ -84.039063, 36.019669 ], [ -84.038121, 36.019821 ], [ -84.038444, 36.021004 ], [ -84.033875, 36.022907 ], [ -84.034748, 36.023844 ], [ -84.034248, 36.024283 ], [ -84.032427, 36.024118 ], [ -84.030491, 36.025851 ], [ -84.027405, 36.027096 ], [ -84.026602, 36.026317 ], [ -84.024765, 36.023907 ], [ -84.020397, 36.027082 ], [ -84.019347, 36.027812 ], [ -84.016218, 36.029208 ], [ -84.016089, 36.029264 ], [ -84.015304, 36.029608 ], [ -84.013844, 36.030245 ], [ -84.012266, 36.031087 ], [ -84.008992, 36.033515 ], [ -84.007514, 36.034614 ], [ -84.003805, 36.037355 ], [ -84.003041, 36.037903 ], [ -84.002804, 36.03804 ], [ -84.001943, 36.037462 ], [ -83.9979, 36.035169 ], [ -83.997807, 36.035104 ], [ -83.998546, 36.033629 ], [ -83.998569, 36.033576 ], [ -83.998639, 36.033417 ], [ -83.998657, 36.033377 ], [ -83.998662, 36.033364 ], [ -83.998679, 36.033319 ], [ -83.998731, 36.033185 ], [ -83.998749, 36.033141 ], [ -83.998731, 36.033129 ], [ -83.99868, 36.033094 ], [ -83.998663, 36.033083 ], [ -83.998566, 36.033018 ], [ -83.998554, 36.033011 ], [ -83.998497, 36.032974 ], [ -83.9983, 36.032836 ], [ -83.99824, 36.032804 ], [ -83.998129, 36.032744 ], [ -83.998113, 36.032735 ], [ -83.998064, 36.032711 ], [ -83.99805, 36.032701 ], [ -83.998041, 36.032738 ], [ -83.998029, 36.032781 ], [ -83.998, 36.032847 ], [ -83.997995, 36.032857 ], [ -83.997979, 36.03288 ], [ -83.99796, 36.032913 ], [ -83.997936, 36.032985 ], [ -83.997748, 36.032845 ], [ -83.997545, 36.032692 ], [ -83.997351, 36.032544 ], [ -83.996818, 36.032141 ], [ -83.99658, 36.031969 ], [ -83.996458, 36.031874 ], [ -83.996252, 36.031722 ], [ -83.996135, 36.031635 ], [ -83.995941, 36.031731 ], [ -83.99556, 36.031481 ], [ -83.995206, 36.031261 ], [ -83.994964, 36.031121 ], [ -83.994661, 36.030954 ], [ -83.994444, 36.030844 ], [ -83.994348, 36.030795 ], [ -83.994316, 36.030781 ], [ -83.994017, 36.03066 ], [ -83.993551, 36.030472 ], [ -83.993321, 36.030379 ], [ -83.993111, 36.030295 ], [ -83.992967, 36.030242 ], [ -83.992612, 36.030119 ], [ -83.99232, 36.030025 ], [ -83.991679, 36.029816 ], [ -83.991504, 36.029762 ], [ -83.991049, 36.02962 ], [ -83.990619, 36.029482 ], [ -83.990083, 36.029311 ], [ -83.989851, 36.029244 ], [ -83.989739, 36.029206 ], [ -83.989602, 36.029163 ], [ -83.98945, 36.029117 ], [ -83.989336, 36.029082 ], [ -83.989299, 36.029051 ], [ -83.989255, 36.029017 ], [ -83.989056, 36.028928 ], [ -83.988831, 36.028827 ], [ -83.98838, 36.028626 ], [ -83.988281, 36.028564 ], [ -83.987994, 36.028385 ], [ -83.987724, 36.028234 ], [ -83.987206, 36.027896 ], [ -83.986772, 36.027618 ], [ -83.986226, 36.027268 ], [ -83.985673, 36.026909 ], [ -83.985317, 36.026673 ], [ -83.984822, 36.026354 ], [ -83.984034, 36.025863 ], [ -83.983906, 36.025964 ], [ -83.983808, 36.026043 ], [ -83.983465, 36.026329 ], [ -83.98344, 36.026351 ], [ -83.983384, 36.026392 ], [ -83.983321, 36.026453 ], [ -83.983223, 36.026547 ], [ -83.983011, 36.026739 ], [ -83.982887, 36.026834 ], [ -83.982609, 36.02705 ], [ -83.982346, 36.027221 ], [ -83.982096, 36.027399 ], [ -83.981995, 36.027481 ], [ -83.981927, 36.02755 ], [ -83.981858, 36.027653 ], [ -83.981834, 36.027762 ], [ -83.98182, 36.027927 ], [ -83.981802, 36.028057 ], [ -83.981768, 36.028308 ], [ -83.981711, 36.0286 ], [ -83.981702, 36.028626 ], [ -83.981682, 36.028686 ], [ -83.981623, 36.028909 ], [ -83.98161, 36.028963 ], [ -83.981483, 36.029285 ], [ -83.981446, 36.02941 ], [ -83.981446, 36.029507 ], [ -83.98142, 36.029533 ], [ -83.98136, 36.029685 ], [ -83.981337, 36.029734 ], [ -83.98131, 36.029795 ], [ -83.98125, 36.029973 ], [ -83.981242, 36.030012 ], [ -83.981222, 36.030102 ], [ -83.981215, 36.030138 ], [ -83.981189, 36.030303 ], [ -83.981189, 36.03033 ], [ -83.981182, 36.030378 ], [ -83.981172, 36.030453 ], [ -83.981166, 36.03047 ], [ -83.981155, 36.030502 ], [ -83.981102, 36.030618 ], [ -83.981056, 36.030722 ], [ -83.981001, 36.030845 ], [ -83.980961, 36.030903 ], [ -83.980955, 36.030916 ], [ -83.981046, 36.030993 ], [ -83.980892, 36.031043 ], [ -83.979948, 36.031325 ], [ -83.978626, 36.031738 ], [ -83.977998, 36.031935 ], [ -83.975858, 36.032004 ], [ -83.97523, 36.032028 ], [ -83.975101, 36.032032 ], [ -83.975114, 36.032064 ], [ -83.975143, 36.032136 ], [ -83.975221, 36.03233 ], [ -83.975233, 36.03236 ], [ -83.975246, 36.032392 ], [ -83.975271, 36.032453 ], [ -83.975281, 36.032478 ], [ -83.975325, 36.032586 ], [ -83.975347, 36.032659 ], [ -83.975356, 36.03268 ], [ -83.974549, 36.033108 ], [ -83.973971, 36.033416 ], [ -83.973909, 36.033449 ], [ -83.97382, 36.033497 ], [ -83.973691, 36.033566 ], [ -83.973589, 36.03362 ], [ -83.973517, 36.033659 ], [ -83.973448, 36.033695 ], [ -83.972741, 36.034073 ], [ -83.972473, 36.034009 ], [ -83.971708, 36.034151 ], [ -83.970882, 36.034305 ], [ -83.970138, 36.034443 ], [ -83.970008, 36.034467 ], [ -83.969629, 36.034381 ], [ -83.969527, 36.034355 ], [ -83.969736, 36.034005 ], [ -83.96985, 36.033812 ], [ -83.969923, 36.033689 ], [ -83.969861, 36.033664 ], [ -83.972667427619839, 36.031174452289989 ], [ -83.972939, 36.030946 ], [ -83.973163, 36.030746 ], [ -83.973271, 36.030639 ], [ -83.973406, 36.030478 ], [ -83.973517, 36.030323 ], [ -83.973597, 36.030185 ], [ -83.973659, 36.030037 ], [ -83.973686, 36.029929 ], [ -83.973693, 36.029819 ], [ -83.973681, 36.029709 ], [ -83.973622, 36.029507 ], [ -83.973407818338373, 36.028301662095998 ], [ -83.973416, 36.028286 ], [ -83.973435, 36.02823 ], [ -83.973459, 36.028164 ], [ -83.97348, 36.028038 ], [ -83.973481, 36.027943 ], [ -83.973475, 36.027889 ], [ -83.97346, 36.027739 ], [ -83.973421, 36.027475 ], [ -83.97341, 36.027399 ], [ -83.973364, 36.027135 ], [ -83.973328, 36.026962 ], [ -83.973285, 36.026798 ], [ -83.973234, 36.026635 ], [ -83.9731, 36.026271 ], [ -83.973058, 36.026155 ], [ -83.972984162930842, 36.025917363596179 ], [ -83.972961, 36.025787 ], [ -83.972415, 36.025818 ], [ -83.971914, 36.025684 ], [ -83.970076, 36.024058 ], [ -83.969053, 36.0224 ], [ -83.969156, 36.022364 ], [ -83.969339, 36.022311 ], [ -83.972918, 36.021258 ], [ -83.972931587701552, 36.02125282373337 ], [ -83.973196, 36.021175 ], [ -83.97396, 36.020952 ], [ -83.974439, 36.020817 ], [ -83.97452, 36.02079 ], [ -83.974565, 36.020811 ], [ -83.97465, 36.020843 ], [ -83.974745, 36.02088 ], [ -83.974846, 36.020913 ], [ -83.975036, 36.020959 ], [ -83.975171, 36.020982 ], [ -83.975363, 36.020999 ], [ -83.975396, 36.020998 ], [ -83.975528, 36.020997 ], [ -83.975651, 36.020984 ], [ -83.975699, 36.020979 ], [ -83.97574, 36.020972 ], [ -83.975834, 36.020958 ], [ -83.975975, 36.020927 ], [ -83.976002930590255, 36.020917990132624 ], [ -83.976097, 36.020914 ], [ -83.976191, 36.020923 ], [ -83.976282, 36.02093 ], [ -83.97631659036341, 36.02089283386379 ], [ -83.976599, 36.020825 ], [ -83.976927, 36.020677 ], [ -83.978659, 36.021671 ], [ -83.979067, 36.021942 ], [ -83.981354, 36.018294 ], [ -83.981596, 36.018164 ], [ -83.982396, 36.017739 ], [ -83.984309, 36.016781 ], [ -83.985277, 36.01705 ], [ -83.985291, 36.017044 ], [ -83.985363, 36.017017 ], [ -83.985441, 36.017054 ], [ -83.985599, 36.016891 ], [ -83.985731, 36.016754 ], [ -83.985901, 36.016578 ], [ -83.986155, 36.016328 ], [ -83.990324, 36.014088 ], [ -83.991761, 36.01232 ], [ -83.993633, 36.012641 ], [ -83.993672, 36.012653 ], [ -83.993815, 36.012662 ], [ -83.997955, 36.010319 ], [ -83.999529, 36.012563 ], [ -84.003817, 36.00909 ], [ -84.004977, 36.008075 ], [ -84.00561, 36.007523 ], [ -84.006091, 36.007102 ], [ -84.00666, 36.006606 ], [ -84.007004, 36.006395 ], [ -84.008037, 36.005761 ], [ -84.008342, 36.005701 ], [ -84.013231, 36.001579 ], [ -84.012973, 36.001231 ], [ -84.014447, 35.999288 ], [ -84.014788, 35.998802 ], [ -84.015691, 35.997704 ], [ -84.015855, 35.997785 ], [ -84.017423, 35.99853 ], [ -84.017481, 35.998548 ], [ -84.018431, 35.998714 ], [ -84.019989, 35.999069 ], [ -84.020613601003092, 35.999600666616317 ], [ -84.020737, 35.999734 ], [ -84.020782, 35.999788 ], [ -84.020978, 35.999962 ], [ -84.021065, 36.000036 ], [ -84.021195, 36.000146 ], [ -84.021407, 36.000276 ], [ -84.02161, 36.000401 ], [ -84.021966, 36.000631 ], [ -84.022304, 36.000849 ], [ -84.022771, 36.001164 ], [ -84.023102, 36.001401 ], [ -84.023481, 36.001818 ], [ -84.023516, 36.001855 ], [ -84.023976, 36.002333 ], [ -84.024403, 36.002731 ], [ -84.024503, 36.002813 ], [ -84.024576, 36.002862 ], [ -84.024966, 36.003128 ], [ -84.025428, 36.003442 ], [ -84.02546, 36.00346 ], [ -84.025504, 36.003492 ], [ -84.026494, 36.004161 ], [ -84.026568, 36.00421 ], [ -84.027233, 36.004659 ], [ -84.029176, 36.006034 ], [ -84.029507, 36.006285 ], [ -84.029616, 36.006361 ], [ -84.029801, 36.006477 ], [ -84.029881, 36.006533 ], [ -84.029981, 36.006586 ], [ -84.030219, 36.006703 ], [ -84.03049, 36.006846 ], [ -84.030632, 36.006921 ], [ -84.030723, 36.006946 ], [ -84.030766, 36.006954 ], [ -84.030923, 36.007035 ], [ -84.031037, 36.007088 ], [ -84.031801340424607, 36.007980211743792 ], [ -84.031804, 36.007984 ], [ -84.031832, 36.008016 ], [ -84.031892, 36.008156 ], [ -84.031808, 36.008254 ], [ -84.031996, 36.008481 ], [ -84.032541, 36.009575 ], [ -84.032534414678935, 36.011244703556947 ], [ -84.032515, 36.011341 ], [ -84.032475, 36.011623 ], [ -84.032463, 36.011775 ], [ -84.032469, 36.011972 ], [ -84.032477, 36.012071 ], [ -84.032508, 36.012267 ], [ -84.03253, 36.012364 ], [ -84.032596, 36.012562 ], [ -84.032681, 36.012756 ], [ -84.032736, 36.012859 ], [ -84.032783, 36.012944 ], [ -84.032901, 36.013125 ], [ -84.033031, 36.013282 ], [ -84.033191, 36.013446 ], [ -84.033439, 36.013612 ], [ -84.033625, 36.013745 ], [ -84.033878, 36.013892 ], [ -84.034075, 36.013982 ], [ -84.034254, 36.014047 ], [ -84.034409, 36.014097 ], [ -84.034646, 36.014155 ], [ -84.034829, 36.014198 ], [ -84.035423, 36.014302 ], [ -84.041947, 36.015202 ], [ -84.046886, 36.015894 ], [ -84.048587, 36.016442 ], [ -84.049989, 36.017302 ], [ -84.051636, 36.018357 ], [ -84.051597, 36.018496 ] ] ] } }
]
}
