{
"type": "FeatureCollection",
"name": "precinct",
"crs": { "type": "name", "properties": { "name": "urn:ogc:def:crs:OGC:1.3:CRS84" } },
"features": [
{ "type": "Feature", "properties": { "precinct_key": "KNOX - 004888", "name20": "Knox - 004888", "county_norm": "KNOX", "prec_id": "004888" }, "geometry": { "type": "Polygon", "coordinates": [ [ [ -83.963016, 36.036821 ], [ -83.962847, 36.036897 ], [ -83.962342, 36.037127 ], [ -83.962174, 36.037204 ], [ -83.962024, 36.037272 ], [ -83.96199, 36.037287 ], [ -83.96144, 36.037543 ], [ -83.961258, 36.037629 ], [ -83.96109, 36.037707 ], [ -83.960589, 36.037941 ], [ -83.960422, 36.03802 ], [ -83.96025, 36.038099 ], [ -83.959965, 36.038233 ], [ -83.959736, 36.038337 ], [ -83.959632, 36.038385 ], [ -83.959567, 36.03842 ], [ -83.959452, 36.038472 ], [ -83.959108, 36.03863 ], [ -83.958994, 36.038684 ], [ -83.958819, 36.038764 ], [ -83.958331, 36.03899 ], [ -83.958296, 36.03901 ], [ -83.958132, 36.039111 ], [ -83.958159, 36.039119 ], [ -83.958566, 36.0393 ], [ -83.960095, 36.040694 ], [ -83.961681, 36.042698 ], [ -83.963495, 36.044624 ], [ -83.963627, 36.047149 ], [ -83.964311, 36.048907 ], [ -83.965117, 36.051328 ], [ -83.965948, 36.052211 ], [ -83.969902, 36.055352 ], [ -83.970367, 36.055773 ], [ -83.973043, 36.054675 ], [ -83.976697, 36.052761 ], [ -83.978416, 36.051346 ], [ -83.979658, 36.05035 ], [ -83.981744, 36.048793 ], [ -83.982675, 36.048093 ], [ -83.984924, 36.047227 ], [ -83.988843, 36.045041 ], [ -83.990883, 36.043658 ], [ -83.992152, 36.04238 ], [ -83.992441, 36.042085 ], [ -83.992575, 36.041949 ], [ -83.992974, 36.041517 ], [ -83.993106, 36.041392 ], [ -83.993239, 36.041285 ], [ -83.993429, 36.04116 ], [ -83.993632, 36.041052 ], [ -83.993797, 36.040975 ], [ -83.994339, 36.040724 ], [ -83.995657, 36.039499 ], [ -83.995769, 36.038131 ], [ -83.996777, 36.035937 ], [ -83.99687, 36.03602 ], [ -83.997599, 36.034953 ], [ -83.997651, 36.035001 ], [ -83.997807, 36.035104 ], [ -83.9979, 36.035169 ], [ -84.001943, 36.037462 ], [ -84.002804, 36.03804 ], [ -84.003041, 36.037903 ], [ -84.003805, 36.037355 ], [ -84.007514, 36.034614 ], [ -84.008992, 36.033515 ], [ -84.012266, 36.031087 ], [ -84.013844, 36.030245 ], [ -84.015304, 36.029608 ], [ -84.016089, 36.029264 ], [ -84.016218, 36.029208 ], [ -84.019347, 36.027812 ], [ -84.020397, 36.027082 ], [ -84.024765, 36.023907 ], [ -84.026602, 36.026317 ], [ -84.027405, 36.027096 ], [ -84.030491, 36.025851 ], [ -84.032427, 36.024118 ], [ -84.034248, 36.024283 ], [ -84.034748, 36.023844 ], [ -84.033875, 36.022907 ], [ -84.038444, 36.021004 ], [ -84.038121, 36.019821 ], [ -84.039063, 36.019669 ], [ -84.044012, 36.01992 ], [ -84.045428, 36.020577 ], [ -84.046981, 36.018863 ], [ -84.049071, 36.017942 ], [ -84.05037, 36.018165 ], [ -84.049622, 36.019181 ], [ -84.050981, 36.019232 ], [ -84.051597, 36.018496 ], [ -84.051636, 36.018357 ], [ -84.049989, 36.017302 ], [ -84.048587, 36.016442 ], [ -84.046886, 36.015894 ], [ -84.041947, 36.015202 ], [ -84.035423, 36.014302 ], [ -84.034829, 36.014198 ], [ -84.034646, 36.014155 ], [ -84.034409, 36.014097 ], [ -84.034254, 36.014047 ], [ -84.034075, 36.013982 ], [ -84.033878, 36.013892 ], [ -84.033625, 36.013745 ], [ -84.033439, 36.013612 ], [ -84.033191, 36.013446 ], [ -84.03253, 36.012364 ], [ -84.032541, 36.009575 ], [ -84.031996, 36.008481 ], [ -84.031808, 36.008254 ], [ -84.031892, 36.008156 ], [ -84.031832, 36.008016 ], [ -84.031037, 36.007088 ], [ -84.029176, 36.006034 ], [ -84.027233, 36.004659 ], [ -84.023976, 36.002333 ], [ -84.023516, 36.001855 ], [ -84.023481, 36.001818 ], [ -84.023102, 36.001401 ], [ -84.022771, 36.001164 ], [ -84.022304, 36.000849 ], [ -84.021966, 36.000631 ], [ -84.02161, 36.000401 ], [ -84.021407, 36.000276 ], [ -84.019989, 35.999069 ], [ -84.018431, 35.998714 ], [ -84.017481, 35.998548 ], [ -84.017423, 35.99853 ], [ -84.015855, 35.997785 ], [ -84.015691, 35.997704 ], [ -84.014788, 35.998802 ], [ -84.014447, 35.999288 ], [ -84.012973, 36.001231 ], [ -84.013231, 36.001579 ], [ -84.008342, 36.005701 ], [ -84.008037, 36.005761 ], [ -84.007004, 36.006395 ], [ -84.00666, 36.006606 ], [ -84.006091, 36.007102 ], [ -84.00561, 36.007523 ], [ -84.004977, 36.008075 ], [ -84.003817, 36.00909 ], [ -83.999529, 36.012563 ], [ -83.997955, 36.010319 ], [ -83.993815, 36.012662 ], [ -83.993672, 36.012653 ], [ -83.993633, 36.012641 ], [ -83.991761, 36.01232 ], [ -83.990324, 36.014088 ], [ -83.986155, 36.016328 ], [ -83.985901, 36.016578 ], [ -83.985731, 36.016754 ], [ -83.985599, 36.016891 ], [ -83.985441, 36.017054 ], [ -83.985363, 36.017017 ], [ -83.985291, 36.017044 ], [ -83.985277, 36.01705 ], [ -83.984309, 36.016781 ], [ -83.982396, 36.017739 ], [ -83.981596, 36.018164 ], [ -83.981354, 36.018294 ], [ -83.979067, 36.021942 ], [ -83.978659, 36.021671 ], [ -83.976927, 36.020677 ], [ -83.976599, 36.020825 ], [ -83.976191, 36.020923 ], [ -83.976097, 36.020914 ], [ -83.975036, 36.020959 ], [ -83.97452, 36.02079 ], [ -83.974439, 36.020817 ], [ -83.97396, 36.020952 ], [ -83.973196, 36.021175 ], [ -83.969156, 36.022364 ], [ -83.969053, 36.0224 ], [ -83.970076, 36.024058 ], [ -83.971914, 36.025684 ], [ -83.972415, 36.025818 ], [ -83.972961, 36.025787 ], [ -83.973622, 36.029507 ], [ -83.973271, 36.030639 ], [ -83.969861, 36.033664 ], [ -83.963016, 36.036821 ] ] ] } }
]
}
