{
"type": "FeatureCollection",
"name": "intersection_pieces",
"crs": { "type": "name", "properties": { "name": "urn:ogc:def:crs:OGC:1.3:CRS84" } },
"features": [
{ "type": "Feature", "properties": { "precinct_key": "MONTGOMERY - 006471", "name20": "Montgomery - 006471", "county_norm": "MONTGOMERY", "prec_id": "006471", "district_num": "23", "area_weight": 0.33703520420200356, "geometry_status": "real_secondary", "suggested_action": "manual_split_review" }, "geometry": { "type": "GeometryCollection", "geometries": [ { "type": "Polygon", "coordinates": [ [ [ -87.140651463081582, 36.555586730402979 ], [ -87.14032, 36.556077 ], [ -87.139962640912131, 36.556345019327061 ], [ -87.140651463081582, 36.555586730402979 ] ] ] }, { "type": "Polygon", "coordinates": [ [ [ -87.137774753263784, 36.56154731050183 ], [ -87.137813, 36.561627 ], [ -87.137812443326908, 36.561651215328624 ], [ -87.137774753263784, 36.56154731050183 ] ] ] }, { "type": "Polygon", "coordinates": [ [ [ -87.139485239554105, 36.562517171131915 ], [ -87.139526, 36.56252 ], [ -87.140355, 36.562779 ], [ -87.139485239554105, 36.562517171131915 ] ] ] }, { "type": "Polygon", "coordinates": [ [ [ -87.14506, 36.56315 ], [ -87.14631, 36.563053 ], [ -87.14779, 36.563109 ], [ -87.14506, 36.56315 ] ] ] }, { "type": "Polygon", "coordinates": [ [ [ -87.14779, 36.563109 ], [ -87.148663, 36.563279 ], [ -87.149161, 36.563438 ], [ -87.14945, 36.563605 ], [ -87.150004, 36.564016 ], [ -87.14779, 36.563109 ] ] ] }, { "type": "Polygon", "coordinates": [ [ [ -87.150004, 36.564016 ], [ -87.150145, 36.56435 ], [ -87.150341, 36.565257 ], [ -87.150004, 36.564016 ] ] ] }, { "type": "Polygon", "coordinates": [ [ [ -87.150341, 36.565257 ], [ -87.150371, 36.566824 ], [ -87.150233, 36.567702 ], [ -87.150341, 36.565257 ] ] ] }, { "type": "Polygon", "coordinates": [ [ [ -87.150233, 36.567702 ], [ -87.149986, 36.568234 ], [ -87.149618, 36.568587 ], [ -87.150233, 36.567702 ] ] ] }, { "type": "Polygon", "coordinates": [ [ [ -87.149618, 36.568587 ], [ -87.149348, 36.568712 ], [ -87.14913, 36.568752 ], [ -87.148638, 36.56873 ], [ -87.147965, 36.568537 ], [ -87.149618, 36.568587 ] ] ] }, { "type": "Polygon", "coordinates": [ [ [ -87.147965, 36.568537 ], [ -87.145548, 36.567689 ], [ -87.144053, 36.567117 ], [ -87.147965, 36.568537 ] ] ] }, { "type": "Polygon", "coordinates": [ [ [ -87.144053, 36.567117 ], [ -87.143132, 36.566557 ], [ -87.142201150896994, 36.565669531796345 ], [ -87.144053, 36.567117 ] ] ] }, { "type": "Polygon", "coordinates": [ [ [ -87.14158, 36.565184 ], [ -87.140968, 36.564966 ], [ -87.140844, 36.564922 ], [ -87.140389, 36.564696 ], [ -87.139176, 36.564297 ], [ -87.138646, 36.564031 ], [ -87.138069491743153, 36.563662218033897 ], [ -87.14158, 36.565184 ] ] ] }, { "type": "Polygon", "coordinates": [ [ [ -87.133702099510401, 36.568316177184407 ], [ -87.133789, 36.568454 ], [ -87.134081, 36.569013 ], [ -87.133702099510401, 36.568316177184407 ] ] ] }, { "type": "Polygon", "coordinates": [ [ [ -87.134081, 36.569013 ], [ -87.134226, 36.569679 ], [ -87.134335, 36.570564 ], [ -87.134081, 36.569013 ] ] ] }, { "type": "Polygon", "coordinates": [ [ [ -87.134335, 36.570564 ], [ -87.134179, 36.571551 ], [ -87.133995, 36.572101 ], [ -87.133632, 36.57279 ], [ -87.134335, 36.570564 ] ] ] }, { "type": "Polygon", "coordinates": [ [ [ -87.133632, 36.57279 ], [ -87.133427, 36.573024 ], [ -87.133103, 36.573269 ], [ -87.132943, 36.57324 ], [ -87.132407, 36.573266 ], [ -87.131849, 36.573144 ], [ -87.133632, 36.57279 ] ] ] }, { "type": "Polygon", "coordinates": [ [ [ -87.131849, 36.573144 ], [ -87.131778, 36.573116 ], [ -87.13089, 36.572764 ], [ -87.130780377584358, 36.572704616486462 ], [ -87.131849, 36.573144 ] ] ] }, { "type": "Polygon", "coordinates": [ [ [ -87.129784759990329, 36.572295236954467 ], [ -87.129777, 36.572295 ], [ -87.129755, 36.572283 ], [ -87.129784759990329, 36.572295236954467 ] ] ] }, { "type": "Polygon", "coordinates": [ [ [ -87.117437, 36.628118 ], [ -87.125001, 36.629051 ], [ -87.125932, 36.628989 ], [ -87.126517, 36.625044 ], [ -87.126757, 36.621601 ], [ -87.131292, 36.621995 ], [ -87.12099, 36.613544 ], [ -87.121043, 36.613313 ], [ -87.121129, 36.612937 ], [ -87.122028, 36.609369 ], [ -87.12601, 36.589983 ], [ -87.126188, 36.58994 ], [ -87.126422, 36.589815 ], [ -87.126503, 36.589759 ], [ -87.126675, 36.589615 ], [ -87.126724, 36.589554 ], [ -87.126795, 36.589429 ], [ -87.126873, 36.589201 ], [ -87.126879, 36.589185 ], [ -87.127222, 36.587564 ], [ -87.127548, 36.585968 ], [ -87.127623, 36.585575 ], [ -87.127856, 36.584364 ], [ -87.128127, 36.584396 ], [ -87.128749, 36.584444 ], [ -87.128898, 36.584456 ], [ -87.130299, 36.5846 ], [ -87.131427, 36.584699 ], [ -87.132052, 36.584754 ], [ -87.132321, 36.58478 ], [ -87.133332, 36.584879 ], [ -87.134042, 36.584949 ], [ -87.136366, 36.585197 ], [ -87.136806, 36.585244 ], [ -87.137378, 36.585299 ], [ -87.137822, 36.585342 ], [ -87.138107, 36.58535 ], [ -87.138398, 36.58533 ], [ -87.138522, 36.585322 ], [ -87.141305, 36.584946 ], [ -87.141442, 36.584924 ], [ -87.141906, 36.584851 ], [ -87.14213, 36.584795 ], [ -87.142245, 36.584747 ], [ -87.142413, 36.584641 ], [ -87.142443, 36.584617 ], [ -87.142664, 36.584411 ], [ -87.142766, 36.584279 ], [ -87.14299, 36.583974 ], [ -87.143142, 36.583714 ], [ -87.143368, 36.583218 ], [ -87.14349, 36.582914 ], [ -87.143618, 36.582682 ], [ -87.143752, 36.582489 ], [ -87.143874, 36.582328 ], [ -87.144036, 36.582117 ], [ -87.144391, 36.581688 ], [ -87.144606, 36.581443 ], [ -87.144822, 36.581233 ], [ -87.145146, 36.580998 ], [ -87.145433, 36.580819 ], [ -87.145745, 36.580673 ], [ -87.145996, 36.58059 ], [ -87.146284, 36.58052 ], [ -87.14673, 36.58045 ], [ -87.147015, 36.580435 ], [ -87.147411, 36.580436 ], [ -87.148057, 36.580454 ], [ -87.148161, 36.580456 ], [ -87.148498, 36.580444 ], [ -87.148986, 36.5804 ], [ -87.150052, 36.580278 ], [ -87.150252, 36.580253 ], [ -87.150774, 36.580186 ], [ -87.151444, 36.580083 ], [ -87.152128, 36.579979 ], [ -87.152511, 36.579913 ], [ -87.153876, 36.57969 ], [ -87.154165, 36.579619 ], [ -87.154143, 36.579575 ], [ -87.153978, 36.579146 ], [ -87.153972, 36.579131 ], [ -87.153924, 36.579004 ], [ -87.15387, 36.578862 ], [ -87.153438, 36.577651 ], [ -87.153351, 36.577349 ], [ -87.153336, 36.577206 ], [ -87.153332, 36.577141 ], [ -87.154626, 36.577116 ], [ -87.155121, 36.57709 ], [ -87.155264, 36.577074 ], [ -87.155545, 36.577045 ], [ -87.156849, 36.576811 ], [ -87.158586, 36.576432 ], [ -87.159236, 36.576291 ], [ -87.160011, 36.576135 ], [ -87.160083, 36.576128 ], [ -87.160243, 36.576113 ], [ -87.160582, 36.576099 ], [ -87.160971, 36.576098 ], [ -87.1627, 36.576098 ], [ -87.162906, 36.576099 ], [ -87.16323, 36.5761 ], [ -87.163601, 36.576103 ], [ -87.164202, 36.57609 ], [ -87.164246, 36.57609 ], [ -87.164526, 36.576074 ], [ -87.164545, 36.576072 ], [ -87.164604, 36.576069 ], [ -87.164624, 36.576069 ], [ -87.165072, 36.576016 ], [ -87.165904, 36.575882 ], [ -87.166045, 36.57586 ], [ -87.166575, 36.575742 ], [ -87.167116, 36.57558 ], [ -87.16746, 36.575442 ], [ -87.167971, 36.575251 ], [ -87.168528, 36.575085 ], [ -87.168937, 36.574985 ], [ -87.169154, 36.574945 ], [ -87.169642, 36.574885 ], [ -87.170299, 36.574806 ], [ -87.170924, 36.574709 ], [ -87.171567, 36.574565 ], [ -87.171837, 36.574493 ], [ -87.172693, 36.574268 ], [ -87.172935, 36.57422 ], [ -87.174605, 36.574021 ], [ -87.175491, 36.573917 ], [ -87.175536, 36.573904 ], [ -87.175976, 36.573762 ], [ -87.17708, 36.573296 ], [ -87.177456, 36.573147 ], [ -87.178484, 36.572744 ], [ -87.179195, 36.572437 ], [ -87.18029, 36.571925 ], [ -87.180629, 36.571804 ], [ -87.18097, 36.571728 ], [ -87.183342, 36.571365 ], [ -87.184116, 36.571247 ], [ -87.185381, 36.571035 ], [ -87.185621, 36.570995 ], [ -87.186343, 36.570879 ], [ -87.186584, 36.57084 ], [ -87.186813, 36.570803 ], [ -87.187569, 36.570665 ], [ -87.189168, 36.570419 ], [ -87.190169, 36.570266 ], [ -87.190739, 36.57018 ], [ -87.191083, 36.570139 ], [ -87.191413, 36.570133 ], [ -87.191959, 36.570164 ], [ -87.192397, 36.57022 ], [ -87.196092, 36.570648 ], [ -87.197132, 36.570769 ], [ -87.197314, 36.570775 ], [ -87.197523, 36.570751 ], [ -87.197724, 36.570678 ], [ -87.197854, 36.570592 ], [ -87.198072, 36.570409 ], [ -87.198289, 36.570241 ], [ -87.199028, 36.569637 ], [ -87.199285, 36.569446 ], [ -87.199381, 36.569395 ], [ -87.199615, 36.569311 ], [ -87.200237, 36.569187 ], [ -87.20053, 36.569131 ], [ -87.202288, 36.568799 ], [ -87.203281, 36.568624 ], [ -87.204098, 36.568457 ], [ -87.205574, 36.568103 ], [ -87.207164, 36.567713 ], [ -87.208615, 36.56734 ], [ -87.209507, 36.567084 ], [ -87.20978, 36.567021 ], [ -87.211553, 36.566724 ], [ -87.215076, 36.566162 ], [ -87.215721, 36.56605 ], [ -87.216043, 36.565988 ], [ -87.216362, 36.565903 ], [ -87.216611, 36.565813 ], [ -87.216815, 36.565707 ], [ -87.216824, 36.565699 ], [ -87.217085, 36.565489 ], [ -87.217157, 36.565413 ], [ -87.217666, 36.564837 ], [ -87.218376, 36.564088 ], [ -87.218687, 36.563797 ], [ -87.21896, 36.563568 ], [ -87.219182, 36.563396 ], [ -87.219341, 36.563288 ], [ -87.21939, 36.563255 ], [ -87.219613, 36.563142 ], [ -87.219769, 36.563085 ], [ -87.22038, 36.562914 ], [ -87.220629, 36.563562 ], [ -87.221062, 36.56344 ], [ -87.221495, 36.563351 ], [ -87.221872, 36.563329 ], [ -87.222128, 36.563351 ], [ -87.22271, 36.563403 ], [ -87.223498, 36.563481 ], [ -87.225586, 36.563688 ], [ -87.225594, 36.563534 ], [ -87.22559, 36.563428 ], [ -87.225547, 36.563174 ], [ -87.225493, 36.562893 ], [ -87.225529, 36.562889 ], [ -87.225745, 36.562862 ], [ -87.226059, 36.562805 ], [ -87.226767, 36.562699 ], [ -87.226841, 36.562688 ], [ -87.227057, 36.562674 ], [ -87.228054, 36.562663 ], [ -87.228527, 36.562658 ], [ -87.228854, 36.562621 ], [ -87.229103, 36.562567 ], [ -87.229332, 36.562502 ], [ -87.230409, 36.562241 ], [ -87.23055, 36.562207 ], [ -87.230924, 36.562096 ], [ -87.230976, 36.562077 ], [ -87.23137, 36.561941 ], [ -87.231894, 36.561689 ], [ -87.232361, 36.561436 ], [ -87.232465, 36.561384 ], [ -87.232529, 36.561353 ], [ -87.232797, 36.561237 ], [ -87.233486, 36.56098 ], [ -87.234024, 36.560837 ], [ -87.234253, 36.560768 ], [ -87.234298, 36.56075 ], [ -87.234467, 36.560684 ], [ -87.234726, 36.560551 ], [ -87.234871, 36.560452 ], [ -87.234917, 36.560612 ], [ -87.234917, 36.560741 ], [ -87.234855, 36.561355 ], [ -87.234833, 36.561581 ], [ -87.23472, 36.56316 ], [ -87.234671, 36.564088 ], [ -87.234623, 36.565 ], [ -87.234602, 36.565316 ], [ -87.234577, 36.565516 ], [ -87.234464, 36.566096 ], [ -87.234335, 36.566922 ], [ -87.23428, 36.567406 ], [ -87.234278, 36.567421 ], [ -87.23425, 36.567673 ], [ -87.234122, 36.568492 ], [ -87.233768, 36.570374 ], [ -87.233667, 36.57085 ], [ -87.233412, 36.572306 ], [ -87.232245, 36.572171 ], [ -87.232126, 36.572158 ], [ -87.232037, 36.572139 ], [ -87.231943, 36.572112 ], [ -87.231858, 36.572077 ], [ -87.230823, 36.571447 ], [ -87.230704, 36.571393 ], [ -87.230496, 36.571327 ], [ -87.230166, 36.57129 ], [ -87.228594, 36.571143 ], [ -87.228563, 36.571327 ], [ -87.228428, 36.572193 ], [ -87.228387, 36.572369 ], [ -87.228374, 36.57249 ], [ -87.228455, 36.572653 ], [ -87.228563, 36.572896 ], [ -87.228493, 36.573201 ], [ -87.229091, 36.573181 ], [ -87.229307, 36.573302 ], [ -87.229388, 36.573397 ], [ -87.229402, 36.573749 ], [ -87.229321, 36.574453 ], [ -87.22924, 36.575061 ], [ -87.229104, 36.5754 ], [ -87.229126, 36.575719 ], [ -87.229106, 36.575929 ], [ -87.229011, 36.576173 ], [ -87.228977, 36.576322 ], [ -87.228984, 36.576552 ], [ -87.229059, 36.576836 ], [ -87.229045, 36.577005 ], [ -87.228944, 36.577296 ], [ -87.228856, 36.577587 ], [ -87.228903, 36.577709 ], [ -87.229597, 36.577763 ], [ -87.229542, 36.578133 ], [ -87.229515, 36.578297 ], [ -87.229371, 36.579208 ], [ -87.229355, 36.579309 ], [ -87.229341, 36.579392 ], [ -87.229319, 36.579528 ], [ -87.22929, 36.579706 ], [ -87.229174, 36.580422 ], [ -87.229131, 36.580625 ], [ -87.229084, 36.580897 ], [ -87.229017, 36.581295 ], [ -87.228988, 36.581466 ], [ -87.228837, 36.582342 ], [ -87.2286, 36.583719 ], [ -87.228346, 36.585139 ], [ -87.228286, 36.585482 ], [ -87.228129, 36.586372 ], [ -87.228103, 36.586529 ], [ -87.22793, 36.587568 ], [ -87.227909, 36.587683 ], [ -87.227877, 36.587863 ], [ -87.22781, 36.588231 ], [ -87.227662, 36.589098 ], [ -87.22747, 36.590294 ], [ -87.227333, 36.591146 ], [ -87.227169, 36.592169 ], [ -87.227129, 36.592298 ], [ -87.227086, 36.592392 ], [ -87.226958, 36.592569 ], [ -87.226863, 36.592668 ], [ -87.226693, 36.592792 ], [ -87.226342, 36.59297 ], [ -87.226167, 36.593045 ], [ -87.22596, 36.593136 ], [ -87.22492, 36.593567 ], [ -87.224637, 36.593708 ], [ -87.224328, 36.593889 ], [ -87.224189, 36.593984 ], [ -87.223882, 36.594153 ], [ -87.22376, 36.594194 ], [ -87.223547, 36.59423 ], [ -87.223456, 36.594238 ], [ -87.2232, 36.594233 ], [ -87.222679, 36.594179 ], [ -87.221881, 36.594098 ], [ -87.221432, 36.594052 ], [ -87.220952, 36.594003 ], [ -87.220774, 36.593987 ], [ -87.220423, 36.593956 ], [ -87.21937, 36.593848 ], [ -87.218906, 36.593811 ], [ -87.218802, 36.5938 ], [ -87.218145, 36.593736 ], [ -87.217524, 36.593675 ], [ -87.21707, 36.593631 ], [ -87.216805, 36.593612 ], [ -87.215663, 36.59349 ], [ -87.215224, 36.593444 ], [ -87.215044, 36.593419 ], [ -87.215079, 36.593118 ], [ -87.215088, 36.593049 ], [ -87.215164, 36.592539 ], [ -87.215167, 36.592421 ], [ -87.215155, 36.592355 ], [ -87.215113, 36.592285 ], [ -87.215066, 36.592254 ], [ -87.215006, 36.592214 ], [ -87.21495, 36.592195 ], [ -87.214816, 36.592172 ], [ -87.214781, 36.592169 ], [ -87.213314, 36.592044 ], [ -87.213073, 36.592024 ], [ -87.212563, 36.591982 ], [ -87.212414, 36.59197 ], [ -87.210842, 36.591832 ], [ -87.209741, 36.591738 ], [ -87.208926, 36.59167 ], [ -87.208267, 36.591611 ], [ -87.208119, 36.591599 ], [ -87.207952, 36.591585 ], [ -87.207504, 36.59155 ], [ -87.206637, 36.591471 ], [ -87.206528, 36.591451 ], [ -87.206416, 36.591418 ], [ -87.206333, 36.591367 ], [ -87.206297, 36.591331 ], [ -87.206288, 36.591316 ], [ -87.206251, 36.591258 ], [ -87.206237, 36.591166 ], [ -87.206265, 36.590882 ], [ -87.206381, 36.590177 ], [ -87.206387, 36.590138 ], [ -87.206606, 36.588864 ], [ -87.206655, 36.588485 ], [ -87.206635, 36.588347 ], [ -87.206601, 36.588287 ], [ -87.206509, 36.588212 ], [ -87.206433, 36.588172 ], [ -87.206189, 36.588121 ], [ -87.205411, 36.588026 ], [ -87.205136, 36.587969 ], [ -87.205003, 36.587916 ], [ -87.204956, 36.587885 ], [ -87.204901, 36.587849 ], [ -87.204792, 36.587746 ], [ -87.204683, 36.587589 ], [ -87.204425, 36.587016 ], [ -87.204394, 36.586855 ], [ -87.20331, 36.586906 ], [ -87.201517, 36.586974 ], [ -87.201503, 36.586975 ], [ -87.201118, 36.587017 ], [ -87.200948, 36.58705 ], [ -87.200689, 36.587134 ], [ -87.200501, 36.587224 ], [ -87.200346, 36.587326 ], [ -87.200217, 36.587449 ], [ -87.200106, 36.587594 ], [ -87.200047, 36.587706 ], [ -87.199977, 36.587919 ], [ -87.199877, 36.58829 ], [ -87.199456, 36.590052 ], [ -87.199417, 36.590216 ], [ -87.199411, 36.590241 ], [ -87.198422, 36.594417 ], [ -87.197759, 36.597219 ], [ -87.197321, 36.59716 ], [ -87.195762, 36.596993 ], [ -87.195458, 36.596951 ], [ -87.193874, 36.59678 ], [ -87.193024, 36.596689 ], [ -87.192269, 36.596612 ], [ -87.191624, 36.596556 ], [ -87.191384, 36.59656 ], [ -87.191255, 36.596598 ], [ -87.191141, 36.596678 ], [ -87.191092, 36.596748 ], [ -87.191038, 36.596943 ], [ -87.190857, 36.598026 ], [ -87.190758, 36.598605 ], [ -87.190443, 36.600502 ], [ -87.190328, 36.601099 ], [ -87.190253, 36.601383 ], [ -87.190191, 36.601499 ], [ -87.190087, 36.601601 ], [ -87.189968, 36.601665 ], [ -87.189807, 36.60171 ], [ -87.189612, 36.60173 ], [ -87.189096, 36.601707 ], [ -87.1875, 36.601566 ], [ -87.186245, 36.601433 ], [ -87.185233, 36.601326 ], [ -87.182712, 36.601073 ], [ -87.182355, 36.60105 ], [ -87.182188, 36.602044 ], [ -87.182143, 36.602222 ], [ -87.182047, 36.602464 ], [ -87.181948, 36.602644 ], [ -87.1818, 36.602842 ], [ -87.181582, 36.60305 ], [ -87.181567, 36.603065 ], [ -87.181277, 36.603271 ], [ -87.181064, 36.603381 ], [ -87.18088, 36.603463 ], [ -87.180629, 36.60355 ], [ -87.180384, 36.603626 ], [ -87.179202, 36.603994 ], [ -87.178769, 36.604164 ], [ -87.178518, 36.604292 ], [ -87.178242, 36.604476 ], [ -87.178142, 36.604551 ], [ -87.177885, 36.604812 ], [ -87.177803, 36.604918 ], [ -87.177646, 36.605209 ], [ -87.17758, 36.605476 ], [ -87.177472, 36.606017 ], [ -87.177391, 36.606525 ], [ -87.177274, 36.607179 ], [ -87.176888, 36.609352 ], [ -87.176785, 36.609892 ], [ -87.176579, 36.61104 ], [ -87.176573, 36.61108 ], [ -87.176246, 36.61276 ], [ -87.175658, 36.615963 ], [ -87.175633, 36.616103 ], [ -87.175417, 36.61733 ], [ -87.175377, 36.617424 ], [ -87.175296, 36.617517 ], [ -87.175241, 36.617561 ], [ -87.175093, 36.617655 ], [ -87.174697, 36.617153 ], [ -87.17351, 36.61565 ], [ -87.173115, 36.615149 ], [ -87.172947, 36.615305 ], [ -87.172859, 36.615424 ], [ -87.172792, 36.615576 ], [ -87.172264, 36.616993 ], [ -87.17215, 36.6173 ], [ -87.171864, 36.618142 ], [ -87.171513, 36.61909 ], [ -87.171005, 36.620522 ], [ -87.170963, 36.620658 ], [ -87.170823, 36.621334 ], [ -87.170552, 36.622897 ], [ -87.170343, 36.624112 ], [ -87.170207, 36.624924 ], [ -87.170148, 36.625228 ], [ -87.170112, 36.625417 ], [ -87.170021, 36.626039 ], [ -87.169996, 36.626143 ], [ -87.169976, 36.626228 ], [ -87.169917, 36.626359 ], [ -87.169876, 36.626427 ], [ -87.169549, 36.626911 ], [ -87.169428, 36.627175 ], [ -87.169336, 36.627548 ], [ -87.168831, 36.629604 ], [ -87.168427, 36.631215 ], [ -87.168404, 36.631309 ], [ -87.168397, 36.631446 ], [ -87.168427, 36.631531 ], [ -87.168474, 36.631595 ], [ -87.168553, 36.63164 ], [ -87.1688, 36.631687 ], [ -87.169108, 36.63173 ], [ -87.169304, 36.631783 ], [ -87.169395, 36.631866 ], [ -87.169441, 36.631939 ], [ -87.169467, 36.632055 ], [ -87.169466, 36.632124 ], [ -87.169466, 36.632202 ], [ -87.169297, 36.633303 ], [ -87.169251, 36.633609 ], [ -87.169237, 36.633696 ], [ -87.169717, 36.633791 ], [ -87.169792, 36.63383 ], [ -87.16988, 36.633912 ], [ -87.169935, 36.633945 ], [ -87.170058, 36.634072 ], [ -87.170071, 36.634099 ], [ -87.170167, 36.634187 ], [ -87.17018, 36.63422 ], [ -87.170221, 36.634248 ], [ -87.17025, 36.634287 ], [ -87.170289, 36.634341 ], [ -87.170392, 36.634418 ], [ -87.170555, 36.634511 ], [ -87.170698, 36.634627 ], [ -87.170726, 36.634671 ], [ -87.170807, 36.634737 ], [ -87.170855, 36.634803 ], [ -87.17091, 36.634847 ], [ -87.170917, 36.63488 ], [ -87.171012, 36.634989 ], [ -87.171053, 36.635055 ], [ -87.171107, 36.635088 ], [ -87.171135, 36.635149 ], [ -87.171203, 36.635198 ], [ -87.171217, 36.635231 ], [ -87.171271, 36.635303 ], [ -87.171339, 36.635341 ], [ -87.17138, 36.635396 ], [ -87.171462, 36.635457 ], [ -87.171694, 36.63566 ], [ -87.171823, 36.635732 ], [ -87.172335, 36.635836 ], [ -87.172792, 36.635918 ], [ -87.173037, 36.635929 ], [ -87.173282, 36.635968 ], [ -87.173314, 36.635966 ], [ -87.173582, 36.635957 ], [ -87.174019, 36.636144 ], [ -87.174278, 36.636369 ], [ -87.174373, 36.636424 ], [ -87.174405, 36.636435 ], [ -87.17442, 36.636549 ], [ -87.174403, 36.636661 ], [ -87.174346, 36.636803 ], [ -87.174316, 36.636964 ], [ -87.174149, 36.637867 ], [ -87.174014, 36.638571 ], [ -87.173912, 36.639107 ], [ -87.173448, 36.639099 ], [ -87.173362, 36.639098 ], [ -87.172056, 36.639053 ], [ -87.171593, 36.639038 ], [ -87.170966, 36.639023 ], [ -87.170938, 36.639023 ], [ -87.169089, 36.638957 ], [ -87.168955, 36.638953 ], [ -87.168465, 36.638908 ], [ -87.168379, 36.639501 ], [ -87.168297, 36.640068 ], [ -87.168122, 36.641282 ], [ -87.168037, 36.641876 ], [ -87.168028, 36.641911 ], [ -87.168014, 36.641974 ], [ -87.167997, 36.642062 ], [ -87.162692, 36.642084 ], [ -87.159928, 36.642096 ], [ -87.159651, 36.642098 ], [ -87.159529, 36.642097 ], [ -87.157796556508544, 36.642104743169213 ], [ -87.155792, 36.642112 ], [ -87.139323674591225, 36.642182000031163 ], [ -87.139209, 36.642182 ], [ -87.137952, 36.642187 ], [ -87.12991, 36.642221 ], [ -87.121667, 36.642304 ], [ -87.121433, 36.642306 ], [ -87.117271929774518, 36.642348119146348 ], [ -87.114983, 36.642371 ], [ -87.117437, 36.628118 ] ] ] }, { "type": "Point", "coordinates": [ -87.137088, 36.559654 ] }, { "type": "Point", "coordinates": [ -87.139751, 36.556578 ] }, { "type": "Point", "coordinates": [ -87.141268, 36.554908 ] }, { "type": "Point", "coordinates": [ -87.137368, 36.55855 ] }, { "type": "Point", "coordinates": [ -87.13796, 36.562058 ] }, { "type": "Point", "coordinates": [ -87.141954, 36.563629 ] }, { "type": "Point", "coordinates": [ -87.136828, 36.563124 ] }, { "type": "Point", "coordinates": [ -87.134583, 36.562641 ] }, { "type": "Point", "coordinates": [ -87.133346, 36.562763 ] }, { "type": "Point", "coordinates": [ -87.132522, 36.56372 ] }, { "type": "Point", "coordinates": [ -87.132726, 36.566521 ] } ] } },
{ "type": "Feature", "properties": { "precinct_key": "MONTGOMERY - 006471", "name20": "Montgomery - 006471", "county_norm": "MONTGOMERY", "prec_id": "006471", "district_num": "22", "area_weight": 0.66295325240241554, "geometry_status": "dominant", "suggested_action": "manual_split_review" }, "geometry": { "type": "Polygon", "coordinates": [ [ [ -87.141996, 36.554723 ], [ -87.145034, 36.554876 ], [ -87.146845, 36.555844 ], [ -87.148161, 36.557098 ], [ -87.149964, 36.557506 ], [ -87.152357, 36.55674 ], [ -87.159527, 36.550708 ], [ -87.161994, 36.550345 ], [ -87.163564, 36.550766 ], [ -87.167157, 36.553017 ], [ -87.16688, 36.554242 ], [ -87.164378, 36.555905 ], [ -87.160437, 36.556879 ], [ -87.157738, 36.556937 ], [ -87.155904, 36.55805 ], [ -87.153242, 36.558667 ], [ -87.152336, 36.560512 ], [ -87.153082, 36.562471 ], [ -87.154803, 36.564647 ], [ -87.156854, 36.565836 ], [ -87.158358, 36.566037 ], [ -87.161944, 36.566202 ], [ -87.166987, 36.565338 ], [ -87.16878, 36.565574 ], [ -87.169705, 36.567405 ], [ -87.170597, 36.57114 ], [ -87.172935, 36.572069 ], [ -87.175135, 36.570747 ], [ -87.176094, 36.569021 ], [ -87.176756, 36.566524 ], [ -87.177641, 36.565708 ], [ -87.178296, 36.563272 ], [ -87.180997, 36.561156 ], [ -87.182371, 36.56042 ], [ -87.18313, 36.559201 ], [ -87.182837, 36.55449 ], [ -87.184414, 36.553414 ], [ -87.187004, 36.553082 ], [ -87.188704, 36.553528 ], [ -87.190485, 36.554755 ], [ -87.192579, 36.557196 ], [ -87.193274, 36.56002 ], [ -87.195731, 36.561173 ], [ -87.197438, 36.561192 ], [ -87.199225, 36.561224 ], [ -87.201043, 36.560543 ], [ -87.203378, 36.559216 ], [ -87.205039, 36.558648 ], [ -87.206528, 36.557607 ], [ -87.208462, 36.55698 ], [ -87.209438, 36.555909 ], [ -87.208201, 36.554466 ], [ -87.201971, 36.550197 ], [ -87.20065, 36.548198 ], [ -87.201774, 36.546032 ], [ -87.203451, 36.544843 ], [ -87.206181, 36.544626 ], [ -87.210714, 36.546532 ], [ -87.212112, 36.547859 ], [ -87.213448, 36.551156 ], [ -87.214791, 36.553748 ], [ -87.216163, 36.554696 ], [ -87.217499, 36.554418 ], [ -87.219059, 36.5526 ], [ -87.218766, 36.550378 ], [ -87.218024, 36.548663 ], [ -87.218029, 36.544989 ], [ -87.219012, 36.542477 ], [ -87.220722, 36.541662 ], [ -87.224112, 36.541088 ], [ -87.22618, 36.541324 ], [ -87.228975, 36.541644 ], [ -87.23241, 36.541664 ], [ -87.236371, 36.541464 ], [ -87.236855, 36.541471 ], [ -87.236902, 36.541456 ], [ -87.237585, 36.541451 ], [ -87.23781, 36.541492 ], [ -87.238369, 36.541599 ], [ -87.238535, 36.541588 ], [ -87.239428, 36.541527 ], [ -87.239889, 36.541496 ], [ -87.239986, 36.541496 ], [ -87.240117, 36.541357 ], [ -87.240178, 36.541466 ], [ -87.240191, 36.541488 ], [ -87.242912, 36.54565 ], [ -87.246521, 36.549038 ], [ -87.24769, 36.550987 ], [ -87.250145, 36.555935 ], [ -87.256513, 36.56862 ], [ -87.258008, 36.571123 ], [ -87.260298, 36.574104 ], [ -87.265048, 36.579481 ], [ -87.272539, 36.588055 ], [ -87.282771, 36.599656 ], [ -87.282852, 36.599747 ], [ -87.287383, 36.604882 ], [ -87.294866, 36.613371 ], [ -87.298809, 36.617834 ], [ -87.298948, 36.617991 ], [ -87.301959, 36.618311 ], [ -87.304257, 36.618213 ], [ -87.310662, 36.618774 ], [ -87.318798, 36.619619 ], [ -87.317863, 36.624598 ], [ -87.317668, 36.625764 ], [ -87.316995, 36.629826 ], [ -87.316897, 36.630415 ], [ -87.316383, 36.633538 ], [ -87.315801, 36.636964 ], [ -87.314919, 36.641683 ], [ -87.314859, 36.641683 ], [ -87.300909, 36.641725 ], [ -87.294815, 36.641744 ], [ -87.293576, 36.641747 ], [ -87.293487187137828, 36.641747638960027 ], [ -87.285582, 36.641769 ], [ -87.281491, 36.64177 ], [ -87.279945, 36.641763 ], [ -87.279426, 36.641764 ], [ -87.278366, 36.641765 ], [ -87.275209, 36.64176 ], [ -87.264568, 36.641741 ], [ -87.25004, 36.641718 ], [ -87.24933, 36.641721 ], [ -87.248362, 36.641725 ], [ -87.246026460058516, 36.641735172260589 ], [ -87.244458, 36.641741 ], [ -87.24059, 36.641756 ], [ -87.239954, 36.641761 ], [ -87.232782, 36.64179 ], [ -87.232644, 36.641791 ], [ -87.230869, 36.641797 ], [ -87.230616, 36.641798 ], [ -87.230481, 36.641799 ], [ -87.230338, 36.6418 ], [ -87.229172, 36.641805 ], [ -87.212793, 36.641875 ], [ -87.20356, 36.641913 ], [ -87.198701, 36.641933 ], [ -87.198568, 36.641934 ], [ -87.197882, 36.641937 ], [ -87.197825, 36.641937 ], [ -87.197737, 36.641937 ], [ -87.174277, 36.642035 ], [ -87.174037, 36.642036 ], [ -87.172343, 36.642044 ], [ -87.17122540731458, 36.642048643788762 ], [ -87.170267, 36.642052 ], [ -87.170164, 36.642052 ], [ -87.167997, 36.642062 ], [ -87.168014, 36.641974 ], [ -87.168028, 36.641911 ], [ -87.168037, 36.641876 ], [ -87.168122, 36.641282 ], [ -87.168297, 36.640068 ], [ -87.168379, 36.639501 ], [ -87.168465, 36.638908 ], [ -87.168955, 36.638953 ], [ -87.169089, 36.638957 ], [ -87.170938, 36.639023 ], [ -87.170966, 36.639023 ], [ -87.171593, 36.639038 ], [ -87.172056, 36.639053 ], [ -87.173362, 36.639098 ], [ -87.173448, 36.639099 ], [ -87.173912, 36.639107 ], [ -87.174014, 36.638571 ], [ -87.174149, 36.637867 ], [ -87.174316, 36.636964 ], [ -87.174346, 36.636803 ], [ -87.174403, 36.636661 ], [ -87.17442, 36.636549 ], [ -87.174405, 36.636435 ], [ -87.174373, 36.636424 ], [ -87.174278, 36.636369 ], [ -87.174019, 36.636144 ], [ -87.173582, 36.635957 ], [ -87.173314, 36.635966 ], [ -87.173282, 36.635968 ], [ -87.173037, 36.635929 ], [ -87.172792, 36.635918 ], [ -87.172335, 36.635836 ], [ -87.171823, 36.635732 ], [ -87.171694, 36.63566 ], [ -87.171462, 36.635457 ], [ -87.17138, 36.635396 ], [ -87.171339, 36.635341 ], [ -87.171271, 36.635303 ], [ -87.171217, 36.635231 ], [ -87.171203, 36.635198 ], [ -87.171135, 36.635149 ], [ -87.171107, 36.635088 ], [ -87.171053, 36.635055 ], [ -87.171012, 36.634989 ], [ -87.170917, 36.63488 ], [ -87.17091, 36.634847 ], [ -87.170855, 36.634803 ], [ -87.170807, 36.634737 ], [ -87.170726, 36.634671 ], [ -87.170698, 36.634627 ], [ -87.170555, 36.634511 ], [ -87.170392, 36.634418 ], [ -87.170289, 36.634341 ], [ -87.17025, 36.634287 ], [ -87.170221, 36.634248 ], [ -87.17018, 36.63422 ], [ -87.170167, 36.634187 ], [ -87.170071, 36.634099 ], [ -87.170058, 36.634072 ], [ -87.169935, 36.633945 ], [ -87.16988, 36.633912 ], [ -87.169792, 36.63383 ], [ -87.169717, 36.633791 ], [ -87.169237, 36.633696 ], [ -87.169251, 36.633609 ], [ -87.169297, 36.633303 ], [ -87.169466, 36.632202 ], [ -87.169466, 36.632124 ], [ -87.169467, 36.632055 ], [ -87.169441, 36.631939 ], [ -87.169395, 36.631866 ], [ -87.169304, 36.631783 ], [ -87.169108, 36.63173 ], [ -87.1688, 36.631687 ], [ -87.168553, 36.63164 ], [ -87.168474, 36.631595 ], [ -87.168427, 36.631531 ], [ -87.168397, 36.631446 ], [ -87.168404, 36.631309 ], [ -87.168427, 36.631215 ], [ -87.168831, 36.629604 ], [ -87.169336, 36.627548 ], [ -87.169428, 36.627175 ], [ -87.169549, 36.626911 ], [ -87.169876, 36.626427 ], [ -87.169917, 36.626359 ], [ -87.169976, 36.626228 ], [ -87.169996, 36.626143 ], [ -87.170021, 36.626039 ], [ -87.170112, 36.625417 ], [ -87.170148, 36.625228 ], [ -87.170207, 36.624924 ], [ -87.170343, 36.624112 ], [ -87.170552, 36.622897 ], [ -87.170823, 36.621334 ], [ -87.170963, 36.620658 ], [ -87.171005, 36.620522 ], [ -87.171513, 36.61909 ], [ -87.171864, 36.618142 ], [ -87.17215, 36.6173 ], [ -87.172264, 36.616993 ], [ -87.172792, 36.615576 ], [ -87.172859, 36.615424 ], [ -87.172947, 36.615305 ], [ -87.173115, 36.615149 ], [ -87.17351, 36.61565 ], [ -87.174697, 36.617153 ], [ -87.175093, 36.617655 ], [ -87.175241, 36.617561 ], [ -87.175296, 36.617517 ], [ -87.175377, 36.617424 ], [ -87.175417, 36.61733 ], [ -87.175633, 36.616103 ], [ -87.175658, 36.615963 ], [ -87.176246, 36.61276 ], [ -87.176573, 36.61108 ], [ -87.176579, 36.61104 ], [ -87.176785, 36.609892 ], [ -87.176888, 36.609352 ], [ -87.177274, 36.607179 ], [ -87.177391, 36.606525 ], [ -87.177472, 36.606017 ], [ -87.17758, 36.605476 ], [ -87.177646, 36.605209 ], [ -87.177803, 36.604918 ], [ -87.177885, 36.604812 ], [ -87.178142, 36.604551 ], [ -87.178242, 36.604476 ], [ -87.178518, 36.604292 ], [ -87.178769, 36.604164 ], [ -87.179202, 36.603994 ], [ -87.180384, 36.603626 ], [ -87.180629, 36.60355 ], [ -87.18088, 36.603463 ], [ -87.181064, 36.603381 ], [ -87.181277, 36.603271 ], [ -87.181567, 36.603065 ], [ -87.181582, 36.60305 ], [ -87.1818, 36.602842 ], [ -87.181948, 36.602644 ], [ -87.182047, 36.602464 ], [ -87.182143, 36.602222 ], [ -87.182188, 36.602044 ], [ -87.182355, 36.60105 ], [ -87.182712, 36.601073 ], [ -87.185233, 36.601326 ], [ -87.186245, 36.601433 ], [ -87.1875, 36.601566 ], [ -87.189096, 36.601707 ], [ -87.189612, 36.60173 ], [ -87.189807, 36.60171 ], [ -87.189968, 36.601665 ], [ -87.190087, 36.601601 ], [ -87.190191, 36.601499 ], [ -87.190253, 36.601383 ], [ -87.190328, 36.601099 ], [ -87.190443, 36.600502 ], [ -87.190758, 36.598605 ], [ -87.190857, 36.598026 ], [ -87.191038, 36.596943 ], [ -87.191092, 36.596748 ], [ -87.191141, 36.596678 ], [ -87.191255, 36.596598 ], [ -87.191384, 36.59656 ], [ -87.191624, 36.596556 ], [ -87.192269, 36.596612 ], [ -87.193024, 36.596689 ], [ -87.193874, 36.59678 ], [ -87.195458, 36.596951 ], [ -87.195762, 36.596993 ], [ -87.197321, 36.59716 ], [ -87.197759, 36.597219 ], [ -87.198422, 36.594417 ], [ -87.199411, 36.590241 ], [ -87.199417, 36.590216 ], [ -87.199456, 36.590052 ], [ -87.199877, 36.58829 ], [ -87.199977, 36.587919 ], [ -87.200047, 36.587706 ], [ -87.200106, 36.587594 ], [ -87.200217, 36.587449 ], [ -87.200346, 36.587326 ], [ -87.200501, 36.587224 ], [ -87.200689, 36.587134 ], [ -87.200948, 36.58705 ], [ -87.201118, 36.587017 ], [ -87.201503, 36.586975 ], [ -87.201517, 36.586974 ], [ -87.20331, 36.586906 ], [ -87.204394, 36.586855 ], [ -87.204425, 36.587016 ], [ -87.204683, 36.587589 ], [ -87.204792, 36.587746 ], [ -87.204901, 36.587849 ], [ -87.204956, 36.587885 ], [ -87.205003, 36.587916 ], [ -87.205136, 36.587969 ], [ -87.205411, 36.588026 ], [ -87.206189, 36.588121 ], [ -87.206433, 36.588172 ], [ -87.206509, 36.588212 ], [ -87.206601, 36.588287 ], [ -87.206635, 36.588347 ], [ -87.206655, 36.588485 ], [ -87.206606, 36.588864 ], [ -87.206387, 36.590138 ], [ -87.206381, 36.590177 ], [ -87.206265, 36.590882 ], [ -87.206237, 36.591166 ], [ -87.206251, 36.591258 ], [ -87.206288, 36.591316 ], [ -87.206297, 36.591331 ], [ -87.206333, 36.591367 ], [ -87.206416, 36.591418 ], [ -87.206528, 36.591451 ], [ -87.206637, 36.591471 ], [ -87.207504, 36.59155 ], [ -87.207952, 36.591585 ], [ -87.208119, 36.591599 ], [ -87.208267, 36.591611 ], [ -87.208926, 36.59167 ], [ -87.209741, 36.591738 ], [ -87.210842, 36.591832 ], [ -87.212414, 36.59197 ], [ -87.212563, 36.591982 ], [ -87.213073, 36.592024 ], [ -87.213314, 36.592044 ], [ -87.214781, 36.592169 ], [ -87.214816, 36.592172 ], [ -87.21495, 36.592195 ], [ -87.215006, 36.592214 ], [ -87.215066, 36.592254 ], [ -87.215113, 36.592285 ], [ -87.215155, 36.592355 ], [ -87.215167, 36.592421 ], [ -87.215164, 36.592539 ], [ -87.215088, 36.593049 ], [ -87.215079, 36.593118 ], [ -87.215044, 36.593419 ], [ -87.215224, 36.593444 ], [ -87.215663, 36.59349 ], [ -87.216805, 36.593612 ], [ -87.21707, 36.593631 ], [ -87.217524, 36.593675 ], [ -87.218145, 36.593736 ], [ -87.218802, 36.5938 ], [ -87.218906, 36.593811 ], [ -87.21937, 36.593848 ], [ -87.220423, 36.593956 ], [ -87.220774, 36.593987 ], [ -87.220952, 36.594003 ], [ -87.221432, 36.594052 ], [ -87.221881, 36.594098 ], [ -87.222679, 36.594179 ], [ -87.2232, 36.594233 ], [ -87.223456, 36.594238 ], [ -87.223547, 36.59423 ], [ -87.22376, 36.594194 ], [ -87.223882, 36.594153 ], [ -87.224189, 36.593984 ], [ -87.224328, 36.593889 ], [ -87.224637, 36.593708 ], [ -87.22492, 36.593567 ], [ -87.22596, 36.593136 ], [ -87.226167, 36.593045 ], [ -87.226342, 36.59297 ], [ -87.226693, 36.592792 ], [ -87.226863, 36.592668 ], [ -87.226958, 36.592569 ], [ -87.227086, 36.592392 ], [ -87.227129, 36.592298 ], [ -87.227169, 36.592169 ], [ -87.227333, 36.591146 ], [ -87.22747, 36.590294 ], [ -87.227662, 36.589098 ], [ -87.22781, 36.588231 ], [ -87.227877, 36.587863 ], [ -87.227909, 36.587683 ], [ -87.22793, 36.587568 ], [ -87.228103, 36.586529 ], [ -87.228129, 36.586372 ], [ -87.228286, 36.585482 ], [ -87.228346, 36.585139 ], [ -87.2286, 36.583719 ], [ -87.228837, 36.582342 ], [ -87.228988, 36.581466 ], [ -87.229017, 36.581295 ], [ -87.229084, 36.580897 ], [ -87.229131, 36.580625 ], [ -87.229174, 36.580422 ], [ -87.22929, 36.579706 ], [ -87.229319, 36.579528 ], [ -87.229341, 36.579392 ], [ -87.229355, 36.579309 ], [ -87.229371, 36.579208 ], [ -87.229515, 36.578297 ], [ -87.229542, 36.578133 ], [ -87.229597, 36.577763 ], [ -87.228903, 36.577709 ], [ -87.228856, 36.577587 ], [ -87.228944, 36.577296 ], [ -87.229045, 36.577005 ], [ -87.229059, 36.576836 ], [ -87.228984, 36.576552 ], [ -87.228977, 36.576322 ], [ -87.229011, 36.576173 ], [ -87.229106, 36.575929 ], [ -87.229126, 36.575719 ], [ -87.229104, 36.5754 ], [ -87.22924, 36.575061 ], [ -87.229321, 36.574453 ], [ -87.229402, 36.573749 ], [ -87.229388, 36.573397 ], [ -87.229307, 36.573302 ], [ -87.229091, 36.573181 ], [ -87.228493, 36.573201 ], [ -87.228563, 36.572896 ], [ -87.228455, 36.572653 ], [ -87.228374, 36.57249 ], [ -87.228387, 36.572369 ], [ -87.228428, 36.572193 ], [ -87.228563, 36.571327 ], [ -87.228594, 36.571143 ], [ -87.230166, 36.57129 ], [ -87.230496, 36.571327 ], [ -87.230704, 36.571393 ], [ -87.230823, 36.571447 ], [ -87.231858, 36.572077 ], [ -87.231943, 36.572112 ], [ -87.232037, 36.572139 ], [ -87.232126, 36.572158 ], [ -87.232245, 36.572171 ], [ -87.233412, 36.572306 ], [ -87.233667, 36.57085 ], [ -87.233768, 36.570374 ], [ -87.234122, 36.568492 ], [ -87.23425, 36.567673 ], [ -87.234278, 36.567421 ], [ -87.23428, 36.567406 ], [ -87.234335, 36.566922 ], [ -87.234464, 36.566096 ], [ -87.234577, 36.565516 ], [ -87.234602, 36.565316 ], [ -87.234623, 36.565 ], [ -87.234671, 36.564088 ], [ -87.23472, 36.56316 ], [ -87.234833, 36.561581 ], [ -87.234855, 36.561355 ], [ -87.234917, 36.560741 ], [ -87.234917, 36.560612 ], [ -87.234871, 36.560452 ], [ -87.234726, 36.560551 ], [ -87.234467, 36.560684 ], [ -87.234298, 36.56075 ], [ -87.234253, 36.560768 ], [ -87.234024, 36.560837 ], [ -87.233486, 36.56098 ], [ -87.232797, 36.561237 ], [ -87.232529, 36.561353 ], [ -87.232465, 36.561384 ], [ -87.232361, 36.561436 ], [ -87.231894, 36.561689 ], [ -87.23137, 36.561941 ], [ -87.230976, 36.562077 ], [ -87.230924, 36.562096 ], [ -87.23055, 36.562207 ], [ -87.230409, 36.562241 ], [ -87.229332, 36.562502 ], [ -87.229103, 36.562567 ], [ -87.228854, 36.562621 ], [ -87.228527, 36.562658 ], [ -87.228054, 36.562663 ], [ -87.227057, 36.562674 ], [ -87.226841, 36.562688 ], [ -87.226767, 36.562699 ], [ -87.226059, 36.562805 ], [ -87.225745, 36.562862 ], [ -87.225529, 36.562889 ], [ -87.225493, 36.562893 ], [ -87.225547, 36.563174 ], [ -87.22559, 36.563428 ], [ -87.225594, 36.563534 ], [ -87.225586, 36.563688 ], [ -87.223498, 36.563481 ], [ -87.22271, 36.563403 ], [ -87.222128, 36.563351 ], [ -87.221872, 36.563329 ], [ -87.221495, 36.563351 ], [ -87.221062, 36.56344 ], [ -87.220629, 36.563562 ], [ -87.22038, 36.562914 ], [ -87.219769, 36.563085 ], [ -87.219613, 36.563142 ], [ -87.21939, 36.563255 ], [ -87.219341, 36.563288 ], [ -87.219182, 36.563396 ], [ -87.21896, 36.563568 ], [ -87.218687, 36.563797 ], [ -87.218376, 36.564088 ], [ -87.217666, 36.564837 ], [ -87.217157, 36.565413 ], [ -87.217085, 36.565489 ], [ -87.216824, 36.565699 ], [ -87.216815, 36.565707 ], [ -87.216611, 36.565813 ], [ -87.216362, 36.565903 ], [ -87.216043, 36.565988 ], [ -87.215721, 36.56605 ], [ -87.215076, 36.566162 ], [ -87.211553, 36.566724 ], [ -87.20978, 36.567021 ], [ -87.209507, 36.567084 ], [ -87.208615, 36.56734 ], [ -87.207164, 36.567713 ], [ -87.205574, 36.568103 ], [ -87.204098, 36.568457 ], [ -87.203281, 36.568624 ], [ -87.202288, 36.568799 ], [ -87.20053, 36.569131 ], [ -87.200237, 36.569187 ], [ -87.199615, 36.569311 ], [ -87.199381, 36.569395 ], [ -87.199285, 36.569446 ], [ -87.199028, 36.569637 ], [ -87.198289, 36.570241 ], [ -87.198072, 36.570409 ], [ -87.197854, 36.570592 ], [ -87.197724, 36.570678 ], [ -87.197523, 36.570751 ], [ -87.197314, 36.570775 ], [ -87.197132, 36.570769 ], [ -87.196092, 36.570648 ], [ -87.192397, 36.57022 ], [ -87.191959, 36.570164 ], [ -87.191413, 36.570133 ], [ -87.191083, 36.570139 ], [ -87.190739, 36.57018 ], [ -87.190169, 36.570266 ], [ -87.189168, 36.570419 ], [ -87.187569, 36.570665 ], [ -87.186813, 36.570803 ], [ -87.186584, 36.57084 ], [ -87.186343, 36.570879 ], [ -87.185621, 36.570995 ], [ -87.185381, 36.571035 ], [ -87.184116, 36.571247 ], [ -87.183342, 36.571365 ], [ -87.18097, 36.571728 ], [ -87.180629, 36.571804 ], [ -87.18029, 36.571925 ], [ -87.179195, 36.572437 ], [ -87.178484, 36.572744 ], [ -87.177456, 36.573147 ], [ -87.17708, 36.573296 ], [ -87.175976, 36.573762 ], [ -87.175536, 36.573904 ], [ -87.175491, 36.573917 ], [ -87.174605, 36.574021 ], [ -87.172935, 36.57422 ], [ -87.172693, 36.574268 ], [ -87.171837, 36.574493 ], [ -87.171567, 36.574565 ], [ -87.170924, 36.574709 ], [ -87.170299, 36.574806 ], [ -87.169642, 36.574885 ], [ -87.169154, 36.574945 ], [ -87.168937, 36.574985 ], [ -87.168528, 36.575085 ], [ -87.167971, 36.575251 ], [ -87.16746, 36.575442 ], [ -87.167116, 36.57558 ], [ -87.166575, 36.575742 ], [ -87.166045, 36.57586 ], [ -87.165904, 36.575882 ], [ -87.165072, 36.576016 ], [ -87.164624, 36.576069 ], [ -87.164604, 36.576069 ], [ -87.164545, 36.576072 ], [ -87.164526, 36.576074 ], [ -87.164246, 36.57609 ], [ -87.164202, 36.57609 ], [ -87.163601, 36.576103 ], [ -87.16323, 36.5761 ], [ -87.162906, 36.576099 ], [ -87.1627, 36.576098 ], [ -87.160971, 36.576098 ], [ -87.160582, 36.576099 ], [ -87.160243, 36.576113 ], [ -87.160083, 36.576128 ], [ -87.160011, 36.576135 ], [ -87.159236, 36.576291 ], [ -87.158586, 36.576432 ], [ -87.156849, 36.576811 ], [ -87.155545, 36.577045 ], [ -87.155264, 36.577074 ], [ -87.155121, 36.57709 ], [ -87.154626, 36.577116 ], [ -87.153332, 36.577141 ], [ -87.153336, 36.577206 ], [ -87.153351, 36.577349 ], [ -87.153438, 36.577651 ], [ -87.15387, 36.578862 ], [ -87.153924, 36.579004 ], [ -87.153972, 36.579131 ], [ -87.153978, 36.579146 ], [ -87.154143, 36.579575 ], [ -87.154165, 36.579619 ], [ -87.153876, 36.57969 ], [ -87.152511, 36.579913 ], [ -87.152128, 36.579979 ], [ -87.151444, 36.580083 ], [ -87.150774, 36.580186 ], [ -87.150252, 36.580253 ], [ -87.150052, 36.580278 ], [ -87.148986, 36.5804 ], [ -87.148498, 36.580444 ], [ -87.148161, 36.580456 ], [ -87.148057, 36.580454 ], [ -87.147411, 36.580436 ], [ -87.147015, 36.580435 ], [ -87.14673, 36.58045 ], [ -87.146284, 36.58052 ], [ -87.145996, 36.58059 ], [ -87.145745, 36.580673 ], [ -87.145433, 36.580819 ], [ -87.145146, 36.580998 ], [ -87.144822, 36.581233 ], [ -87.144606, 36.581443 ], [ -87.144391, 36.581688 ], [ -87.144036, 36.582117 ], [ -87.143874, 36.582328 ], [ -87.143752, 36.582489 ], [ -87.143618, 36.582682 ], [ -87.14349, 36.582914 ], [ -87.143368, 36.583218 ], [ -87.143142, 36.583714 ], [ -87.14299, 36.583974 ], [ -87.142766, 36.584279 ], [ -87.142664, 36.584411 ], [ -87.142443, 36.584617 ], [ -87.142413, 36.584641 ], [ -87.142245, 36.584747 ], [ -87.14213, 36.584795 ], [ -87.141906, 36.584851 ], [ -87.141442, 36.584924 ], [ -87.141305, 36.584946 ], [ -87.138522, 36.585322 ], [ -87.138398, 36.58533 ], [ -87.138107, 36.58535 ], [ -87.137822, 36.585342 ], [ -87.137378, 36.585299 ], [ -87.136806, 36.585244 ], [ -87.136366, 36.585197 ], [ -87.134042, 36.584949 ], [ -87.133332, 36.584879 ], [ -87.132321, 36.58478 ], [ -87.132052, 36.584754 ], [ -87.131427, 36.584699 ], [ -87.130299, 36.5846 ], [ -87.128898, 36.584456 ], [ -87.128749, 36.584444 ], [ -87.128127, 36.584396 ], [ -87.127856, 36.584364 ], [ -87.127623, 36.585575 ], [ -87.127548, 36.585968 ], [ -87.127222, 36.587564 ], [ -87.126879, 36.589185 ], [ -87.126873, 36.589201 ], [ -87.126795, 36.589429 ], [ -87.126724, 36.589554 ], [ -87.126675, 36.589615 ], [ -87.126503, 36.589759 ], [ -87.126422, 36.589815 ], [ -87.126188, 36.58994 ], [ -87.12601, 36.589983 ], [ -87.129755, 36.572283 ], [ -87.129777, 36.572295 ], [ -87.129784759990329, 36.572295236954467 ], [ -87.130780377584358, 36.572704616486462 ], [ -87.13089, 36.572764 ], [ -87.131778, 36.573116 ], [ -87.131849, 36.573144 ], [ -87.132407, 36.573266 ], [ -87.132943, 36.57324 ], [ -87.133103, 36.573269 ], [ -87.133427, 36.573024 ], [ -87.133632, 36.57279 ], [ -87.133995, 36.572101 ], [ -87.134179, 36.571551 ], [ -87.134335, 36.570564 ], [ -87.134226, 36.569679 ], [ -87.134081, 36.569013 ], [ -87.133789, 36.568454 ], [ -87.133702099510401, 36.568316177184407 ], [ -87.132726, 36.566521 ], [ -87.132522, 36.56372 ], [ -87.133346, 36.562763 ], [ -87.134583, 36.562641 ], [ -87.136828, 36.563124 ], [ -87.138069491743153, 36.563662218033897 ], [ -87.138646, 36.564031 ], [ -87.139176, 36.564297 ], [ -87.140389, 36.564696 ], [ -87.140844, 36.564922 ], [ -87.140968, 36.564966 ], [ -87.14158, 36.565184 ], [ -87.142201150896994, 36.565669531796345 ], [ -87.143132, 36.566557 ], [ -87.144053, 36.567117 ], [ -87.145548, 36.567689 ], [ -87.147965, 36.568537 ], [ -87.148638, 36.56873 ], [ -87.14913, 36.568752 ], [ -87.149348, 36.568712 ], [ -87.149618, 36.568587 ], [ -87.149986, 36.568234 ], [ -87.150233, 36.567702 ], [ -87.150371, 36.566824 ], [ -87.150341, 36.565257 ], [ -87.150145, 36.56435 ], [ -87.150004, 36.564016 ], [ -87.14945, 36.563605 ], [ -87.149161, 36.563438 ], [ -87.148663, 36.563279 ], [ -87.14779, 36.563109 ], [ -87.14631, 36.563053 ], [ -87.14506, 36.56315 ], [ -87.141954, 36.563629 ], [ -87.140355, 36.562779 ], [ -87.139526, 36.56252 ], [ -87.139485239554105, 36.562517171131915 ], [ -87.13796, 36.562058 ], [ -87.137812443326908, 36.561651215328624 ], [ -87.137813, 36.561627 ], [ -87.137774753263784, 36.56154731050183 ], [ -87.137088, 36.559654 ], [ -87.137368, 36.55855 ], [ -87.139751, 36.556578 ], [ -87.139962640912131, 36.556345019327061 ], [ -87.14032, 36.556077 ], [ -87.140651463081582, 36.555586730402979 ], [ -87.141268, 36.554908 ], [ -87.141996, 36.554723 ] ] ] } }
]
}
