{
"type": "FeatureCollection",
"name": "precinct",
"crs": { "type": "name", "properties": { "name": "urn:ogc:def:crs:OGC:1.3:CRS84" } },
"features": [
{ "type": "Feature", "properties": { "precinct_key": "MONTGOMERY - 006471", "name20": "Montgomery - 006471", "county_norm": "MONTGOMERY", "prec_id": "006471" }, "geometry": { "type": "Polygon", "coordinates": [ [ [ -87.272539, 36.588055 ], [ -87.265048, 36.579481 ], [ -87.260298, 36.574104 ], [ -87.258008, 36.571123 ], [ -87.256513, 36.56862 ], [ -87.250145, 36.555935 ], [ -87.24769, 36.550987 ], [ -87.246521, 36.549038 ], [ -87.242912, 36.54565 ], [ -87.240191, 36.541488 ], [ -87.240178, 36.541466 ], [ -87.240117, 36.541357 ], [ -87.239986, 36.541496 ], [ -87.239889, 36.541496 ], [ -87.239428, 36.541527 ], [ -87.238535, 36.541588 ], [ -87.238369, 36.541599 ], [ -87.23781, 36.541492 ], [ -87.237585, 36.541451 ], [ -87.236902, 36.541456 ], [ -87.236855, 36.541471 ], [ -87.236371, 36.541464 ], [ -87.23241, 36.541664 ], [ -87.228975, 36.541644 ], [ -87.22618, 36.541324 ], [ -87.224112, 36.541088 ], [ -87.220722, 36.541662 ], [ -87.219012, 36.542477 ], [ -87.218029, 36.544989 ], [ -87.218024, 36.548663 ], [ -87.218766, 36.550378 ], [ -87.219059, 36.5526 ], [ -87.217499, 36.554418 ], [ -87.216163, 36.554696 ], [ -87.214791, 36.553748 ], [ -87.213448, 36.551156 ], [ -87.212112, 36.547859 ], [ -87.210714, 36.546532 ], [ -87.206181, 36.544626 ], [ -87.203451, 36.544843 ], [ -87.201774, 36.546032 ], [ -87.20065, 36.548198 ], [ -87.201971, 36.550197 ], [ -87.208201, 36.554466 ], [ -87.209438, 36.555909 ], [ -87.208462, 36.55698 ], [ -87.206528, 36.557607 ], [ -87.205039, 36.558648 ], [ -87.203378, 36.559216 ], [ -87.201043, 36.560543 ], [ -87.199225, 36.561224 ], [ -87.197438, 36.561192 ], [ -87.195731, 36.561173 ], [ -87.193274, 36.56002 ], [ -87.192579, 36.557196 ], [ -87.190485, 36.554755 ], [ -87.188704, 36.553528 ], [ -87.187004, 36.553082 ], [ -87.184414, 36.553414 ], [ -87.182837, 36.55449 ], [ -87.18313, 36.559201 ], [ -87.182371, 36.56042 ], [ -87.180997, 36.561156 ], [ -87.178296, 36.563272 ], [ -87.177641, 36.565708 ], [ -87.176756, 36.566524 ], [ -87.176094, 36.569021 ], [ -87.175135, 36.570747 ], [ -87.172935, 36.572069 ], [ -87.170597, 36.57114 ], [ -87.169705, 36.567405 ], [ -87.16878, 36.565574 ], [ -87.166987, 36.565338 ], [ -87.161944, 36.566202 ], [ -87.158358, 36.566037 ], [ -87.156854, 36.565836 ], [ -87.154803, 36.564647 ], [ -87.153082, 36.562471 ], [ -87.152336, 36.560512 ], [ -87.153242, 36.558667 ], [ -87.155904, 36.55805 ], [ -87.157738, 36.556937 ], [ -87.160437, 36.556879 ], [ -87.164378, 36.555905 ], [ -87.16688, 36.554242 ], [ -87.167157, 36.553017 ], [ -87.163564, 36.550766 ], [ -87.161994, 36.550345 ], [ -87.159527, 36.550708 ], [ -87.152357, 36.55674 ], [ -87.149964, 36.557506 ], [ -87.148161, 36.557098 ], [ -87.146845, 36.555844 ], [ -87.145034, 36.554876 ], [ -87.141996, 36.554723 ], [ -87.141268, 36.554908 ], [ -87.139751, 36.556578 ], [ -87.137368, 36.55855 ], [ -87.137088, 36.559654 ], [ -87.13796, 36.562058 ], [ -87.140355, 36.562779 ], [ -87.141954, 36.563629 ], [ -87.14506, 36.56315 ], [ -87.14779, 36.563109 ], [ -87.150004, 36.564016 ], [ -87.150341, 36.565257 ], [ -87.150233, 36.567702 ], [ -87.149618, 36.568587 ], [ -87.147965, 36.568537 ], [ -87.144053, 36.567117 ], [ -87.14158, 36.565184 ], [ -87.136828, 36.563124 ], [ -87.134583, 36.562641 ], [ -87.133346, 36.562763 ], [ -87.132522, 36.56372 ], [ -87.132726, 36.566521 ], [ -87.134081, 36.569013 ], [ -87.134335, 36.570564 ], [ -87.133632, 36.57279 ], [ -87.131849, 36.573144 ], [ -87.129755, 36.572283 ], [ -87.12601, 36.589983 ], [ -87.122028, 36.609369 ], [ -87.121129, 36.612937 ], [ -87.121043, 36.613313 ], [ -87.12099, 36.613544 ], [ -87.131292, 36.621995 ], [ -87.126757, 36.621601 ], [ -87.126517, 36.625044 ], [ -87.125932, 36.628989 ], [ -87.125001, 36.629051 ], [ -87.117437, 36.628118 ], [ -87.114983, 36.642371 ], [ -87.12991, 36.642221 ], [ -87.155792, 36.642112 ], [ -87.159651, 36.642098 ], [ -87.167997, 36.642062 ], [ -87.172343, 36.642044 ], [ -87.197882, 36.641937 ], [ -87.20356, 36.641913 ], [ -87.212793, 36.641875 ], [ -87.248362, 36.641725 ], [ -87.264568, 36.641741 ], [ -87.275209, 36.64176 ], [ -87.281491, 36.64177 ], [ -87.285582, 36.641769 ], [ -87.294815, 36.641744 ], [ -87.300909, 36.641725 ], [ -87.314919, 36.641683 ], [ -87.315801, 36.636964 ], [ -87.316383, 36.633538 ], [ -87.316897, 36.630415 ], [ -87.316995, 36.629826 ], [ -87.317668, 36.625764 ], [ -87.317863, 36.624598 ], [ -87.318798, 36.619619 ], [ -87.310662, 36.618774 ], [ -87.304257, 36.618213 ], [ -87.301959, 36.618311 ], [ -87.298948, 36.617991 ], [ -87.298809, 36.617834 ], [ -87.294866, 36.613371 ], [ -87.287383, 36.604882 ], [ -87.282852, 36.599747 ], [ -87.282771, 36.599656 ], [ -87.272539, 36.588055 ] ] ] } }
]
}
