{
"type": "FeatureCollection",
"name": "intersection_pieces",
"crs": { "type": "name", "properties": { "name": "urn:ogc:def:crs:OGC:1.3:CRS84" } },
"features": [
{ "type": "Feature", "properties": { "precinct_key": "DAVIDSON - 001898", "name20": "Davidson - 001898", "county_norm": "DAVIDSON", "prec_id": "001898", "district_num": "6", "area_weight": 0.5214347052135202, "geometry_status": "dominant", "suggested_action": "manual_split_review" }, "geometry": { "type": "Polygon", "coordinates": [ [ [ -86.868185, 36.163892 ], [ -86.866498, 36.160667 ], [ -86.866279, 36.160174 ], [ -86.865676, 36.159336 ], [ -86.864548, 36.158716 ], [ -86.861628, 36.157829 ], [ -86.859343, 36.156981 ], [ -86.858659, 36.156585 ], [ -86.858186, 36.156176 ], [ -86.857425, 36.155025 ], [ -86.857526, 36.153929 ], [ -86.857671, 36.152446 ], [ -86.857684, 36.152272 ], [ -86.857847, 36.150709 ], [ -86.857953, 36.150156 ], [ -86.857909, 36.14892 ], [ -86.8579, 36.148421 ], [ -86.857968, 36.145007 ], [ -86.857729, 36.143291 ], [ -86.857427, 36.14138 ], [ -86.857382, 36.139538 ], [ -86.858642, 36.139665 ], [ -86.860105, 36.139624 ], [ -86.861228, 36.13819 ], [ -86.86337, 36.138428 ], [ -86.866672, 36.138145 ], [ -86.869339, 36.137586 ], [ -86.871659, 36.13771 ], [ -86.873935, 36.136915 ], [ -86.875441, 36.137349 ], [ -86.87799, 36.138894 ], [ -86.87923, 36.140147 ], [ -86.880561075866453, 36.13907055608442 ], [ -86.880568061431006, 36.139075827385973 ], [ -86.881234061660493, 36.13966382747379 ], [ -86.881351061700769, 36.139766827489275 ], [ -86.882545062094479, 36.140554827593739 ], [ -86.883277062332937, 36.14099482764918 ], [ -86.883476062397207, 36.141105827662557 ], [ -86.884118062604557, 36.141463827705678 ], [ -86.884259062649036, 36.141526827712077 ], [ -86.884407062693569, 36.141559827712051 ], [ -86.884854062828069, 36.141661827712859 ], [ -86.88500306287294, 36.141695827713086 ], [ -86.885218062937071, 36.141735827711713 ], [ -86.884347062730484, 36.142372827876429 ], [ -86.881163061976793, 36.144724828483604 ], [ -86.879329061543189, 36.146087828834894 ], [ -86.878461061339522, 36.146755829005834 ], [ -86.877986061225357, 36.147081829091384 ], [ -86.877492061107958, 36.14743982918425 ], [ -86.87721506104063, 36.147617829231741 ], [ -86.876519060870592, 36.148052829348778 ], [ -86.876101060766914, 36.148289829414168 ], [ -86.875628060648253, 36.148538829484373 ], [ -86.875124060520591, 36.148785829555578 ], [ -86.875002060489635, 36.148844829572639 ], [ -86.874940060473961, 36.148875829581499 ], [ -86.874626060392572, 36.149001829620332 ], [ -86.874501060360259, 36.149052829635941 ], [ -86.874752060453432, 36.149374829688988 ], [ -86.874809060474576, 36.149447829701025 ], [ -86.874910060508583, 36.149524829711936 ], [ -86.875005060539593, 36.149582829719279 ], [ -86.875196060598071, 36.149641829722647 ], [ -86.875828060798511, 36.149937829753839 ], [ -86.876199060916178, 36.150112829772461 ], [ -86.876213060920691, 36.150119829773196 ], [ -86.876397060980977, 36.150235829788308 ], [ -86.876450060998309, 36.150268829792516 ], [ -86.876578061041116, 36.150361829805362 ], [ -86.876748061099562, 36.150510829827574 ], [ -86.87692106116144, 36.150696829857011 ], [ -86.876937061167155, 36.150713829859676 ], [ -86.876985061187469, 36.150812829877253 ], [ -86.876964061188048, 36.150911829897893 ], [ -86.877047061212181, 36.150917829895441 ], [ -86.877298061285117, 36.150935829888034 ], [ -86.877382061309547, 36.150941829885561 ], [ -86.877379061313235, 36.15101082989942 ], [ -86.877380061319599, 36.151101829917451 ], [ -86.877408061334251, 36.151201829936092 ], [ -86.877466061357566, 36.151302829953643 ], [ -86.877530061380767, 36.151376829965542 ], [ -86.877599061403885, 36.151427829972739 ], [ -86.877646061424969, 36.151542829993566 ], [ -86.877734061453864, 36.151598830000758 ], [ -86.878030061545857, 36.151709830009949 ], [ -86.878494061685245, 36.151810830009659 ], [ -86.878623061731588, 36.1519528300323 ], [ -86.878815061795635, 36.152090830051399 ], [ -86.879025061865207, 36.15223383007055 ], [ -86.879111061901284, 36.152406830101242 ], [ -86.879300061990733, 36.152938830198771 ], [ -86.879357062015984, 36.153073830223128 ], [ -86.87941206204043, 36.153204830246686 ], [ -86.879540062086875, 36.153352830270521 ], [ -86.879657062126753, 36.153448830284503 ], [ -86.879713062146507, 36.153505830293447 ], [ -86.879775062168392, 36.153567830303089 ], [ -86.879882062204629, 36.153652830315302 ], [ -86.879755062177438, 36.153789830348096 ], [ -86.879560062135837, 36.154002830398959 ], [ -86.879483062119448, 36.154086830419033 ], [ -86.879268062074928, 36.154341830479154 ], [ -86.879218062064666, 36.15440183049332 ], [ -86.879069062029274, 36.15450983052127 ], [ -86.878938061998383, 36.154608830546707 ], [ -86.878786061959048, 36.154670830565692 ], [ -86.878654061922774, 36.154692830575868 ], [ -86.878437061860666, 36.154691830585065 ], [ -86.878325061828662, 36.154691830589996 ], [ -86.878104061765043, 36.154684830598313 ], [ -86.878101061765946, 36.154710830603584 ], [ -86.878066061763505, 36.154824830627767 ], [ -86.877688061718175, 36.155767830831891 ], [ -86.877261061695549, 36.157261831147672 ], [ -86.877105061684105, 36.157759831253493 ], [ -86.877041061677843, 36.157940831292379 ], [ -86.877016061679356, 36.158070831319243 ], [ -86.877000061682352, 36.158183831342434 ], [ -86.876937061669992, 36.158268831362044 ], [ -86.876546061593643, 36.158801831485228 ], [ -86.876416061568378, 36.158979831526288 ], [ -86.876350061555797, 36.159073831547865 ], [ -86.876166061520962, 36.159340831609008 ], [ -86.87615306151821, 36.159355831612586 ], [ -86.876082061503979, 36.159446831633737 ], [ -86.876046061496126, 36.159483831642675 ], [ -86.875940061473386, 36.159596831669795 ], [ -86.875915061469186, 36.159641831679835 ], [ -86.875660061419339, 36.159987831759821 ], [ -86.875504061388853, 36.160199831808782 ], [ -86.874917061277102, 36.161041832001985 ], [ -86.874672061230555, 36.161394832082799 ], [ -86.874550061206904, 36.161562832121533 ], [ -86.874540061204684, 36.161572832123987 ], [ -86.874339061161791, 36.161791832176363 ], [ -86.874104061105825, 36.161959832219992 ], [ -86.874031061087408, 36.161996832230592 ], [ -86.873949061066867, 36.16204083224293 ], [ -86.873891061052205, 36.162068832251038 ], [ -86.873833061037445, 36.162096832259131 ], [ -86.873710061007515, 36.162175832280234 ], [ -86.873587060977627, 36.162254832301308 ], [ -86.873297060903042, 36.162379832338871 ], [ -86.8732820608992, 36.162386832340914 ], [ -86.87315306086505, 36.162426832354527 ], [ -86.873133060859701, 36.162432832356572 ], [ -86.873075060844243, 36.162449832362512 ], [ -86.873056060839261, 36.162456832364697 ], [ -86.872929060805248, 36.162490832377067 ], [ -86.872547060702829, 36.162592832414099 ], [ -86.872421060669112, 36.162627832426544 ], [ -86.871780060498722, 36.162820832493018 ], [ -86.86986005998844, 36.16340183269255 ], [ -86.869220059818403, 36.163595832759157 ], [ -86.869020059765091, 36.163653832779531 ], [ -86.868820059711808, 36.163712832799938 ], [ -86.868550059639873, 36.163791832827506 ], [ -86.868395059598569, 36.163836832843252 ], [ -86.868370059591953, 36.163844832845953 ], [ -86.868280059568022, 36.163871832855222 ], [ -86.868190059544077, 36.163898832864504 ], [ -86.868188791137172, 36.163899209424088 ], [ -86.868185, 36.163892 ] ] ] } },
{ "type": "Feature", "properties": { "precinct_key": "DAVIDSON - 001898", "name20": "Davidson - 001898", "county_norm": "DAVIDSON", "prec_id": "001898", "district_num": "7", "area_weight": 0.47856529478648119, "geometry_status": "real_secondary", "suggested_action": "manual_split_review" }, "geometry": { "type": "Polygon", "coordinates": [ [ [ -86.880563, 36.139069 ], [ -86.881246, 36.13853 ], [ -86.883524, 36.136766 ], [ -86.885229, 36.13579 ], [ -86.888073, 36.134712 ], [ -86.888792, 36.134422 ], [ -86.890211, 36.133856 ], [ -86.895614, 36.131882 ], [ -86.895948, 36.131778 ], [ -86.896737, 36.13147 ], [ -86.898479, 36.130826 ], [ -86.898912, 36.130656 ], [ -86.899104, 36.130596 ], [ -86.90029, 36.130758 ], [ -86.903971, 36.135198 ], [ -86.8952, 36.139007 ], [ -86.891653, 36.143007 ], [ -86.892075, 36.142932 ], [ -86.891624, 36.143958 ], [ -86.889216, 36.150361 ], [ -86.887768, 36.158698 ], [ -86.888741, 36.162835 ], [ -86.889276, 36.163903 ], [ -86.888269, 36.164143 ], [ -86.885248, 36.162601 ], [ -86.883216, 36.162786 ], [ -86.881604, 36.163795 ], [ -86.880971, 36.166015 ], [ -86.879792, 36.167003 ], [ -86.879738, 36.168689 ], [ -86.878066, 36.168422 ], [ -86.875503, 36.168585 ], [ -86.876523, 36.167906 ], [ -86.875984, 36.167208 ], [ -86.87386, 36.16757 ], [ -86.871905, 36.166734 ], [ -86.870291, 36.165046 ], [ -86.868658, 36.164371 ], [ -86.868644, 36.164373 ], [ -86.86863, 36.164375 ], [ -86.868563, 36.164368 ], [ -86.868429, 36.164356 ], [ -86.868188791137172, 36.163899209424088 ], [ -86.868190059544077, 36.163898832864504 ], [ -86.868280059568022, 36.163871832855222 ], [ -86.868370059591953, 36.163844832845953 ], [ -86.868395059598569, 36.163836832843252 ], [ -86.868550059639873, 36.163791832827506 ], [ -86.868820059711808, 36.163712832799938 ], [ -86.869020059765091, 36.163653832779531 ], [ -86.869220059818403, 36.163595832759157 ], [ -86.86986005998844, 36.16340183269255 ], [ -86.871780060498722, 36.162820832493018 ], [ -86.872421060669112, 36.162627832426544 ], [ -86.872547060702829, 36.162592832414099 ], [ -86.872929060805248, 36.162490832377067 ], [ -86.873056060839261, 36.162456832364697 ], [ -86.873075060844243, 36.162449832362512 ], [ -86.873133060859701, 36.162432832356572 ], [ -86.87315306086505, 36.162426832354527 ], [ -86.8732820608992, 36.162386832340914 ], [ -86.873297060903042, 36.162379832338871 ], [ -86.873587060977627, 36.162254832301308 ], [ -86.873710061007515, 36.162175832280234 ], [ -86.873833061037445, 36.162096832259131 ], [ -86.873891061052205, 36.162068832251038 ], [ -86.873949061066867, 36.16204083224293 ], [ -86.874031061087408, 36.161996832230592 ], [ -86.874104061105825, 36.161959832219992 ], [ -86.874339061161791, 36.161791832176363 ], [ -86.874540061204684, 36.161572832123987 ], [ -86.874550061206904, 36.161562832121533 ], [ -86.874672061230555, 36.161394832082799 ], [ -86.874917061277102, 36.161041832001985 ], [ -86.875504061388853, 36.160199831808782 ], [ -86.875660061419339, 36.159987831759821 ], [ -86.875915061469186, 36.159641831679835 ], [ -86.875940061473386, 36.159596831669795 ], [ -86.876046061496126, 36.159483831642675 ], [ -86.876082061503979, 36.159446831633737 ], [ -86.87615306151821, 36.159355831612586 ], [ -86.876166061520962, 36.159340831609008 ], [ -86.876350061555797, 36.159073831547865 ], [ -86.876416061568378, 36.158979831526288 ], [ -86.876546061593643, 36.158801831485228 ], [ -86.876937061669992, 36.158268831362044 ], [ -86.877000061682352, 36.158183831342434 ], [ -86.877016061679356, 36.158070831319243 ], [ -86.877041061677843, 36.157940831292379 ], [ -86.877105061684105, 36.157759831253493 ], [ -86.877261061695549, 36.157261831147672 ], [ -86.877688061718175, 36.155767830831891 ], [ -86.878066061763505, 36.154824830627767 ], [ -86.878101061765946, 36.154710830603584 ], [ -86.878104061765043, 36.154684830598313 ], [ -86.878325061828662, 36.154691830589996 ], [ -86.878437061860666, 36.154691830585065 ], [ -86.878654061922774, 36.154692830575868 ], [ -86.878786061959048, 36.154670830565692 ], [ -86.878938061998383, 36.154608830546707 ], [ -86.879069062029274, 36.15450983052127 ], [ -86.879218062064666, 36.15440183049332 ], [ -86.879268062074928, 36.154341830479154 ], [ -86.879483062119448, 36.154086830419033 ], [ -86.879560062135837, 36.154002830398959 ], [ -86.879755062177438, 36.153789830348096 ], [ -86.879882062204629, 36.153652830315302 ], [ -86.879775062168392, 36.153567830303089 ], [ -86.879713062146507, 36.153505830293447 ], [ -86.879657062126753, 36.153448830284503 ], [ -86.879540062086875, 36.153352830270521 ], [ -86.87941206204043, 36.153204830246686 ], [ -86.879357062015984, 36.153073830223128 ], [ -86.879300061990733, 36.152938830198771 ], [ -86.879111061901284, 36.152406830101242 ], [ -86.879025061865207, 36.15223383007055 ], [ -86.878815061795635, 36.152090830051399 ], [ -86.878623061731588, 36.1519528300323 ], [ -86.878494061685245, 36.151810830009659 ], [ -86.878030061545857, 36.151709830009949 ], [ -86.877734061453864, 36.151598830000758 ], [ -86.877646061424969, 36.151542829993566 ], [ -86.877599061403885, 36.151427829972739 ], [ -86.877530061380767, 36.151376829965542 ], [ -86.877466061357566, 36.151302829953643 ], [ -86.877408061334251, 36.151201829936092 ], [ -86.877380061319599, 36.151101829917451 ], [ -86.877379061313235, 36.15101082989942 ], [ -86.877382061309547, 36.150941829885561 ], [ -86.877298061285117, 36.150935829888034 ], [ -86.877047061212181, 36.150917829895441 ], [ -86.876964061188048, 36.150911829897893 ], [ -86.876985061187469, 36.150812829877253 ], [ -86.876937061167155, 36.150713829859676 ], [ -86.87692106116144, 36.150696829857011 ], [ -86.876748061099562, 36.150510829827574 ], [ -86.876578061041116, 36.150361829805362 ], [ -86.876450060998309, 36.150268829792516 ], [ -86.876397060980977, 36.150235829788308 ], [ -86.876213060920691, 36.150119829773196 ], [ -86.876199060916178, 36.150112829772461 ], [ -86.875828060798511, 36.149937829753839 ], [ -86.875196060598071, 36.149641829722647 ], [ -86.875005060539593, 36.149582829719279 ], [ -86.874910060508583, 36.149524829711936 ], [ -86.874809060474576, 36.149447829701025 ], [ -86.874752060453432, 36.149374829688988 ], [ -86.874501060360259, 36.149052829635941 ], [ -86.874626060392572, 36.149001829620332 ], [ -86.874940060473961, 36.148875829581499 ], [ -86.875002060489635, 36.148844829572639 ], [ -86.875124060520591, 36.148785829555578 ], [ -86.875628060648253, 36.148538829484373 ], [ -86.876101060766914, 36.148289829414168 ], [ -86.876519060870592, 36.148052829348778 ], [ -86.87721506104063, 36.147617829231741 ], [ -86.877492061107958, 36.14743982918425 ], [ -86.877986061225357, 36.147081829091384 ], [ -86.878461061339522, 36.146755829005834 ], [ -86.879329061543189, 36.146087828834894 ], [ -86.881163061976793, 36.144724828483604 ], [ -86.884347062730484, 36.142372827876429 ], [ -86.885218062937071, 36.141735827711713 ], [ -86.88500306287294, 36.141695827713086 ], [ -86.884854062828069, 36.141661827712859 ], [ -86.884407062693569, 36.141559827712051 ], [ -86.884259062649036, 36.141526827712077 ], [ -86.884118062604557, 36.141463827705678 ], [ -86.883476062397207, 36.141105827662557 ], [ -86.883277062332937, 36.14099482764918 ], [ -86.882545062094479, 36.140554827593739 ], [ -86.881351061700769, 36.139766827489275 ], [ -86.881234061660493, 36.13966382747379 ], [ -86.880568061431006, 36.139075827385973 ], [ -86.880561075866453, 36.13907055608442 ], [ -86.880563, 36.139069 ] ] ] } }
]
}
