{
"type": "FeatureCollection",
"name": "precinct",
"crs": { "type": "name", "properties": { "name": "urn:ogc:def:crs:OGC:1.3:CRS84" } },
"features": [
{ "type": "Feature", "properties": { "precinct_key": "DAVIDSON - 001898", "name20": "Davidson - 001898", "county_norm": "DAVIDSON", "prec_id": "001898" }, "geometry": { "type": "Polygon", "coordinates": [ [ [ -86.857968, 36.145007 ], [ -86.8579, 36.148421 ], [ -86.857909, 36.14892 ], [ -86.857953, 36.150156 ], [ -86.857847, 36.150709 ], [ -86.857684, 36.152272 ], [ -86.857671, 36.152446 ], [ -86.857526, 36.153929 ], [ -86.857425, 36.155025 ], [ -86.858186, 36.156176 ], [ -86.858659, 36.156585 ], [ -86.859343, 36.156981 ], [ -86.861628, 36.157829 ], [ -86.864548, 36.158716 ], [ -86.865676, 36.159336 ], [ -86.866279, 36.160174 ], [ -86.866498, 36.160667 ], [ -86.868185, 36.163892 ], [ -86.868429, 36.164356 ], [ -86.868563, 36.164368 ], [ -86.86863, 36.164375 ], [ -86.868644, 36.164373 ], [ -86.868658, 36.164371 ], [ -86.870291, 36.165046 ], [ -86.871905, 36.166734 ], [ -86.87386, 36.16757 ], [ -86.875984, 36.167208 ], [ -86.876523, 36.167906 ], [ -86.875503, 36.168585 ], [ -86.878066, 36.168422 ], [ -86.879738, 36.168689 ], [ -86.879792, 36.167003 ], [ -86.880971, 36.166015 ], [ -86.881604, 36.163795 ], [ -86.883216, 36.162786 ], [ -86.885248, 36.162601 ], [ -86.888269, 36.164143 ], [ -86.889276, 36.163903 ], [ -86.888741, 36.162835 ], [ -86.887768, 36.158698 ], [ -86.889216, 36.150361 ], [ -86.891624, 36.143958 ], [ -86.892075, 36.142932 ], [ -86.891653, 36.143007 ], [ -86.8952, 36.139007 ], [ -86.903971, 36.135198 ], [ -86.90029, 36.130758 ], [ -86.899104, 36.130596 ], [ -86.898912, 36.130656 ], [ -86.898479, 36.130826 ], [ -86.896737, 36.13147 ], [ -86.895948, 36.131778 ], [ -86.895614, 36.131882 ], [ -86.890211, 36.133856 ], [ -86.888792, 36.134422 ], [ -86.888073, 36.134712 ], [ -86.885229, 36.13579 ], [ -86.883524, 36.136766 ], [ -86.881246, 36.13853 ], [ -86.880563, 36.139069 ], [ -86.87923, 36.140147 ], [ -86.87799, 36.138894 ], [ -86.875441, 36.137349 ], [ -86.873935, 36.136915 ], [ -86.871659, 36.13771 ], [ -86.869339, 36.137586 ], [ -86.866672, 36.138145 ], [ -86.86337, 36.138428 ], [ -86.861228, 36.13819 ], [ -86.860105, 36.139624 ], [ -86.858642, 36.139665 ], [ -86.857382, 36.139538 ], [ -86.857427, 36.14138 ], [ -86.857729, 36.143291 ], [ -86.857968, 36.145007 ] ] ] } }
]
}
