{
"type": "FeatureCollection",
"name": "intersection_pieces",
"crs": { "type": "name", "properties": { "name": "urn:ogc:def:crs:OGC:1.3:CRS84" } },
"features": [
{ "type": "Feature", "properties": { "precinct_key": "SHELBY - 008141", "name20": "Shelby - 008141", "county_norm": "SHELBY", "prec_id": "008141", "district_num": "97", "area_weight": 0.42943964570261917, "geometry_status": "real_secondary", "suggested_action": "manual_split_review" }, "geometry": { "type": "GeometryCollection", "geometries": [ { "type": "Polygon", "coordinates": [ [ [ -89.903167, 35.100511 ], [ -89.903428, 35.100515 ], [ -89.904211, 35.100529 ], [ -89.904473, 35.100534 ], [ -89.904689, 35.10054 ], [ -89.905337, 35.100558 ], [ -89.905554, 35.100564 ], [ -89.905768, 35.100571 ], [ -89.906412, 35.100592 ], [ -89.906627, 35.1006 ], [ -89.90685, 35.100602 ], [ -89.907519, 35.100608 ], [ -89.907543, 35.100609 ], [ -89.907743, 35.1006 ], [ -89.907791, 35.100593 ], [ -89.907956, 35.10054 ], [ -89.908449, 35.100385 ], [ -89.908594, 35.100342 ], [ -89.908808, 35.100279 ], [ -89.908988, 35.10028 ], [ -89.90953, 35.100285 ], [ -89.909659, 35.100287 ], [ -89.909711, 35.100288 ], [ -89.909751, 35.100079 ], [ -89.909824, 35.099898 ], [ -89.909958, 35.099673 ], [ -89.910078, 35.099447 ], [ -89.910172, 35.099332 ], [ -89.910332, 35.099025 ], [ -89.910479, 35.09869 ], [ -89.910526, 35.098596 ], [ -89.910593, 35.098415 ], [ -89.910639, 35.098345 ], [ -89.910687, 35.098272 ], [ -89.91076, 35.098113 ], [ -89.910794, 35.098091 ], [ -89.910834, 35.098014 ], [ -89.910907, 35.097932 ], [ -89.911028, 35.097696 ], [ -89.911248, 35.09735 ], [ -89.911288, 35.0973 ], [ -89.911355, 35.097179 ], [ -89.911435, 35.097053 ], [ -89.911469, 35.097037 ], [ -89.911636, 35.096718 ], [ -89.91197, 35.096152 ], [ -89.912037, 35.096065 ], [ -89.912204, 35.095752 ], [ -89.912418, 35.095581 ], [ -89.912512, 35.095477 ], [ -89.912545, 35.09546 ], [ -89.912558, 35.095428 ], [ -89.912599, 35.095411 ], [ -89.912619, 35.095367 ], [ -89.912659, 35.095351 ], [ -89.912826, 35.095186 ], [ -89.912859, 35.095175 ], [ -89.913033, 35.095016 ], [ -89.913187, 35.094917 ], [ -89.913447, 35.094834 ], [ -89.913828, 35.094835 ], [ -89.914129, 35.094906 ], [ -89.914202, 35.094884 ], [ -89.914296, 35.094774 ], [ -89.914436, 35.094522 ], [ -89.91445, 35.0945 ], [ -89.915137, 35.094805 ], [ -89.916047, 35.095209 ], [ -89.91604, 35.095362 ], [ -89.91602, 35.095825 ], [ -89.916014, 35.095979 ], [ -89.916008, 35.09614 ], [ -89.915991, 35.096627 ], [ -89.915986, 35.096789 ], [ -89.915978, 35.09702 ], [ -89.915958, 35.097716 ], [ -89.915952, 35.097948 ], [ -89.915945, 35.098202 ], [ -89.915929, 35.098824 ], [ -89.915924, 35.098967 ], [ -89.915917, 35.099222 ], [ -89.915911, 35.09942 ], [ -89.915898, 35.099906 ], [ -89.915895, 35.100016 ], [ -89.91589, 35.100215 ], [ -89.915884, 35.1004 ], [ -89.915869, 35.100958 ], [ -89.915864, 35.101145 ], [ -89.915858, 35.101328 ], [ -89.915843, 35.101878 ], [ -89.915838, 35.102062 ], [ -89.916623, 35.102082 ], [ -89.91803, 35.10212 ], [ -89.918948, 35.102123 ], [ -89.918979, 35.102124 ], [ -89.919456, 35.102154 ], [ -89.919561, 35.102172 ], [ -89.919753, 35.102232 ], [ -89.919831, 35.102261 ], [ -89.9199, 35.102304 ], [ -89.919969, 35.102348 ], [ -89.920101, 35.102466 ], [ -89.920118, 35.10249 ], [ -89.920206, 35.102611 ], [ -89.920241, 35.102658 ], [ -89.920298, 35.102736 ], [ -89.920319, 35.102802 ], [ -89.920307363154407, 35.103110916246251 ], [ -89.920306, 35.103131 ], [ -89.920292, 35.103364 ], [ -89.920276, 35.103707 ], [ -89.920237, 35.104118 ], [ -89.920207, 35.104447 ], [ -89.920173, 35.104813 ], [ -89.920146, 35.105004 ], [ -89.9201, 35.105351 ], [ -89.920065, 35.10573 ], [ -89.920051, 35.106215 ], [ -89.920067, 35.106378 ], [ -89.920108, 35.106608 ], [ -89.92012, 35.106677 ], [ -89.920153, 35.106856 ], [ -89.920155, 35.107153 ], [ -89.920152, 35.107235 ], [ -89.920605325387569, 35.107247718153715 ], [ -89.920881, 35.107256 ], [ -89.921037305386761, 35.107259835827996 ], [ -89.921471, 35.107272 ], [ -89.922517, 35.107301 ], [ -89.923552, 35.107328 ], [ -89.924122, 35.107344 ], [ -89.924306, 35.10735 ], [ -89.924405, 35.107353 ], [ -89.925773, 35.107383 ], [ -89.926229, 35.107393 ], [ -89.926228, 35.107461 ], [ -89.926222, 35.107857 ], [ -89.926205, 35.109249 ], [ -89.9262, 35.109714 ], [ -89.926171, 35.110364 ], [ -89.926085, 35.112318 ], [ -89.926057, 35.112969 ], [ -89.926033, 35.113521 ], [ -89.926002, 35.114274 ], [ -89.925975, 35.114921 ], [ -89.925975, 35.115178 ], [ -89.925976, 35.115305 ], [ -89.926012, 35.11573 ], [ -89.917616, 35.115539 ], [ -89.915456, 35.115475 ], [ -89.909546, 35.115279 ], [ -89.907436, 35.114931 ], [ -89.907594, 35.112308 ], [ -89.907631, 35.111262 ], [ -89.907862, 35.10691 ], [ -89.904539, 35.106824 ], [ -89.902951, 35.106783 ], [ -89.902952, 35.106752 ], [ -89.902952109916029, 35.106746284370388 ], [ -89.902976, 35.105956 ], [ -89.902982, 35.105737 ], [ -89.902988, 35.10558 ], [ -89.902998, 35.105352 ], [ -89.903005, 35.105133 ], [ -89.903012, 35.104915 ], [ -89.903025, 35.104554 ], [ -89.903069, 35.10333 ], [ -89.903167, 35.100511 ] ] ] }, { "type": "Polygon", "coordinates": [ [ [ -89.925919522556484, 35.119163650020219 ], [ -89.92591, 35.119561 ], [ -89.925907, 35.119715 ], [ -89.9259, 35.119881 ], [ -89.9259, 35.119906 ], [ -89.925895, 35.120113 ], [ -89.925885, 35.120383 ], [ -89.92588, 35.12055 ], [ -89.925877, 35.120602 ], [ -89.925872, 35.120759 ], [ -89.925871, 35.120812 ], [ -89.925864, 35.121 ], [ -89.925847, 35.121565 ], [ -89.925842, 35.121754 ], [ -89.925839766184652, 35.121794208693736 ], [ -89.925919522556484, 35.119163650020219 ] ] ] }, { "type": "Polygon", "coordinates": [ [ [ -89.945412, 35.123197 ], [ -89.945431, 35.122816 ], [ -89.945487, 35.121675 ], [ -89.945507, 35.121295 ], [ -89.945412, 35.123197 ] ] ] }, { "type": "Polygon", "coordinates": [ [ [ -89.945507, 35.121295 ], [ -89.945515, 35.121085 ], [ -89.945516210104444, 35.12105913406824 ], [ -89.945507, 35.121295 ] ] ] }, { "type": "Polygon", "coordinates": [ [ [ -89.945548, 35.120245 ], [ -89.945556, 35.12003 ], [ -89.945582, 35.119385 ], [ -89.945592, 35.119171 ], [ -89.945548, 35.120245 ] ] ] }, { "type": "Polygon", "coordinates": [ [ [ -89.945592, 35.119171 ], [ -89.945602, 35.118897 ], [ -89.945634, 35.118077 ], [ -89.945645, 35.117804 ], [ -89.945592, 35.119171 ] ] ] }, { "type": "Polygon", "coordinates": [ [ [ -89.945645, 35.117804 ], [ -89.945656, 35.11753 ], [ -89.945689, 35.116708 ], [ -89.945701, 35.116435 ], [ -89.945645, 35.117804 ] ] ] }, { "type": "Polygon", "coordinates": [ [ [ -89.945701, 35.116435 ], [ -89.945709, 35.11624 ], [ -89.945736, 35.115657 ], [ -89.945746, 35.115463 ], [ -89.945701, 35.116435 ] ] ] }, { "type": "Point", "coordinates": [ -89.926004, 35.115937 ] }, { "type": "Point", "coordinates": [ -89.925999, 35.116109 ] }, { "type": "Point", "coordinates": [ -89.925993, 35.116529 ] }, { "type": "Point", "coordinates": [ -89.92597, 35.117359 ] }, { "type": "Point", "coordinates": [ -89.925926, 35.11895 ] }, { "type": "Point", "coordinates": [ -89.925814, 35.122644 ] } ] } },
{ "type": "Feature", "properties": { "precinct_key": "SHELBY - 008141", "name20": "Shelby - 008141", "county_norm": "SHELBY", "prec_id": "008141", "district_num": "93", "area_weight": 4.7214863871424179e-06, "geometry_status": "sliver", "suggested_action": "manual_split_review" }, "geometry": { "type": "GeometryCollection", "geometries": [ { "type": "Polygon", "coordinates": [ [ [ -89.945757, 35.115289 ], [ -89.945759, 35.11525 ], [ -89.945766, 35.115135 ], [ -89.945769, 35.115097 ], [ -89.945757, 35.115289 ] ] ] }, { "type": "Polygon", "coordinates": [ [ [ -89.945769, 35.115097 ], [ -89.94578, 35.114775 ], [ -89.945782205307523, 35.114710691117089 ], [ -89.945769, 35.115097 ] ] ] }, { "type": "Polygon", "coordinates": [ [ [ -89.945811081984601, 35.113865916958915 ], [ -89.945812, 35.113809 ], [ -89.945818, 35.113644 ], [ -89.945824, 35.113488 ], [ -89.945811081984601, 35.113865916958915 ] ] ] }, { "type": "Polygon", "coordinates": [ [ [ -89.945824, 35.113488 ], [ -89.945827, 35.113406 ], [ -89.945835, 35.113161 ], [ -89.945839, 35.11308 ], [ -89.945824, 35.113488 ] ] ] }, { "type": "Polygon", "coordinates": [ [ [ -89.945839, 35.11308 ], [ -89.945843, 35.112965 ], [ -89.945858, 35.112619 ], [ -89.945863, 35.112505 ], [ -89.945839, 35.11308 ] ] ] }, { "type": "Polygon", "coordinates": [ [ [ -89.945863, 35.112505 ], [ -89.94587, 35.112305 ], [ -89.945893, 35.111706 ], [ -89.945902, 35.111507 ], [ -89.945863, 35.112505 ] ] ] }, { "type": "Polygon", "coordinates": [ [ [ -89.945902, 35.111507 ], [ -89.945902, 35.111484 ], [ -89.945904, 35.111415 ], [ -89.945905, 35.111393 ], [ -89.945902, 35.111507 ] ] ] }, { "type": "Polygon", "coordinates": [ [ [ -89.945905, 35.111393 ], [ -89.945908, 35.111314 ], [ -89.945917, 35.111077 ], [ -89.94592, 35.110998 ], [ -89.945905, 35.111393 ] ] ] }, { "type": "Polygon", "coordinates": [ [ [ -89.94592, 35.110998 ], [ -89.945927, 35.110802 ], [ -89.945948, 35.110216 ], [ -89.945956, 35.110021 ], [ -89.94592, 35.110998 ] ] ] }, { "type": "Polygon", "coordinates": [ [ [ -89.945956, 35.110021 ], [ -89.945961, 35.109867 ], [ -89.945978, 35.109406 ], [ -89.945985, 35.109253 ], [ -89.945956, 35.110021 ] ] ] }, { "type": "Polygon", "coordinates": [ [ [ -89.945985, 35.109253 ], [ -89.945987, 35.109196 ], [ -89.945994, 35.109027 ], [ -89.945997, 35.108971 ], [ -89.945985, 35.109253 ] ] ] }, { "type": "Polygon", "coordinates": [ [ [ -89.945997, 35.108971 ], [ -89.946006, 35.108753 ], [ -89.946034, 35.108099 ], [ -89.946038856923067, 35.108001167749535 ], [ -89.945997, 35.108971 ] ] ] }, { "type": "LineString", "coordinates": [ [ -89.945746, 35.115463 ], [ -89.945748, 35.115428 ] ] }, { "type": "LineString", "coordinates": [ [ -89.945748, 35.115428 ], [ -89.945754, 35.115323 ] ] }, { "type": "LineString", "coordinates": [ [ -89.945754, 35.115323 ], [ -89.945757, 35.115289 ] ] }, { "type": "Point", "coordinates": [ -89.946044, 35.107882 ] } ] } },
{ "type": "Feature", "properties": { "precinct_key": "SHELBY - 008141", "name20": "Shelby - 008141", "county_norm": "SHELBY", "prec_id": "008141", "district_num": "87", "area_weight": 0.11724897888559578, "geometry_status": "real_secondary", "suggested_action": "manual_split_review" }, "geometry": { "type": "GeometryCollection", "geometries": [ { "type": "Polygon", "coordinates": [ [ [ -89.903195, 35.099713 ], [ -89.903221, 35.098925 ], [ -89.903252, 35.098075 ], [ -89.903282, 35.097294 ], [ -89.903308, 35.096449 ], [ -89.903336, 35.095664 ], [ -89.903414, 35.09347 ], [ -89.904721, 35.093509 ], [ -89.905804, 35.09354 ], [ -89.906874, 35.093557 ], [ -89.906799, 35.095613 ], [ -89.906767, 35.096527 ], [ -89.907885, 35.096554 ], [ -89.908937, 35.096575 ], [ -89.91004, 35.096474 ], [ -89.912314, 35.094617 ], [ -89.913118, 35.093898 ], [ -89.91445, 35.0945 ], [ -89.914436, 35.094522 ], [ -89.914296, 35.094774 ], [ -89.914202, 35.094884 ], [ -89.914129, 35.094906 ], [ -89.913828, 35.094835 ], [ -89.913447, 35.094834 ], [ -89.913187, 35.094917 ], [ -89.913033, 35.095016 ], [ -89.912859, 35.095175 ], [ -89.912826, 35.095186 ], [ -89.912659, 35.095351 ], [ -89.912619, 35.095367 ], [ -89.912599, 35.095411 ], [ -89.912558, 35.095428 ], [ -89.912545, 35.09546 ], [ -89.912512, 35.095477 ], [ -89.912418, 35.095581 ], [ -89.912204, 35.095752 ], [ -89.912037, 35.096065 ], [ -89.91197, 35.096152 ], [ -89.911636, 35.096718 ], [ -89.911469, 35.097037 ], [ -89.911435, 35.097053 ], [ -89.911355, 35.097179 ], [ -89.911288, 35.0973 ], [ -89.911248, 35.09735 ], [ -89.911028, 35.097696 ], [ -89.910907, 35.097932 ], [ -89.910834, 35.098014 ], [ -89.910794, 35.098091 ], [ -89.91076, 35.098113 ], [ -89.910687, 35.098272 ], [ -89.910639, 35.098345 ], [ -89.910593, 35.098415 ], [ -89.910526, 35.098596 ], [ -89.910479, 35.09869 ], [ -89.910332, 35.099025 ], [ -89.910172, 35.099332 ], [ -89.910078, 35.099447 ], [ -89.909958, 35.099673 ], [ -89.909824, 35.099898 ], [ -89.909751, 35.100079 ], [ -89.909711, 35.100288 ], [ -89.909659, 35.100287 ], [ -89.90953, 35.100285 ], [ -89.908988, 35.10028 ], [ -89.908808, 35.100279 ], [ -89.908594, 35.100342 ], [ -89.908449, 35.100385 ], [ -89.907956, 35.10054 ], [ -89.907791, 35.100593 ], [ -89.907743, 35.1006 ], [ -89.907543, 35.100609 ], [ -89.907519, 35.100608 ], [ -89.90685, 35.100602 ], [ -89.906627, 35.1006 ], [ -89.906412, 35.100592 ], [ -89.905768, 35.100571 ], [ -89.905554, 35.100564 ], [ -89.905337, 35.100558 ], [ -89.904689, 35.10054 ], [ -89.904473, 35.100534 ], [ -89.904211, 35.100529 ], [ -89.903428, 35.100515 ], [ -89.903167, 35.100511 ], [ -89.903195, 35.099713 ] ] ] }, { "type": "Polygon", "coordinates": [ [ [ -89.903005, 35.105133 ], [ -89.902998, 35.105352 ], [ -89.902988, 35.10558 ], [ -89.903005, 35.105133 ] ] ] }, { "type": "Polygon", "coordinates": [ [ [ -89.902952109916029, 35.106746284370388 ], [ -89.902952, 35.106752 ], [ -89.902951, 35.106783 ], [ -89.902952109916029, 35.106746284370388 ] ] ] }, { "type": "Polygon", "coordinates": [ [ [ -89.926229, 35.107393 ], [ -89.925773, 35.107383 ], [ -89.924405, 35.107353 ], [ -89.924306, 35.10735 ], [ -89.924122, 35.107344 ], [ -89.926229, 35.107393 ] ] ] }, { "type": "Polygon", "coordinates": [ [ [ -89.921037305386761, 35.107259835827996 ], [ -89.920881, 35.107256 ], [ -89.920605325387569, 35.107247718153715 ], [ -89.921037305386761, 35.107259835827996 ] ] ] }, { "type": "Polygon", "coordinates": [ [ [ -89.920152, 35.107235 ], [ -89.920155, 35.107153 ], [ -89.920153, 35.106856 ], [ -89.92012, 35.106677 ], [ -89.920108, 35.106608 ], [ -89.920067, 35.106378 ], [ -89.920051, 35.106215 ], [ -89.920065, 35.10573 ], [ -89.9201, 35.105351 ], [ -89.920146, 35.105004 ], [ -89.920173, 35.104813 ], [ -89.920207, 35.104447 ], [ -89.920237, 35.104118 ], [ -89.920276, 35.103707 ], [ -89.920292, 35.103364 ], [ -89.920306, 35.103131 ], [ -89.920307363154407, 35.103110916246251 ], [ -89.920152, 35.107235 ] ] ] }, { "type": "Polygon", "coordinates": [ [ [ -89.918011, 35.096399 ], [ -89.918841, 35.097913 ], [ -89.921229, 35.098343 ], [ -89.922311, 35.098782 ], [ -89.923374, 35.098875 ], [ -89.923381, 35.099923 ], [ -89.923388, 35.100185 ], [ -89.92333, 35.102235 ], [ -89.921586, 35.101784 ], [ -89.920319, 35.102802 ], [ -89.920298, 35.102736 ], [ -89.920241, 35.102658 ], [ -89.920206, 35.102611 ], [ -89.920118, 35.10249 ], [ -89.920101, 35.102466 ], [ -89.919969, 35.102348 ], [ -89.9199, 35.102304 ], [ -89.919831, 35.102261 ], [ -89.919753, 35.102232 ], [ -89.919561, 35.102172 ], [ -89.919456, 35.102154 ], [ -89.918979, 35.102124 ], [ -89.918948, 35.102123 ], [ -89.91803, 35.10212 ], [ -89.916623, 35.102082 ], [ -89.915838, 35.102062 ], [ -89.915843, 35.101878 ], [ -89.915858, 35.101328 ], [ -89.915864, 35.101145 ], [ -89.915869, 35.100958 ], [ -89.915884, 35.1004 ], [ -89.91589, 35.100215 ], [ -89.915895, 35.100016 ], [ -89.915898, 35.099906 ], [ -89.915911, 35.09942 ], [ -89.915917, 35.099222 ], [ -89.915924, 35.098967 ], [ -89.915929, 35.098824 ], [ -89.915945, 35.098202 ], [ -89.915952, 35.097948 ], [ -89.915958, 35.097716 ], [ -89.915978, 35.09702 ], [ -89.915986, 35.096789 ], [ -89.915991, 35.096627 ], [ -89.916008, 35.09614 ], [ -89.916014, 35.095979 ], [ -89.91602, 35.095825 ], [ -89.91604, 35.095362 ], [ -89.916047, 35.095209 ], [ -89.918011, 35.096399 ] ] ] }, { "type": "LineString", "coordinates": [ [ -89.903012, 35.104915 ], [ -89.903005, 35.105133 ] ] }, { "type": "LineString", "coordinates": [ [ -89.902988, 35.10558 ], [ -89.902982, 35.105737 ] ] }, { "type": "LineString", "coordinates": [ [ -89.902982, 35.105737 ], [ -89.902976, 35.105956 ] ] }, { "type": "Point", "coordinates": [ -89.903069, 35.10333 ] }, { "type": "Point", "coordinates": [ -89.903025, 35.104554 ] }, { "type": "Point", "coordinates": [ -89.922517, 35.107301 ] }, { "type": "Point", "coordinates": [ -89.930668, 35.1075 ] }, { "type": "Point", "coordinates": [ -89.930207, 35.107489 ] }, { "type": "Point", "coordinates": [ -89.915137, 35.094805 ] }, { "type": "Point", "coordinates": [ -89.92892, 35.107459 ] }, { "type": "Point", "coordinates": [ -89.927642, 35.107427 ] }, { "type": "Point", "coordinates": [ -89.923552, 35.107328 ] }, { "type": "Point", "coordinates": [ -89.921471, 35.107272 ] } ] } },
{ "type": "Feature", "properties": { "precinct_key": "SHELBY - 008141", "name20": "Shelby - 008141", "county_norm": "SHELBY", "prec_id": "008141", "district_num": "91", "area_weight": 0.45330665392539887, "geometry_status": "dominant", "suggested_action": "manual_split_review" }, "geometry": { "type": "Polygon", "coordinates": [ [ [ -89.926012, 35.11573 ], [ -89.925976, 35.115305 ], [ -89.925975, 35.115178 ], [ -89.925975, 35.114921 ], [ -89.926002, 35.114274 ], [ -89.926033, 35.113521 ], [ -89.926057, 35.112969 ], [ -89.926085, 35.112318 ], [ -89.926171, 35.110364 ], [ -89.9262, 35.109714 ], [ -89.926205, 35.109249 ], [ -89.926222, 35.107857 ], [ -89.926228, 35.107461 ], [ -89.926229, 35.107393 ], [ -89.927642, 35.107427 ], [ -89.92892, 35.107459 ], [ -89.930207, 35.107489 ], [ -89.930668, 35.1075 ], [ -89.931715, 35.107523 ], [ -89.935004, 35.107602 ], [ -89.935284, 35.107608 ], [ -89.935724, 35.107617 ], [ -89.938543, 35.107685 ], [ -89.940523, 35.107741 ], [ -89.941557, 35.10777 ], [ -89.942447, 35.107795 ], [ -89.946044, 35.107882 ], [ -89.946038856923067, 35.108001167749535 ], [ -89.946034, 35.108099 ], [ -89.946006, 35.108753 ], [ -89.945997, 35.108971 ], [ -89.945994, 35.109027 ], [ -89.945987, 35.109196 ], [ -89.945985, 35.109253 ], [ -89.945978, 35.109406 ], [ -89.945961, 35.109867 ], [ -89.945956, 35.110021 ], [ -89.945948, 35.110216 ], [ -89.945927, 35.110802 ], [ -89.94592, 35.110998 ], [ -89.945917, 35.111077 ], [ -89.945908, 35.111314 ], [ -89.945905, 35.111393 ], [ -89.945904, 35.111415 ], [ -89.945902, 35.111484 ], [ -89.945902, 35.111507 ], [ -89.945893, 35.111706 ], [ -89.94587, 35.112305 ], [ -89.945863, 35.112505 ], [ -89.945858, 35.112619 ], [ -89.945843, 35.112965 ], [ -89.945839, 35.11308 ], [ -89.945835, 35.113161 ], [ -89.945827, 35.113406 ], [ -89.945824, 35.113488 ], [ -89.945818, 35.113644 ], [ -89.945812, 35.113809 ], [ -89.945811081984601, 35.113865916958915 ], [ -89.945782205307523, 35.114710691117089 ], [ -89.94578, 35.114775 ], [ -89.945769, 35.115097 ], [ -89.945766, 35.115135 ], [ -89.945759, 35.11525 ], [ -89.945757, 35.115289 ], [ -89.945754, 35.115323 ], [ -89.945748, 35.115428 ], [ -89.945746, 35.115463 ], [ -89.945736, 35.115657 ], [ -89.945709, 35.11624 ], [ -89.945701, 35.116435 ], [ -89.945689, 35.116708 ], [ -89.945656, 35.11753 ], [ -89.945645, 35.117804 ], [ -89.945634, 35.118077 ], [ -89.945602, 35.118897 ], [ -89.945592, 35.119171 ], [ -89.945582, 35.119385 ], [ -89.945556, 35.12003 ], [ -89.945548, 35.120245 ], [ -89.945516210104444, 35.12105913406824 ], [ -89.945515, 35.121085 ], [ -89.945507, 35.121295 ], [ -89.945487, 35.121675 ], [ -89.945431, 35.122816 ], [ -89.945412, 35.123197 ], [ -89.942735, 35.123109 ], [ -89.940493, 35.123046 ], [ -89.939286, 35.123012 ], [ -89.937246, 35.122952 ], [ -89.93367, 35.122852 ], [ -89.931146, 35.122784 ], [ -89.930585, 35.122766 ], [ -89.925814, 35.122644 ], [ -89.925839766184652, 35.121794208693736 ], [ -89.925842, 35.121754 ], [ -89.925847, 35.121565 ], [ -89.925864, 35.121 ], [ -89.925871, 35.120812 ], [ -89.925872, 35.120759 ], [ -89.925877, 35.120602 ], [ -89.92588, 35.12055 ], [ -89.925885, 35.120383 ], [ -89.925895, 35.120113 ], [ -89.9259, 35.119906 ], [ -89.9259, 35.119881 ], [ -89.925907, 35.119715 ], [ -89.92591, 35.119561 ], [ -89.925919522556484, 35.119163650020219 ], [ -89.925926, 35.11895 ], [ -89.92597, 35.117359 ], [ -89.925993, 35.116529 ], [ -89.925999, 35.116109 ], [ -89.926004, 35.115937 ], [ -89.926012, 35.11573 ] ] ] } }
]
}
