{
"type": "FeatureCollection",
"name": "precinct",
"crs": { "type": "name", "properties": { "name": "urn:ogc:def:crs:OGC:1.3:CRS84" } },
"features": [
{ "type": "Feature", "properties": { "precinct_key": "SHELBY - 008141", "name20": "Shelby - 008141", "county_norm": "SHELBY", "prec_id": "008141" }, "geometry": { "type": "Polygon", "coordinates": [ [ [ -89.907885, 35.096554 ], [ -89.906767, 35.096527 ], [ -89.906799, 35.095613 ], [ -89.906874, 35.093557 ], [ -89.905804, 35.09354 ], [ -89.904721, 35.093509 ], [ -89.903414, 35.09347 ], [ -89.903336, 35.095664 ], [ -89.903308, 35.096449 ], [ -89.903282, 35.097294 ], [ -89.903252, 35.098075 ], [ -89.903221, 35.098925 ], [ -89.903195, 35.099713 ], [ -89.903167, 35.100511 ], [ -89.903069, 35.10333 ], [ -89.903025, 35.104554 ], [ -89.903012, 35.104915 ], [ -89.903005, 35.105133 ], [ -89.902988, 35.10558 ], [ -89.902982, 35.105737 ], [ -89.902976, 35.105956 ], [ -89.902951, 35.106783 ], [ -89.904539, 35.106824 ], [ -89.907862, 35.10691 ], [ -89.907631, 35.111262 ], [ -89.907594, 35.112308 ], [ -89.907436, 35.114931 ], [ -89.909546, 35.115279 ], [ -89.915456, 35.115475 ], [ -89.917616, 35.115539 ], [ -89.926012, 35.11573 ], [ -89.926004, 35.115937 ], [ -89.925999, 35.116109 ], [ -89.925993, 35.116529 ], [ -89.92597, 35.117359 ], [ -89.925926, 35.11895 ], [ -89.925814, 35.122644 ], [ -89.930585, 35.122766 ], [ -89.931146, 35.122784 ], [ -89.93367, 35.122852 ], [ -89.937246, 35.122952 ], [ -89.939286, 35.123012 ], [ -89.940493, 35.123046 ], [ -89.942735, 35.123109 ], [ -89.945412, 35.123197 ], [ -89.945507, 35.121295 ], [ -89.945548, 35.120245 ], [ -89.945592, 35.119171 ], [ -89.945645, 35.117804 ], [ -89.945701, 35.116435 ], [ -89.945746, 35.115463 ], [ -89.945748, 35.115428 ], [ -89.945754, 35.115323 ], [ -89.945757, 35.115289 ], [ -89.945769, 35.115097 ], [ -89.945824, 35.113488 ], [ -89.945839, 35.11308 ], [ -89.945863, 35.112505 ], [ -89.945902, 35.111507 ], [ -89.945905, 35.111393 ], [ -89.94592, 35.110998 ], [ -89.945956, 35.110021 ], [ -89.945985, 35.109253 ], [ -89.945997, 35.108971 ], [ -89.946044, 35.107882 ], [ -89.942447, 35.107795 ], [ -89.941557, 35.10777 ], [ -89.940523, 35.107741 ], [ -89.938543, 35.107685 ], [ -89.935724, 35.107617 ], [ -89.935284, 35.107608 ], [ -89.935004, 35.107602 ], [ -89.931715, 35.107523 ], [ -89.930668, 35.1075 ], [ -89.930207, 35.107489 ], [ -89.92892, 35.107459 ], [ -89.927642, 35.107427 ], [ -89.926229, 35.107393 ], [ -89.924122, 35.107344 ], [ -89.923552, 35.107328 ], [ -89.922517, 35.107301 ], [ -89.921471, 35.107272 ], [ -89.920152, 35.107235 ], [ -89.920319, 35.102802 ], [ -89.921586, 35.101784 ], [ -89.92333, 35.102235 ], [ -89.923388, 35.100185 ], [ -89.923381, 35.099923 ], [ -89.923374, 35.098875 ], [ -89.922311, 35.098782 ], [ -89.921229, 35.098343 ], [ -89.918841, 35.097913 ], [ -89.918011, 35.096399 ], [ -89.916047, 35.095209 ], [ -89.915137, 35.094805 ], [ -89.91445, 35.0945 ], [ -89.913118, 35.093898 ], [ -89.912314, 35.094617 ], [ -89.91004, 35.096474 ], [ -89.908937, 35.096575 ], [ -89.907885, 35.096554 ] ] ] } }
]
}
