{
"type": "FeatureCollection",
"name": "intersection_pieces",
"crs": { "type": "name", "properties": { "name": "urn:ogc:def:crs:OGC:1.3:CRS84" } },
"features": [
{ "type": "Feature", "properties": { "precinct_key": "DAVIDSON - 001960", "name20": "Davidson - 001960", "county_norm": "DAVIDSON", "prec_id": "001960", "district_num": "50", "area_weight": 0.61570824320436612, "geometry_status": "dominant", "suggested_action": "manual_split_review" }, "geometry": { "type": "Polygon", "coordinates": [ [ [ -86.94601, 36.057462 ], [ -86.947697, 36.055506 ], [ -86.948948, 36.054588 ], [ -86.950497219917011, 36.054123047816923 ], [ -86.950518, 36.054118 ], [ -86.950604, 36.054091 ], [ -86.950666, 36.054173 ], [ -86.950717, 36.054239 ], [ -86.950825, 36.054366 ], [ -86.95087, 36.054405 ], [ -86.950949, 36.054473 ], [ -86.951094, 36.054568 ], [ -86.951213, 36.054624 ], [ -86.951395, 36.054689 ], [ -86.951538, 36.054722 ], [ -86.951588, 36.05473 ], [ -86.951615, 36.054735 ], [ -86.951761, 36.054753 ], [ -86.952034, 36.054775 ], [ -86.952253, 36.054794 ], [ -86.95274, 36.054829 ], [ -86.952856, 36.054841 ], [ -86.95313, 36.054872 ], [ -86.953239, 36.054877 ], [ -86.953404, 36.054886 ], [ -86.953568, 36.054897 ], [ -86.953678, 36.054905 ], [ -86.955328, 36.055039 ], [ -86.955908, 36.055038 ], [ -86.956109, 36.055023 ], [ -86.956619, 36.054944 ], [ -86.956805, 36.05491 ], [ -86.957123, 36.054853 ], [ -86.957239, 36.054837 ], [ -86.95755, 36.054807 ], [ -86.957686, 36.054806 ], [ -86.957944, 36.054819 ], [ -86.958449, 36.05486 ], [ -86.959099, 36.054927 ], [ -86.95965, 36.055012 ], [ -86.959834, 36.055042 ], [ -86.96036, 36.055165 ], [ -86.960788, 36.05532 ], [ -86.96095, 36.055381 ], [ -86.961133, 36.05547 ], [ -86.961711, 36.055767 ], [ -86.962474, 36.056167 ], [ -86.962639, 36.05623 ], [ -86.962769, 36.056275 ], [ -86.963085, 36.056361 ], [ -86.963354, 36.056409 ], [ -86.964263, 36.056551 ], [ -86.964625, 36.056604 ], [ -86.965184, 36.056623 ], [ -86.965646, 36.056588 ], [ -86.965911, 36.056546 ], [ -86.966175, 36.056506 ], [ -86.966771, 36.056399 ], [ -86.967492, 36.056315 ], [ -86.969034, 36.056394 ], [ -86.969144, 36.056402 ], [ -86.969477, 36.056427 ], [ -86.969588, 36.056436 ], [ -86.96982, 36.056462 ], [ -86.96993, 36.056483 ], [ -86.970048, 36.056506 ], [ -86.97027, 36.056566 ], [ -86.970735, 36.056728 ], [ -86.970759, 36.056736 ], [ -86.970922, 36.056783 ], [ -86.971254, 36.056881 ], [ -86.971418, 36.056901 ], [ -86.971664, 36.056931 ], [ -86.97191, 36.056928 ], [ -86.972079, 36.05692 ], [ -86.972192, 36.05691 ], [ -86.972531, 36.056879 ], [ -86.972645, 36.05687 ], [ -86.972992, 36.056834 ], [ -86.974034, 36.056727 ], [ -86.974382, 36.056692 ], [ -86.975528, 36.056579 ], [ -86.975876, 36.056553 ], [ -86.975958, 36.056547 ], [ -86.976235, 36.056529 ], [ -86.977591, 36.056486 ], [ -86.977788, 36.056477 ], [ -86.978031, 36.056444 ], [ -86.978194, 36.056412 ], [ -86.978508, 36.056327 ], [ -86.97866, 36.05628 ], [ -86.979046, 36.056107 ], [ -86.979278, 36.055966 ], [ -86.97944, 36.055846 ], [ -86.979564, 36.055727 ], [ -86.979732, 36.05554 ], [ -86.979897, 36.055345 ], [ -86.979983, 36.055265 ], [ -86.980041, 36.055212 ], [ -86.980185, 36.055116 ], [ -86.980275, 36.055062 ], [ -86.980512, 36.054962 ], [ -86.980739, 36.054909 ], [ -86.980837, 36.054891 ], [ -86.981139, 36.054869 ], [ -86.98139, 36.054885 ], [ -86.981798, 36.054912 ], [ -86.982001, 36.054906 ], [ -86.982265, 36.05486 ], [ -86.982356, 36.054845 ], [ -86.982583, 36.05477 ], [ -86.982802, 36.054666 ], [ -86.982943, 36.054562 ], [ -86.983132, 36.054405 ], [ -86.984011, 36.053454 ], [ -86.984115, 36.053369 ], [ -86.984293, 36.053247 ], [ -86.984345, 36.053213 ], [ -86.98456, 36.053091 ], [ -86.984841, 36.052946 ], [ -86.98507, 36.052835 ], [ -86.985356, 36.053051 ], [ -86.985659, 36.053258 ], [ -86.986458, 36.053806 ], [ -86.986635, 36.053887 ], [ -86.986924, 36.053986 ], [ -86.987619, 36.054127 ], [ -86.987682600409343, 36.054140105569637 ], [ -86.98832, 36.054314 ], [ -86.989145, 36.055247 ], [ -86.989603147451049, 36.057478272637574 ], [ -86.989695, 36.057933 ], [ -86.989838, 36.058622 ], [ -86.991066, 36.06128 ], [ -86.991266, 36.061614 ], [ -86.991431, 36.061771 ], [ -86.99178, 36.061967 ], [ -86.992581, 36.062189 ], [ -86.993485, 36.062523 ], [ -86.994602979551601, 36.064145736890474 ], [ -86.99464, 36.064221 ], [ -86.99476, 36.064402 ], [ -86.994938, 36.064632 ], [ -86.995374, 36.065021 ], [ -86.995432, 36.065066 ], [ -86.995845, 36.065327 ], [ -86.996041, 36.065451 ], [ -86.996181293126099, 36.065538581100164 ], [ -86.998749, 36.067154 ], [ -87.000289784349448, 36.068578778735869 ], [ -87.000864, 36.069156 ], [ -87.00171, 36.069892 ], [ -87.001802, 36.069965 ], [ -87.002147, 36.070204 ], [ -87.002708, 36.070548 ], [ -87.002828, 36.070615 ], [ -87.003416, 36.070926 ], [ -87.00367, 36.071055 ], [ -87.003978, 36.071202 ], [ -87.004368, 36.071389 ], [ -87.004578, 36.071495 ], [ -87.005271887163588, 36.071973086724007 ], [ -87.005322, 36.072017 ], [ -87.006134, 36.072761 ], [ -87.007417, 36.073451 ], [ -87.007489, 36.073479 ], [ -87.008571, 36.073745 ], [ -87.00871, 36.073764 ], [ -87.009324, 36.073806 ], [ -87.011713, 36.074079 ], [ -87.0149, 36.074834 ], [ -87.015132620066936, 36.074935475682693 ], [ -87.015825, 36.075251 ], [ -87.016548, 36.075613 ], [ -87.017055, 36.075867 ], [ -87.018099, 36.076271 ], [ -87.018286, 36.076311 ], [ -87.019658, 36.076528 ], [ -87.019769, 36.07654 ], [ -87.020103, 36.076577 ], [ -87.020215, 36.07659 ], [ -87.020807, 36.076646 ], [ -87.021812, 36.076743 ], [ -87.022585, 36.076806 ], [ -87.023179, 36.076855 ], [ -87.020197, 36.076887 ], [ -87.016136, 36.076988 ], [ -87.012533, 36.077056 ], [ -87.00936, 36.077129 ], [ -86.994334, 36.077803 ], [ -86.989908, 36.074599 ], [ -86.987182, 36.073015 ], [ -86.987212, 36.070896 ], [ -86.987781, 36.068047 ], [ -86.988782, 36.066664 ], [ -86.989286, 36.063114 ], [ -86.988432, 36.061609 ], [ -86.98525, 36.061433 ], [ -86.984177, 36.062399 ], [ -86.982898, 36.064787 ], [ -86.978245, 36.068496 ], [ -86.976351, 36.068397 ], [ -86.973561, 36.066274 ], [ -86.970457, 36.064726 ], [ -86.96685, 36.064755 ], [ -86.966095, 36.065695 ], [ -86.963909, 36.070604 ], [ -86.963524, 36.07238 ], [ -86.964187, 36.074179 ], [ -86.964107, 36.075436 ], [ -86.962168, 36.077526 ], [ -86.959433, 36.078032 ], [ -86.957368, 36.0771 ], [ -86.956289, 36.075969 ], [ -86.954242, 36.072547 ], [ -86.954327, 36.065326 ], [ -86.952916, 36.062818 ], [ -86.949438, 36.062474 ], [ -86.94693, 36.06061 ], [ -86.944409, 36.059518 ], [ -86.94601, 36.057462 ] ] ] } },
{ "type": "Feature", "properties": { "precinct_key": "DAVIDSON - 001960", "name20": "Davidson - 001960", "county_norm": "DAVIDSON", "prec_id": "001960", "district_num": "59", "area_weight": 0.38429175679563365, "geometry_status": "real_secondary", "suggested_action": "manual_split_review" }, "geometry": { "type": "GeometryCollection", "geometries": [ { "type": "Polygon", "coordinates": [ [ [ -87.023179, 36.076855 ], [ -87.022585, 36.076806 ], [ -87.021812, 36.076743 ], [ -87.020807, 36.076646 ], [ -87.020215, 36.07659 ], [ -87.020103, 36.076577 ], [ -87.019769, 36.07654 ], [ -87.019658, 36.076528 ], [ -87.023179, 36.076855 ] ] ] }, { "type": "Polygon", "coordinates": [ [ [ -87.018286, 36.076311 ], [ -87.018099, 36.076271 ], [ -87.017055, 36.075867 ], [ -87.016548, 36.075613 ], [ -87.015825, 36.075251 ], [ -87.015132620066936, 36.074935475682693 ], [ -87.018286, 36.076311 ] ] ] }, { "type": "Polygon", "coordinates": [ [ [ -87.009324, 36.073806 ], [ -87.00871, 36.073764 ], [ -87.008571, 36.073745 ], [ -87.007489, 36.073479 ], [ -87.007417, 36.073451 ], [ -87.009324, 36.073806 ] ] ] }, { "type": "Polygon", "coordinates": [ [ [ -87.007417, 36.073451 ], [ -87.006134, 36.072761 ], [ -87.005322, 36.072017 ], [ -87.005271887163588, 36.071973086724007 ], [ -87.007417, 36.073451 ] ] ] }, { "type": "Polygon", "coordinates": [ [ [ -87.004578, 36.071495 ], [ -87.004368, 36.071389 ], [ -87.003978, 36.071202 ], [ -87.00367, 36.071055 ], [ -87.003416, 36.070926 ], [ -87.002828, 36.070615 ], [ -87.002708, 36.070548 ], [ -87.002147, 36.070204 ], [ -87.001802, 36.069965 ], [ -87.00171, 36.069892 ], [ -87.004578, 36.071495 ] ] ] }, { "type": "Polygon", "coordinates": [ [ [ -87.00171, 36.069892 ], [ -87.000864, 36.069156 ], [ -87.000289784349448, 36.068578778735869 ], [ -87.00171, 36.069892 ] ] ] }, { "type": "Polygon", "coordinates": [ [ [ -86.996181293126099, 36.065538581100164 ], [ -86.996041, 36.065451 ], [ -86.995845, 36.065327 ], [ -86.996181293126099, 36.065538581100164 ] ] ] }, { "type": "Polygon", "coordinates": [ [ [ -86.995845, 36.065327 ], [ -86.995432, 36.065066 ], [ -86.995374, 36.065021 ], [ -86.994938, 36.064632 ], [ -86.995845, 36.065327 ] ] ] }, { "type": "Polygon", "coordinates": [ [ [ -86.994938, 36.064632 ], [ -86.99476, 36.064402 ], [ -86.99464, 36.064221 ], [ -86.994602979551601, 36.064145736890474 ], [ -86.994938, 36.064632 ] ] ] }, { "type": "Polygon", "coordinates": [ [ [ -86.993485, 36.062523 ], [ -86.992581, 36.062189 ], [ -86.99178, 36.061967 ], [ -86.991431, 36.061771 ], [ -86.991266, 36.061614 ], [ -86.991066, 36.06128 ], [ -86.993485, 36.062523 ] ] ] }, { "type": "Polygon", "coordinates": [ [ [ -86.989838, 36.058622 ], [ -86.989695, 36.057933 ], [ -86.989603147451049, 36.057478272637574 ], [ -86.989838, 36.058622 ] ] ] }, { "type": "Polygon", "coordinates": [ [ [ -86.987682600409343, 36.054140105569637 ], [ -86.987619, 36.054127 ], [ -86.986924, 36.053986 ], [ -86.986635, 36.053887 ], [ -86.986458, 36.053806 ], [ -86.987682600409343, 36.054140105569637 ] ] ] }, { "type": "Polygon", "coordinates": [ [ [ -86.986458, 36.053806 ], [ -86.985659, 36.053258 ], [ -86.985356, 36.053051 ], [ -86.98507, 36.052835 ], [ -86.986458, 36.053806 ] ] ] }, { "type": "Polygon", "coordinates": [ [ [ -86.951996, 36.052986 ], [ -86.952232, 36.051854 ], [ -86.952637, 36.04973 ], [ -86.95291, 36.048397 ], [ -86.953928, 36.04716 ], [ -86.956571, 36.045362 ], [ -86.959039, 36.043961 ], [ -86.959546, 36.043323 ], [ -86.961162, 36.041293 ], [ -86.964504, 36.037995 ], [ -86.96613, 36.036425 ], [ -86.968166, 36.035415 ], [ -86.973989, 36.034522 ], [ -86.973344, 36.038493 ], [ -86.973752, 36.039801 ], [ -86.977155, 36.041982 ], [ -86.980905, 36.044753 ], [ -86.984277, 36.049084 ], [ -86.983842, 36.051646 ], [ -86.98507, 36.052835 ], [ -86.984841, 36.052946 ], [ -86.98456, 36.053091 ], [ -86.984345, 36.053213 ], [ -86.984293, 36.053247 ], [ -86.984115, 36.053369 ], [ -86.984011, 36.053454 ], [ -86.983132, 36.054405 ], [ -86.982943, 36.054562 ], [ -86.982802, 36.054666 ], [ -86.982583, 36.05477 ], [ -86.982356, 36.054845 ], [ -86.982265, 36.05486 ], [ -86.982001, 36.054906 ], [ -86.981798, 36.054912 ], [ -86.98139, 36.054885 ], [ -86.981139, 36.054869 ], [ -86.980837, 36.054891 ], [ -86.980739, 36.054909 ], [ -86.980512, 36.054962 ], [ -86.980275, 36.055062 ], [ -86.980185, 36.055116 ], [ -86.980041, 36.055212 ], [ -86.979983, 36.055265 ], [ -86.979897, 36.055345 ], [ -86.979732, 36.05554 ], [ -86.979564, 36.055727 ], [ -86.97944, 36.055846 ], [ -86.979278, 36.055966 ], [ -86.979046, 36.056107 ], [ -86.97866, 36.05628 ], [ -86.978508, 36.056327 ], [ -86.978194, 36.056412 ], [ -86.978031, 36.056444 ], [ -86.977788, 36.056477 ], [ -86.977591, 36.056486 ], [ -86.976235, 36.056529 ], [ -86.975958, 36.056547 ], [ -86.975876, 36.056553 ], [ -86.975528, 36.056579 ], [ -86.974382, 36.056692 ], [ -86.974034, 36.056727 ], [ -86.972992, 36.056834 ], [ -86.972645, 36.05687 ], [ -86.972531, 36.056879 ], [ -86.972192, 36.05691 ], [ -86.972079, 36.05692 ], [ -86.97191, 36.056928 ], [ -86.971664, 36.056931 ], [ -86.971418, 36.056901 ], [ -86.971254, 36.056881 ], [ -86.970922, 36.056783 ], [ -86.970759, 36.056736 ], [ -86.970735, 36.056728 ], [ -86.97027, 36.056566 ], [ -86.970048, 36.056506 ], [ -86.96993, 36.056483 ], [ -86.96982, 36.056462 ], [ -86.969588, 36.056436 ], [ -86.969477, 36.056427 ], [ -86.969144, 36.056402 ], [ -86.969034, 36.056394 ], [ -86.967492, 36.056315 ], [ -86.966771, 36.056399 ], [ -86.966175, 36.056506 ], [ -86.965911, 36.056546 ], [ -86.965646, 36.056588 ], [ -86.965184, 36.056623 ], [ -86.964625, 36.056604 ], [ -86.964263, 36.056551 ], [ -86.963354, 36.056409 ], [ -86.963085, 36.056361 ], [ -86.962769, 36.056275 ], [ -86.962639, 36.05623 ], [ -86.962474, 36.056167 ], [ -86.961711, 36.055767 ], [ -86.961133, 36.05547 ], [ -86.96095, 36.055381 ], [ -86.960788, 36.05532 ], [ -86.96036, 36.055165 ], [ -86.959834, 36.055042 ], [ -86.95965, 36.055012 ], [ -86.959099, 36.054927 ], [ -86.958449, 36.05486 ], [ -86.957944, 36.054819 ], [ -86.957686, 36.054806 ], [ -86.95755, 36.054807 ], [ -86.957239, 36.054837 ], [ -86.957123, 36.054853 ], [ -86.956805, 36.05491 ], [ -86.956619, 36.054944 ], [ -86.956109, 36.055023 ], [ -86.955908, 36.055038 ], [ -86.955328, 36.055039 ], [ -86.953678, 36.054905 ], [ -86.953568, 36.054897 ], [ -86.953404, 36.054886 ], [ -86.953239, 36.054877 ], [ -86.95313, 36.054872 ], [ -86.952856, 36.054841 ], [ -86.95274, 36.054829 ], [ -86.952253, 36.054794 ], [ -86.952034, 36.054775 ], [ -86.951761, 36.054753 ], [ -86.951615, 36.054735 ], [ -86.951588, 36.05473 ], [ -86.951538, 36.054722 ], [ -86.951395, 36.054689 ], [ -86.951213, 36.054624 ], [ -86.951094, 36.054568 ], [ -86.950949, 36.054473 ], [ -86.95087, 36.054405 ], [ -86.950825, 36.054366 ], [ -86.950717, 36.054239 ], [ -86.950666, 36.054173 ], [ -86.950604, 36.054091 ], [ -86.951996, 36.052986 ] ] ] }, { "type": "Polygon", "coordinates": [ [ [ -86.950604, 36.054091 ], [ -86.950518, 36.054118 ], [ -86.950497219917011, 36.054123047816923 ], [ -86.950604, 36.054091 ] ] ] }, { "type": "Point", "coordinates": [ -86.94601, 36.057462 ] }, { "type": "Point", "coordinates": [ -86.944409, 36.059518 ] }, { "type": "Point", "coordinates": [ -86.948948, 36.054588 ] }, { "type": "Point", "coordinates": [ -87.011713, 36.074079 ] }, { "type": "Point", "coordinates": [ -87.0149, 36.074834 ] }, { "type": "Point", "coordinates": [ -86.98832, 36.054314 ] }, { "type": "Point", "coordinates": [ -86.998749, 36.067154 ] }, { "type": "Point", "coordinates": [ -86.989145, 36.055247 ] }, { "type": "Point", "coordinates": [ -86.947697, 36.055506 ] } ] } }
]
}
