{
"type": "FeatureCollection",
"name": "precinct",
"crs": { "type": "name", "properties": { "name": "urn:ogc:def:crs:OGC:1.3:CRS84" } },
"features": [
{ "type": "Feature", "properties": { "precinct_key": "DAVIDSON - 001960", "name20": "Davidson - 001960", "county_norm": "DAVIDSON", "prec_id": "001960" }, "geometry": { "type": "Polygon", "coordinates": [ [ [ -86.94601, 36.057462 ], [ -86.944409, 36.059518 ], [ -86.94693, 36.06061 ], [ -86.949438, 36.062474 ], [ -86.952916, 36.062818 ], [ -86.954327, 36.065326 ], [ -86.954242, 36.072547 ], [ -86.956289, 36.075969 ], [ -86.957368, 36.0771 ], [ -86.959433, 36.078032 ], [ -86.962168, 36.077526 ], [ -86.964107, 36.075436 ], [ -86.964187, 36.074179 ], [ -86.963524, 36.07238 ], [ -86.963909, 36.070604 ], [ -86.966095, 36.065695 ], [ -86.96685, 36.064755 ], [ -86.970457, 36.064726 ], [ -86.973561, 36.066274 ], [ -86.976351, 36.068397 ], [ -86.978245, 36.068496 ], [ -86.982898, 36.064787 ], [ -86.984177, 36.062399 ], [ -86.98525, 36.061433 ], [ -86.988432, 36.061609 ], [ -86.989286, 36.063114 ], [ -86.988782, 36.066664 ], [ -86.987781, 36.068047 ], [ -86.987212, 36.070896 ], [ -86.987182, 36.073015 ], [ -86.989908, 36.074599 ], [ -86.994334, 36.077803 ], [ -87.00936, 36.077129 ], [ -87.012533, 36.077056 ], [ -87.016136, 36.076988 ], [ -87.020197, 36.076887 ], [ -87.023179, 36.076855 ], [ -87.019658, 36.076528 ], [ -87.018286, 36.076311 ], [ -87.0149, 36.074834 ], [ -87.011713, 36.074079 ], [ -87.009324, 36.073806 ], [ -87.007417, 36.073451 ], [ -87.004578, 36.071495 ], [ -87.00171, 36.069892 ], [ -86.998749, 36.067154 ], [ -86.995845, 36.065327 ], [ -86.994938, 36.064632 ], [ -86.993485, 36.062523 ], [ -86.991066, 36.06128 ], [ -86.989838, 36.058622 ], [ -86.989145, 36.055247 ], [ -86.98832, 36.054314 ], [ -86.986458, 36.053806 ], [ -86.98507, 36.052835 ], [ -86.983842, 36.051646 ], [ -86.984277, 36.049084 ], [ -86.980905, 36.044753 ], [ -86.977155, 36.041982 ], [ -86.973752, 36.039801 ], [ -86.973344, 36.038493 ], [ -86.973989, 36.034522 ], [ -86.968166, 36.035415 ], [ -86.96613, 36.036425 ], [ -86.964504, 36.037995 ], [ -86.961162, 36.041293 ], [ -86.959546, 36.043323 ], [ -86.959039, 36.043961 ], [ -86.956571, 36.045362 ], [ -86.953928, 36.04716 ], [ -86.95291, 36.048397 ], [ -86.952637, 36.04973 ], [ -86.952232, 36.051854 ], [ -86.951996, 36.052986 ], [ -86.950604, 36.054091 ], [ -86.948948, 36.054588 ], [ -86.947697, 36.055506 ], [ -86.94601, 36.057462 ] ] ] } }
]
}
