{
"type": "FeatureCollection",
"name": "intersection_pieces",
"crs": { "type": "name", "properties": { "name": "urn:ogc:def:crs:OGC:1.3:CRS84" } },
"features": [
{ "type": "Feature", "properties": { "precinct_key": "DAVIDSON - 001875", "name20": "Davidson - 001875", "county_norm": "DAVIDSON", "prec_id": "001875", "district_num": "52", "area_weight": 0.01541733416607754, "geometry_status": "minor_secondary", "suggested_action": "manual_split_review" }, "geometry": { "type": "GeometryCollection", "geometries": [ { "type": "Polygon", "coordinates": [ [ [ -86.711477, 36.111369 ], [ -86.71151, 36.111451 ], [ -86.711518786287698, 36.111474430106036 ], [ -86.711477, 36.111369 ] ] ] }, { "type": "Polygon", "coordinates": [ [ [ -86.71924, 36.116735 ], [ -86.71631, 36.115994 ], [ -86.714296, 36.114893 ], [ -86.712982, 36.113755 ], [ -86.711542, 36.111533 ], [ -86.711754, 36.111471 ], [ -86.71239, 36.111288 ], [ -86.712603, 36.111227 ], [ -86.712652, 36.111356 ], [ -86.712741, 36.111557 ], [ -86.712776, 36.111635 ], [ -86.713003, 36.111865 ], [ -86.713338, 36.112113 ], [ -86.713525, 36.112134 ], [ -86.71358, 36.112161 ], [ -86.713593, 36.112168 ], [ -86.713911, 36.1123 ], [ -86.714279, 36.112442 ], [ -86.714878, 36.112674 ], [ -86.715381, 36.112874 ], [ -86.715748, 36.113021 ], [ -86.715833, 36.113051 ], [ -86.716033, 36.113123 ], [ -86.716088, 36.113145 ], [ -86.716172, 36.11318 ], [ -86.716595, 36.113345 ], [ -86.716688, 36.113381 ], [ -86.716829, 36.113464 ], [ -86.71689, 36.113515 ], [ -86.716942, 36.113572 ], [ -86.717016, 36.113701 ], [ -86.717132, 36.113992 ], [ -86.717186, 36.114101 ], [ -86.717257, 36.114205 ], [ -86.717344, 36.114301 ], [ -86.717424, 36.11437 ], [ -86.717444, 36.114388 ], [ -86.717558, 36.114464 ], [ -86.717673, 36.114522 ], [ -86.717764, 36.114562 ], [ -86.717825, 36.114579 ], [ -86.718172, 36.114634 ], [ -86.719216, 36.114799 ], [ -86.719342, 36.114819 ], [ -86.719563, 36.114859 ], [ -86.71924, 36.116735 ] ] ] }, { "type": "Polygon", "coordinates": [ [ [ -86.719563, 36.114859 ], [ -86.720025, 36.114933 ], [ -86.720458, 36.115003 ], [ -86.719563, 36.114859 ] ] ] }, { "type": "Polygon", "coordinates": [ [ [ -86.721495547441748, 36.115328135465589 ], [ -86.721624, 36.115368 ], [ -86.721827, 36.115432 ], [ -86.721495547441748, 36.115328135465589 ] ] ] }, { "type": "Polygon", "coordinates": [ [ [ -86.723516, 36.115937 ], [ -86.724392, 36.116195 ], [ -86.725134, 36.116433 ], [ -86.725267, 36.116475 ], [ -86.723516, 36.115937 ] ] ] }, { "type": "Polygon", "coordinates": [ [ [ -86.725725, 36.11761 ], [ -86.725773, 36.117624 ], [ -86.725849, 36.117648 ], [ -86.725916, 36.117674 ], [ -86.725964, 36.117693 ], [ -86.725725, 36.11761 ] ] ] }, { "type": "Polygon", "coordinates": [ [ [ -86.730468, 36.118713 ], [ -86.730691, 36.118717 ], [ -86.731544, 36.118758 ], [ -86.732181, 36.119105 ], [ -86.73227228877515, 36.119182081848258 ], [ -86.730468, 36.118713 ] ] ] }, { "type": "Polygon", "coordinates": [ [ [ -86.733626, 36.119534 ], [ -86.734584, 36.119605 ], [ -86.73746, 36.11982 ], [ -86.738419, 36.119892 ], [ -86.733626, 36.119534 ] ] ] }, { "type": "Polygon", "coordinates": [ [ [ -86.738419, 36.119892 ], [ -86.740335, 36.120011 ], [ -86.740496, 36.120025 ], [ -86.740757, 36.120066 ], [ -86.738419, 36.119892 ] ] ] }, { "type": "Polygon", "coordinates": [ [ [ -86.740691, 36.120535 ], [ -86.740674, 36.120761 ], [ -86.740662, 36.120866 ], [ -86.740642, 36.121067 ], [ -86.740691, 36.120535 ] ] ] }, { "type": "Polygon", "coordinates": [ [ [ -86.740642, 36.121067 ], [ -86.741499, 36.12105 ], [ -86.742329, 36.121084 ], [ -86.742622, 36.121098 ], [ -86.742917, 36.121111 ], [ -86.740642, 36.121067 ] ] ] }, { "type": "Polygon", "coordinates": [ [ [ -86.742937, 36.121047 ], [ -86.743261, 36.12107 ], [ -86.743586, 36.121094 ], [ -86.742937, 36.121047 ] ] ] }, { "type": "Polygon", "coordinates": [ [ [ -86.743586, 36.121094 ], [ -86.744394, 36.121153 ], [ -86.745201, 36.121212 ], [ -86.743586, 36.121094 ] ] ] }, { "type": "Polygon", "coordinates": [ [ [ -86.75049049203048, 36.121549656040763 ], [ -86.750499, 36.121561 ], [ -86.750501697611568, 36.121573588856634 ], [ -86.75049049203048, 36.121549656040763 ] ] ] }, { "type": "LineString", "coordinates": [ [ -86.725267, 36.116475 ], [ -86.7254, 36.116827 ] ] }, { "type": "LineString", "coordinates": [ [ -86.7254, 36.116827 ], [ -86.725681, 36.117505 ] ] }, { "type": "LineString", "coordinates": [ [ -86.725964, 36.117693 ], [ -86.726014, 36.117705 ] ] }, { "type": "LineString", "coordinates": [ [ -86.726014, 36.117705 ], [ -86.726478, 36.117868 ] ] }, { "type": "LineString", "coordinates": [ [ -86.726478, 36.117868 ], [ -86.726751, 36.11798 ] ] }, { "type": "LineString", "coordinates": [ [ -86.726751, 36.11798 ], [ -86.727158, 36.118147 ] ] }, { "type": "LineString", "coordinates": [ [ -86.727158, 36.118147 ], [ -86.727734, 36.118465 ] ] }, { "type": "LineString", "coordinates": [ [ -86.727734, 36.118465 ], [ -86.728151, 36.1187 ] ] }, { "type": "LineString", "coordinates": [ [ -86.728151, 36.1187 ], [ -86.728309, 36.118789 ] ] }, { "type": "LineString", "coordinates": [ [ -86.728309, 36.118789 ], [ -86.728966, 36.119169 ] ] }, { "type": "LineString", "coordinates": [ [ -86.728966, 36.119169 ], [ -86.729061, 36.119224 ] ] }, { "type": "LineString", "coordinates": [ [ -86.729061, 36.119224 ], [ -86.729698, 36.11958 ] ] }, { "type": "LineString", "coordinates": [ [ -86.730197, 36.119532 ], [ -86.730051, 36.119416 ] ] }, { "type": "LineString", "coordinates": [ [ -86.742917, 36.121111 ], [ -86.742937, 36.121047 ] ] }, { "type": "LineString", "coordinates": [ [ -86.745201, 36.121212 ], [ -86.747548, 36.121373 ] ] }, { "type": "Point", "coordinates": [ -86.750353, 36.121256 ] }, { "type": "Point", "coordinates": [ -86.710145, 36.108009 ] }, { "type": "Point", "coordinates": [ -86.750515, 36.121602 ] }, { "type": "Point", "coordinates": [ -86.749378, 36.121503 ] } ] } },
{ "type": "Feature", "properties": { "precinct_key": "DAVIDSON - 001875", "name20": "Davidson - 001875", "county_norm": "DAVIDSON", "prec_id": "001875", "district_num": "59", "area_weight": 0.0063133680117871621, "geometry_status": "sliver", "suggested_action": "manual_split_review" }, "geometry": { "type": "GeometryCollection", "geometries": [ { "type": "Polygon", "coordinates": [ [ [ -86.763717, 36.082518 ], [ -86.763247, 36.085156 ], [ -86.763057, 36.08623 ], [ -86.762031, 36.086707 ], [ -86.76203, 36.086691 ], [ -86.761988, 36.086347 ], [ -86.761859, 36.085267 ], [ -86.761817, 36.084908 ], [ -86.761778, 36.08459 ], [ -86.761663, 36.083636 ], [ -86.761625, 36.083319 ], [ -86.761601, 36.083121 ], [ -86.761568, 36.08259 ], [ -86.761593, 36.08238 ], [ -86.761704, 36.082103 ], [ -86.763717, 36.082518 ] ] ] }, { "type": "Polygon", "coordinates": [ [ [ -86.760940289975551, 36.081831561193923 ], [ -86.760924, 36.081827 ], [ -86.760912, 36.081822 ], [ -86.760874, 36.081808 ], [ -86.760940289975551, 36.081831561193923 ] ] ] }, { "type": "Polygon", "coordinates": [ [ [ -86.76076379428001, 36.081769673664454 ], [ -86.76063, 36.081728 ], [ -86.760569, 36.081709 ], [ -86.760488, 36.081684 ], [ -86.760433, 36.081667 ], [ -86.760253, 36.081597 ], [ -86.760175, 36.081567 ], [ -86.760167174261696, 36.081562184161456 ], [ -86.76076379428001, 36.081769673664454 ] ] ] }, { "type": "Polygon", "coordinates": [ [ [ -86.760142219337723, 36.081553505373286 ], [ -86.760126, 36.081549 ], [ -86.760086, 36.081535 ], [ -86.760072, 36.08153 ], [ -86.760047147748637, 36.081520441443942 ], [ -86.760142219337723, 36.081553505373286 ] ] ] }, { "type": "Point", "coordinates": [ -86.760578, 36.092372 ] }, { "type": "Point", "coordinates": [ -86.761888, 36.090758 ] }, { "type": "Point", "coordinates": [ -86.76002, 36.081511 ] } ] } },
{ "type": "Feature", "properties": { "precinct_key": "DAVIDSON - 001875", "name20": "Davidson - 001875", "county_norm": "DAVIDSON", "prec_id": "001875", "district_num": "53", "area_weight": 0.62111405185741198, "geometry_status": "dominant", "suggested_action": "manual_split_review" }, "geometry": { "type": "Polygon", "coordinates": [ [ [ -86.717744, 36.097224 ], [ -86.719661, 36.096653 ], [ -86.723029, 36.094493 ], [ -86.724677, 36.093145 ], [ -86.727003, 36.091768 ], [ -86.728935, 36.091142 ], [ -86.731201, 36.090846 ], [ -86.734515, 36.090847 ], [ -86.736191, 36.093295 ], [ -86.737453, 36.095768 ], [ -86.737669, 36.096152 ], [ -86.739349, 36.095666 ], [ -86.742554, 36.096016 ], [ -86.742343, 36.097362 ], [ -86.742272, 36.097836 ], [ -86.742865, 36.097895 ], [ -86.74349, 36.097959 ], [ -86.746691, 36.098306 ], [ -86.749505, 36.09859 ], [ -86.749477, 36.096628 ], [ -86.750164, 36.090315 ], [ -86.751326, 36.089531 ], [ -86.756205, 36.085234 ], [ -86.757826, 36.083538 ], [ -86.76002, 36.081511 ], [ -86.760047147748637, 36.081520441443942 ], [ -86.760072, 36.08153 ], [ -86.760086, 36.081535 ], [ -86.760126, 36.081549 ], [ -86.760142219337723, 36.081553505373286 ], [ -86.760167174261696, 36.081562184161456 ], [ -86.760175, 36.081567 ], [ -86.760253, 36.081597 ], [ -86.760433, 36.081667 ], [ -86.760488, 36.081684 ], [ -86.760569, 36.081709 ], [ -86.76063, 36.081728 ], [ -86.76076379428001, 36.081769673664454 ], [ -86.760874, 36.081808 ], [ -86.760912, 36.081822 ], [ -86.760924, 36.081827 ], [ -86.760940289975551, 36.081831561193923 ], [ -86.761704, 36.082103 ], [ -86.761593, 36.08238 ], [ -86.761568, 36.08259 ], [ -86.761601, 36.083121 ], [ -86.761625, 36.083319 ], [ -86.761663, 36.083636 ], [ -86.761778, 36.08459 ], [ -86.761817, 36.084908 ], [ -86.761859, 36.085267 ], [ -86.761988, 36.086347 ], [ -86.76203, 36.086691 ], [ -86.762031, 36.086707 ], [ -86.761888, 36.090758 ], [ -86.760578, 36.092372 ], [ -86.760613, 36.092146 ], [ -86.754291, 36.09705 ], [ -86.753451, 36.098304 ], [ -86.752963, 36.100072 ], [ -86.751749, 36.108137 ], [ -86.751541, 36.111225 ], [ -86.751499, 36.111235 ], [ -86.751487, 36.111237 ], [ -86.751454, 36.111246 ], [ -86.751442, 36.111248 ], [ -86.75143, 36.111249 ], [ -86.751397, 36.111255 ], [ -86.751384, 36.111257 ], [ -86.751372, 36.111258 ], [ -86.751338, 36.111264 ], [ -86.751326, 36.111265 ], [ -86.751283, 36.111267 ], [ -86.75124, 36.111269 ], [ -86.751189, 36.111271 ], [ -86.751142, 36.111273 ], [ -86.751096, 36.111275 ], [ -86.751048, 36.111278 ], [ -86.751035, 36.111278 ], [ -86.751, 36.111281 ], [ -86.750988, 36.111282 ], [ -86.750945, 36.111285 ], [ -86.750933, 36.111285 ], [ -86.750901, 36.111287 ], [ -86.750888, 36.111289 ], [ -86.750829, 36.111293 ], [ -86.750736, 36.111287 ], [ -86.75048, 36.111272 ], [ -86.750282, 36.111259 ], [ -86.750131, 36.11125 ], [ -86.750045, 36.111244 ], [ -86.749959, 36.111239 ], [ -86.749882, 36.111234 ], [ -86.749423, 36.111206 ], [ -86.749135, 36.111188 ], [ -86.748887, 36.111173 ], [ -86.748581, 36.11115 ], [ -86.747666, 36.111081 ], [ -86.747361, 36.111059 ], [ -86.747249, 36.111053 ], [ -86.746913, 36.111035 ], [ -86.746801, 36.11103 ], [ -86.746621, 36.111016 ], [ -86.746446, 36.111004 ], [ -86.746091, 36.110978 ], [ -86.745998, 36.110972 ], [ -86.745905, 36.110967 ], [ -86.745767, 36.110962 ], [ -86.745355, 36.110947 ], [ -86.745218, 36.110942 ], [ -86.744767, 36.110912 ], [ -86.743414, 36.110822 ], [ -86.742963, 36.110793 ], [ -86.742751, 36.110769 ], [ -86.742415, 36.110732 ], [ -86.742117, 36.110699 ], [ -86.741906, 36.110676 ], [ -86.741671, 36.110652 ], [ -86.740966, 36.110583 ], [ -86.740732, 36.110561 ], [ -86.740249, 36.11051 ], [ -86.7388, 36.110358 ], [ -86.738317, 36.110308 ], [ -86.73807, 36.110285 ], [ -86.73733, 36.110218 ], [ -86.737084, 36.110196 ], [ -86.736851, 36.110172 ], [ -86.736154, 36.1101 ], [ -86.735922, 36.110077 ], [ -86.735658, 36.110048 ], [ -86.734868, 36.109961 ], [ -86.734605, 36.109933 ], [ -86.734389, 36.109912 ], [ -86.733741, 36.109852 ], [ -86.733628, 36.109841 ], [ -86.733525, 36.109832 ], [ -86.733252, 36.109806 ], [ -86.732433, 36.109731 ], [ -86.732161, 36.109707 ], [ -86.731946, 36.109708 ], [ -86.731303, 36.109712 ], [ -86.731089, 36.109714 ], [ -86.730898, 36.109716 ], [ -86.730679, 36.109719 ], [ -86.730325, 36.109723 ], [ -86.730135, 36.109712 ], [ -86.729845, 36.109693 ], [ -86.729714, 36.109682 ], [ -86.728815, 36.109607 ], [ -86.72846, 36.109533 ], [ -86.728047, 36.109449 ], [ -86.72779, 36.109449 ], [ -86.727632, 36.109449 ], [ -86.727026, 36.109364 ], [ -86.726907, 36.109348 ], [ -86.726773, 36.109326 ], [ -86.725382, 36.109093 ], [ -86.724967, 36.109049 ], [ -86.724561, 36.109034 ], [ -86.724159, 36.109065 ], [ -86.723791, 36.109152 ], [ -86.723316, 36.109266 ], [ -86.722348, 36.109547 ], [ -86.721858, 36.109698 ], [ -86.721702, 36.109747 ], [ -86.721628, 36.109636 ], [ -86.721567, 36.109545 ], [ -86.721511, 36.109463 ], [ -86.721444, 36.109364 ], [ -86.721403, 36.109305 ], [ -86.721321, 36.109184 ], [ -86.720977, 36.108727 ], [ -86.72087, 36.108585 ], [ -86.720679, 36.10835 ], [ -86.720482, 36.108085 ], [ -86.720313, 36.107887 ], [ -86.720152, 36.10771 ], [ -86.719963, 36.107516 ], [ -86.719876, 36.107418 ], [ -86.719799, 36.107332 ], [ -86.719686, 36.107197 ], [ -86.719489, 36.107 ], [ -86.719433, 36.106944 ], [ -86.718682, 36.106276 ], [ -86.718387, 36.106044 ], [ -86.718254, 36.105928 ], [ -86.71809, 36.105804 ], [ -86.718023, 36.10575 ], [ -86.717831, 36.105593 ], [ -86.717353, 36.105247 ], [ -86.716278, 36.104543 ], [ -86.715907, 36.104309 ], [ -86.715375, 36.103948 ], [ -86.715234, 36.103862 ], [ -86.714961, 36.103679 ], [ -86.714592, 36.103406 ], [ -86.714051, 36.102986 ], [ -86.713743, 36.102732 ], [ -86.713411, 36.102445 ], [ -86.713338, 36.102376 ], [ -86.71294, 36.102003 ], [ -86.712537, 36.101604 ], [ -86.71234, 36.101398 ], [ -86.712041, 36.10107 ], [ -86.711984, 36.101007 ], [ -86.712015, 36.100988 ], [ -86.712111, 36.100933 ], [ -86.712143, 36.100916 ], [ -86.71265, 36.100626 ], [ -86.712714, 36.10059 ], [ -86.713318, 36.100295 ], [ -86.713534, 36.10012 ], [ -86.713678, 36.099863 ], [ -86.713798, 36.099448 ], [ -86.713791, 36.098994 ], [ -86.713855, 36.098876 ], [ -86.714012, 36.098587 ], [ -86.714324, 36.098015 ], [ -86.714523, 36.097748 ], [ -86.71472, 36.097486 ], [ -86.717744, 36.097224 ] ] ] } },
{ "type": "Feature", "properties": { "precinct_key": "DAVIDSON - 001875", "name20": "Davidson - 001875", "county_norm": "DAVIDSON", "prec_id": "001875", "district_num": "55", "area_weight": 0.35715524596472648, "geometry_status": "real_secondary", "suggested_action": "manual_split_review" }, "geometry": { "type": "MultiPolygon", "coordinates": [ [ [ [ -86.70935, 36.097801 ], [ -86.708159, 36.096337 ], [ -86.708502, 36.096417 ], [ -86.708622, 36.096437 ], [ -86.71472, 36.097486 ], [ -86.714523, 36.097748 ], [ -86.714324, 36.098015 ], [ -86.714012, 36.098587 ], [ -86.713855, 36.098876 ], [ -86.713791, 36.098994 ], [ -86.713798, 36.099448 ], [ -86.713678, 36.099863 ], [ -86.713534, 36.10012 ], [ -86.713318, 36.100295 ], [ -86.712714, 36.10059 ], [ -86.71265, 36.100626 ], [ -86.712143, 36.100916 ], [ -86.712111, 36.100933 ], [ -86.712015, 36.100988 ], [ -86.711984, 36.101007 ], [ -86.70935, 36.097801 ] ] ], [ [ [ -86.711167, 36.10386 ], [ -86.712293, 36.10255 ], [ -86.711412, 36.101334 ], [ -86.711984, 36.101007 ], [ -86.712041, 36.10107 ], [ -86.71234, 36.101398 ], [ -86.712537, 36.101604 ], [ -86.71294, 36.102003 ], [ -86.713338, 36.102376 ], [ -86.713411, 36.102445 ], [ -86.713743, 36.102732 ], [ -86.714051, 36.102986 ], [ -86.714592, 36.103406 ], [ -86.714961, 36.103679 ], [ -86.715234, 36.103862 ], [ -86.715375, 36.103948 ], [ -86.715907, 36.104309 ], [ -86.716278, 36.104543 ], [ -86.717353, 36.105247 ], [ -86.717831, 36.105593 ], [ -86.718023, 36.10575 ], [ -86.71809, 36.105804 ], [ -86.718254, 36.105928 ], [ -86.718387, 36.106044 ], [ -86.718682, 36.106276 ], [ -86.719433, 36.106944 ], [ -86.719489, 36.107 ], [ -86.719686, 36.107197 ], [ -86.719799, 36.107332 ], [ -86.719876, 36.107418 ], [ -86.719963, 36.107516 ], [ -86.720152, 36.10771 ], [ -86.720313, 36.107887 ], [ -86.720482, 36.108085 ], [ -86.720679, 36.10835 ], [ -86.72087, 36.108585 ], [ -86.720977, 36.108727 ], [ -86.721321, 36.109184 ], [ -86.721403, 36.109305 ], [ -86.721444, 36.109364 ], [ -86.721511, 36.109463 ], [ -86.721567, 36.109545 ], [ -86.721628, 36.109636 ], [ -86.721702, 36.109747 ], [ -86.721858, 36.109698 ], [ -86.722348, 36.109547 ], [ -86.723316, 36.109266 ], [ -86.723791, 36.109152 ], [ -86.724159, 36.109065 ], [ -86.724561, 36.109034 ], [ -86.724967, 36.109049 ], [ -86.725382, 36.109093 ], [ -86.726773, 36.109326 ], [ -86.726907, 36.109348 ], [ -86.727026, 36.109364 ], [ -86.727632, 36.109449 ], [ -86.72779, 36.109449 ], [ -86.728047, 36.109449 ], [ -86.72846, 36.109533 ], [ -86.728815, 36.109607 ], [ -86.729714, 36.109682 ], [ -86.729845, 36.109693 ], [ -86.730135, 36.109712 ], [ -86.730325, 36.109723 ], [ -86.730679, 36.109719 ], [ -86.730898, 36.109716 ], [ -86.731089, 36.109714 ], [ -86.731303, 36.109712 ], [ -86.731946, 36.109708 ], [ -86.732161, 36.109707 ], [ -86.732433, 36.109731 ], [ -86.733252, 36.109806 ], [ -86.733525, 36.109832 ], [ -86.733628, 36.109841 ], [ -86.733741, 36.109852 ], [ -86.734389, 36.109912 ], [ -86.734605, 36.109933 ], [ -86.734868, 36.109961 ], [ -86.735658, 36.110048 ], [ -86.735922, 36.110077 ], [ -86.736154, 36.1101 ], [ -86.736851, 36.110172 ], [ -86.737084, 36.110196 ], [ -86.73733, 36.110218 ], [ -86.73807, 36.110285 ], [ -86.738317, 36.110308 ], [ -86.7388, 36.110358 ], [ -86.740249, 36.11051 ], [ -86.740732, 36.110561 ], [ -86.740966, 36.110583 ], [ -86.741671, 36.110652 ], [ -86.741906, 36.110676 ], [ -86.742117, 36.110699 ], [ -86.742415, 36.110732 ], [ -86.742751, 36.110769 ], [ -86.742963, 36.110793 ], [ -86.743414, 36.110822 ], [ -86.744767, 36.110912 ], [ -86.745218, 36.110942 ], [ -86.745355, 36.110947 ], [ -86.745767, 36.110962 ], [ -86.745905, 36.110967 ], [ -86.745998, 36.110972 ], [ -86.746091, 36.110978 ], [ -86.746446, 36.111004 ], [ -86.746621, 36.111016 ], [ -86.746801, 36.11103 ], [ -86.746913, 36.111035 ], [ -86.747249, 36.111053 ], [ -86.747361, 36.111059 ], [ -86.747666, 36.111081 ], [ -86.748581, 36.11115 ], [ -86.748887, 36.111173 ], [ -86.749135, 36.111188 ], [ -86.749423, 36.111206 ], [ -86.749882, 36.111234 ], [ -86.749959, 36.111239 ], [ -86.750045, 36.111244 ], [ -86.750131, 36.11125 ], [ -86.750282, 36.111259 ], [ -86.75048, 36.111272 ], [ -86.750736, 36.111287 ], [ -86.750829, 36.111293 ], [ -86.750888, 36.111289 ], [ -86.750901, 36.111287 ], [ -86.750933, 36.111285 ], [ -86.750945, 36.111285 ], [ -86.750988, 36.111282 ], [ -86.751, 36.111281 ], [ -86.751035, 36.111278 ], [ -86.751048, 36.111278 ], [ -86.751096, 36.111275 ], [ -86.751142, 36.111273 ], [ -86.751189, 36.111271 ], [ -86.75124, 36.111269 ], [ -86.751283, 36.111267 ], [ -86.751326, 36.111265 ], [ -86.751338, 36.111264 ], [ -86.751372, 36.111258 ], [ -86.751384, 36.111257 ], [ -86.751397, 36.111255 ], [ -86.75143, 36.111249 ], [ -86.751442, 36.111248 ], [ -86.751454, 36.111246 ], [ -86.751487, 36.111237 ], [ -86.751499, 36.111235 ], [ -86.751541, 36.111225 ], [ -86.750931, 36.120159 ], [ -86.750909, 36.120388 ], [ -86.750515, 36.121602 ], [ -86.750501697611568, 36.121573588856634 ], [ -86.750499, 36.121561 ], [ -86.75049049203048, 36.121549656040763 ], [ -86.750353, 36.121256 ], [ -86.749378, 36.121503 ], [ -86.747548, 36.121373 ], [ -86.745201, 36.121212 ], [ -86.744394, 36.121153 ], [ -86.743586, 36.121094 ], [ -86.743261, 36.12107 ], [ -86.742937, 36.121047 ], [ -86.742917, 36.121111 ], [ -86.742622, 36.121098 ], [ -86.742329, 36.121084 ], [ -86.741499, 36.12105 ], [ -86.740642, 36.121067 ], [ -86.740662, 36.120866 ], [ -86.740674, 36.120761 ], [ -86.740691, 36.120535 ], [ -86.740757, 36.120066 ], [ -86.740496, 36.120025 ], [ -86.740335, 36.120011 ], [ -86.738419, 36.119892 ], [ -86.73746, 36.11982 ], [ -86.734584, 36.119605 ], [ -86.733626, 36.119534 ], [ -86.73227228877515, 36.119182081848258 ], [ -86.732181, 36.119105 ], [ -86.731544, 36.118758 ], [ -86.730691, 36.118717 ], [ -86.730468, 36.118713 ], [ -86.730051, 36.119416 ], [ -86.730197, 36.119532 ], [ -86.729698, 36.11958 ], [ -86.729061, 36.119224 ], [ -86.728966, 36.119169 ], [ -86.728309, 36.118789 ], [ -86.728151, 36.1187 ], [ -86.727734, 36.118465 ], [ -86.727158, 36.118147 ], [ -86.726751, 36.11798 ], [ -86.726478, 36.117868 ], [ -86.726014, 36.117705 ], [ -86.725964, 36.117693 ], [ -86.725916, 36.117674 ], [ -86.725849, 36.117648 ], [ -86.725773, 36.117624 ], [ -86.725725, 36.11761 ], [ -86.725681, 36.117505 ], [ -86.7254, 36.116827 ], [ -86.725267, 36.116475 ], [ -86.725134, 36.116433 ], [ -86.724392, 36.116195 ], [ -86.723516, 36.115937 ], [ -86.721827, 36.115432 ], [ -86.721624, 36.115368 ], [ -86.721495547441748, 36.115328135465589 ], [ -86.720458, 36.115003 ], [ -86.720025, 36.114933 ], [ -86.719563, 36.114859 ], [ -86.719342, 36.114819 ], [ -86.719216, 36.114799 ], [ -86.718172, 36.114634 ], [ -86.717825, 36.114579 ], [ -86.717764, 36.114562 ], [ -86.717673, 36.114522 ], [ -86.717558, 36.114464 ], [ -86.717444, 36.114388 ], [ -86.717424, 36.11437 ], [ -86.717344, 36.114301 ], [ -86.717257, 36.114205 ], [ -86.717186, 36.114101 ], [ -86.717132, 36.113992 ], [ -86.717016, 36.113701 ], [ -86.716942, 36.113572 ], [ -86.71689, 36.113515 ], [ -86.716829, 36.113464 ], [ -86.716688, 36.113381 ], [ -86.716595, 36.113345 ], [ -86.716172, 36.11318 ], [ -86.716088, 36.113145 ], [ -86.716033, 36.113123 ], [ -86.715833, 36.113051 ], [ -86.715748, 36.113021 ], [ -86.715381, 36.112874 ], [ -86.714878, 36.112674 ], [ -86.714279, 36.112442 ], [ -86.713911, 36.1123 ], [ -86.713593, 36.112168 ], [ -86.71358, 36.112161 ], [ -86.713525, 36.112134 ], [ -86.713338, 36.112113 ], [ -86.713003, 36.111865 ], [ -86.712776, 36.111635 ], [ -86.712741, 36.111557 ], [ -86.712652, 36.111356 ], [ -86.712603, 36.111227 ], [ -86.71239, 36.111288 ], [ -86.711754, 36.111471 ], [ -86.711542, 36.111533 ], [ -86.711518786287698, 36.111474430106036 ], [ -86.71151, 36.111451 ], [ -86.711477, 36.111369 ], [ -86.710145, 36.108009 ], [ -86.711167, 36.10386 ] ] ] ] } }
]
}
