{
"type": "FeatureCollection",
"name": "precinct",
"crs": { "type": "name", "properties": { "name": "urn:ogc:def:crs:OGC:1.3:CRS84" } },
"features": [
{ "type": "Feature", "properties": { "precinct_key": "DAVIDSON - 001875", "name20": "Davidson - 001875", "county_norm": "DAVIDSON", "prec_id": "001875" }, "geometry": { "type": "Polygon", "coordinates": [ [ [ -86.746691, 36.098306 ], [ -86.74349, 36.097959 ], [ -86.742865, 36.097895 ], [ -86.742272, 36.097836 ], [ -86.742343, 36.097362 ], [ -86.742554, 36.096016 ], [ -86.739349, 36.095666 ], [ -86.737669, 36.096152 ], [ -86.737453, 36.095768 ], [ -86.736191, 36.093295 ], [ -86.734515, 36.090847 ], [ -86.731201, 36.090846 ], [ -86.728935, 36.091142 ], [ -86.727003, 36.091768 ], [ -86.724677, 36.093145 ], [ -86.723029, 36.094493 ], [ -86.719661, 36.096653 ], [ -86.717744, 36.097224 ], [ -86.71472, 36.097486 ], [ -86.708622, 36.096437 ], [ -86.708502, 36.096417 ], [ -86.708159, 36.096337 ], [ -86.70935, 36.097801 ], [ -86.711984, 36.101007 ], [ -86.711412, 36.101334 ], [ -86.712293, 36.10255 ], [ -86.711167, 36.10386 ], [ -86.710145, 36.108009 ], [ -86.711477, 36.111369 ], [ -86.711542, 36.111533 ], [ -86.712982, 36.113755 ], [ -86.714296, 36.114893 ], [ -86.71631, 36.115994 ], [ -86.71924, 36.116735 ], [ -86.719563, 36.114859 ], [ -86.720458, 36.115003 ], [ -86.721827, 36.115432 ], [ -86.723516, 36.115937 ], [ -86.725267, 36.116475 ], [ -86.7254, 36.116827 ], [ -86.725681, 36.117505 ], [ -86.725725, 36.11761 ], [ -86.725964, 36.117693 ], [ -86.726014, 36.117705 ], [ -86.726478, 36.117868 ], [ -86.726751, 36.11798 ], [ -86.727158, 36.118147 ], [ -86.727734, 36.118465 ], [ -86.728151, 36.1187 ], [ -86.728309, 36.118789 ], [ -86.728966, 36.119169 ], [ -86.729061, 36.119224 ], [ -86.729698, 36.11958 ], [ -86.730197, 36.119532 ], [ -86.730051, 36.119416 ], [ -86.730468, 36.118713 ], [ -86.733626, 36.119534 ], [ -86.738419, 36.119892 ], [ -86.740757, 36.120066 ], [ -86.740691, 36.120535 ], [ -86.740642, 36.121067 ], [ -86.742917, 36.121111 ], [ -86.742937, 36.121047 ], [ -86.743586, 36.121094 ], [ -86.745201, 36.121212 ], [ -86.747548, 36.121373 ], [ -86.749378, 36.121503 ], [ -86.750353, 36.121256 ], [ -86.750515, 36.121602 ], [ -86.750909, 36.120388 ], [ -86.750931, 36.120159 ], [ -86.751541, 36.111225 ], [ -86.751749, 36.108137 ], [ -86.752963, 36.100072 ], [ -86.753451, 36.098304 ], [ -86.754291, 36.09705 ], [ -86.760613, 36.092146 ], [ -86.760578, 36.092372 ], [ -86.761888, 36.090758 ], [ -86.762031, 36.086707 ], [ -86.763057, 36.08623 ], [ -86.763247, 36.085156 ], [ -86.763717, 36.082518 ], [ -86.761704, 36.082103 ], [ -86.760874, 36.081808 ], [ -86.76002, 36.081511 ], [ -86.757826, 36.083538 ], [ -86.756205, 36.085234 ], [ -86.751326, 36.089531 ], [ -86.750164, 36.090315 ], [ -86.749477, 36.096628 ], [ -86.749505, 36.09859 ], [ -86.746691, 36.098306 ] ] ] } }
]
}
