{
"type": "FeatureCollection",
"name": "intersection_pieces",
"crs": { "type": "name", "properties": { "name": "urn:ogc:def:crs:OGC:1.3:CRS84" } },
"features": [
{ "type": "Feature", "properties": { "precinct_key": "DAVIDSON - 001898", "name20": "Davidson - 001898", "county_norm": "DAVIDSON", "prec_id": "001898", "district_num": "50", "area_weight": 0.56518765993177322, "geometry_status": "dominant", "suggested_action": "manual_split_review" }, "geometry": { "type": "Polygon", "coordinates": [ [ [ -86.868644, 36.164373 ], [ -86.868621, 36.164333 ], [ -86.868512, 36.164121 ], [ -86.868379, 36.163865 ], [ -86.868365, 36.163838 ], [ -86.86839, 36.16383 ], [ -86.868545, 36.163785 ], [ -86.868815, 36.163706 ], [ -86.869015, 36.163647 ], [ -86.869215, 36.163589 ], [ -86.869855, 36.163395 ], [ -86.871775, 36.162814 ], [ -86.872416, 36.162621 ], [ -86.872542, 36.162586 ], [ -86.872924, 36.162484 ], [ -86.873051, 36.16245 ], [ -86.87307, 36.162443 ], [ -86.873128, 36.162426 ], [ -86.873148, 36.16242 ], [ -86.873277, 36.16238 ], [ -86.873292, 36.162373 ], [ -86.873582, 36.162248 ], [ -86.873705, 36.162169 ], [ -86.873828, 36.16209 ], [ -86.873886, 36.162062 ], [ -86.873944, 36.162034 ], [ -86.874026, 36.16199 ], [ -86.874099, 36.161953 ], [ -86.874334, 36.161785 ], [ -86.874535, 36.161566 ], [ -86.874545, 36.161556 ], [ -86.874667, 36.161388 ], [ -86.874912, 36.161035 ], [ -86.875499, 36.160193 ], [ -86.875655, 36.159981 ], [ -86.87591, 36.159635 ], [ -86.875935, 36.15959 ], [ -86.876041, 36.159477 ], [ -86.876077, 36.15944 ], [ -86.876148, 36.159349 ], [ -86.876161, 36.159334 ], [ -86.876345, 36.159067 ], [ -86.876411, 36.158973 ], [ -86.876541, 36.158795 ], [ -86.876932, 36.158262 ], [ -86.876995, 36.158177 ], [ -86.877011, 36.158064 ], [ -86.876545, 36.157983 ], [ -86.875727, 36.157842 ], [ -86.875148, 36.157739 ], [ -86.874901, 36.157695 ], [ -86.874686, 36.157643 ], [ -86.874907, 36.156491 ], [ -86.874938, 36.156353 ], [ -86.874941, 36.156338 ], [ -86.874981, 36.156109 ], [ -86.875076, 36.155625 ], [ -86.87509, 36.155546 ], [ -86.875228, 36.154806 ], [ -86.875298, 36.154371 ], [ -86.875333, 36.154126 ], [ -86.87533, 36.153998 ], [ -86.875316, 36.153872 ], [ -86.875294, 36.153766 ], [ -86.875262, 36.153664 ], [ -86.875249, 36.153605 ], [ -86.875154, 36.153391 ], [ -86.874902, 36.153066 ], [ -86.874915, 36.153062 ], [ -86.87584, 36.152584 ], [ -86.876071, 36.152491 ], [ -86.875535, 36.151845 ], [ -86.875271, 36.151493 ], [ -86.875182, 36.151387 ], [ -86.874918, 36.15107 ], [ -86.87483, 36.150965 ], [ -86.874623, 36.150718 ], [ -86.874004, 36.149979 ], [ -86.873938, 36.149899 ], [ -86.873786, 36.149744 ], [ -86.873739, 36.149678 ], [ -86.873598, 36.149481 ], [ -86.873524, 36.149381 ], [ -86.873414, 36.149244 ], [ -86.873611, 36.14918 ], [ -86.873861, 36.1491 ], [ -86.87403, 36.149049 ], [ -86.874203, 36.148989 ], [ -86.874363, 36.148936 ], [ -86.8744, 36.148922 ], [ -86.874522, 36.148875 ], [ -86.87469, 36.148811 ], [ -86.874887, 36.148726 ], [ -86.874934, 36.148706 ], [ -86.875007, 36.148672 ], [ -86.874613, 36.148296 ], [ -86.873937, 36.147651 ], [ -86.873785, 36.147437 ], [ -86.873692, 36.147106 ], [ -86.873671, 36.147018 ], [ -86.873656, 36.146951 ], [ -86.873615, 36.146652 ], [ -86.873563, 36.146488 ], [ -86.873545, 36.146288 ], [ -86.873494, 36.145689 ], [ -86.873492, 36.145661 ], [ -86.873431, 36.145501 ], [ -86.873411, 36.145349 ], [ -86.873366, 36.145249 ], [ -86.873307, 36.145117 ], [ -86.873151, 36.144868 ], [ -86.872937, 36.144631 ], [ -86.872916, 36.144612 ], [ -86.872721, 36.144437 ], [ -86.872795, 36.144368 ], [ -86.872891, 36.14428 ], [ -86.873023, 36.144169 ], [ -86.873101, 36.144105 ], [ -86.873243, 36.143986 ], [ -86.873321, 36.143923 ], [ -86.8738, 36.143543 ], [ -86.873986, 36.143384 ], [ -86.874204, 36.143199 ], [ -86.874283, 36.143139 ], [ -86.874371, 36.143075 ], [ -86.874529, 36.14297 ], [ -86.874612, 36.142915 ], [ -86.874874, 36.1427 ], [ -86.875272, 36.142448 ], [ -86.875562, 36.142266 ], [ -86.876037, 36.142015 ], [ -86.876603, 36.141731 ], [ -86.877013, 36.141555 ], [ -86.877235, 36.141452 ], [ -86.877441, 36.141363 ], [ -86.877458, 36.141356 ], [ -86.878155, 36.14098 ], [ -86.87829, 36.140908 ], [ -86.878382, 36.140832 ], [ -86.879018, 36.140318 ], [ -86.87923, 36.140147 ], [ -86.879576273306768, 36.139866972485315 ], [ -86.87958, 36.139864 ], [ -86.87993, 36.139581 ], [ -86.879990403503825, 36.139532065718008 ], [ -86.880563, 36.139069 ], [ -86.880783050202098, 36.138895345271159 ], [ -86.880823, 36.138864 ], [ -86.880901860566411, 36.138801584423256 ], [ -86.881246, 36.13853 ], [ -86.883524, 36.136766 ], [ -86.885229, 36.13579 ], [ -86.886531851181786, 36.135296174921478 ], [ -86.886855, 36.135174 ], [ -86.887058682532142, 36.13509648193655 ], [ -86.888073, 36.134712 ], [ -86.8885, 36.13454 ], [ -86.888792, 36.134422 ], [ -86.890211, 36.133856 ], [ -86.895614, 36.131882 ], [ -86.895948, 36.131778 ], [ -86.896737, 36.13147 ], [ -86.898479, 36.130826 ], [ -86.898912, 36.130656 ], [ -86.899104, 36.130596 ], [ -86.90029, 36.130758 ], [ -86.903971, 36.135198 ], [ -86.8952, 36.139007 ], [ -86.891653, 36.143007 ], [ -86.892075, 36.142932 ], [ -86.891624, 36.143958 ], [ -86.889216, 36.150361 ], [ -86.887768, 36.158698 ], [ -86.888741, 36.162835 ], [ -86.889276, 36.163903 ], [ -86.888269, 36.164143 ], [ -86.886977342547013, 36.16348372039478 ], [ -86.885993, 36.162824 ], [ -86.885641, 36.16267 ], [ -86.885248, 36.162601 ], [ -86.884622, 36.162594 ], [ -86.883959, 36.162661 ], [ -86.883216, 36.162786 ], [ -86.882861, 36.162894 ], [ -86.882676, 36.162951 ], [ -86.882036, 36.163271 ], [ -86.881738, 36.163532 ], [ -86.881604, 36.163795 ], [ -86.880971, 36.166015 ], [ -86.880261019980807, 36.166609966617742 ], [ -86.879994, 36.166772 ], [ -86.879792, 36.167003 ], [ -86.879756, 36.167393 ], [ -86.87977712515098, 36.167467433538754 ], [ -86.879758088785138, 36.168061792496125 ], [ -86.879736, 36.1681 ], [ -86.879755906324846, 36.168129933294274 ], [ -86.879738, 36.168689 ], [ -86.878746806358919, 36.168530720342673 ], [ -86.878738, 36.168088 ], [ -86.878632, 36.167746 ], [ -86.878573, 36.167651 ], [ -86.878423, 36.167574 ], [ -86.87821, 36.167537 ], [ -86.878035, 36.167555 ], [ -86.877905, 36.167651 ], [ -86.877848, 36.167784 ], [ -86.878066, 36.168422 ], [ -86.875503, 36.168585 ], [ -86.876523, 36.167906 ], [ -86.876765, 36.167756 ], [ -86.87675, 36.167684 ], [ -86.876723, 36.16755 ], [ -86.876429, 36.167324 ], [ -86.876246, 36.167208 ], [ -86.875984, 36.167208 ], [ -86.87386, 36.16757 ], [ -86.873412431903645, 36.16737861476534 ], [ -86.873218, 36.167256 ], [ -86.873205, 36.167248 ], [ -86.873147, 36.167212 ], [ -86.87306, 36.167158 ], [ -86.873005, 36.167123 ], [ -86.872969, 36.167133 ], [ -86.872707, 36.167072 ], [ -86.871905, 36.166734 ], [ -86.870291, 36.165046 ], [ -86.870283, 36.165039 ], [ -86.870039, 36.164851 ], [ -86.86967, 36.164672 ], [ -86.869273, 36.164396 ], [ -86.868972, 36.164338 ], [ -86.868939, 36.164341 ], [ -86.868658, 36.164371 ], [ -86.868644, 36.164373 ] ] ] } },
{ "type": "Feature", "properties": { "precinct_key": "DAVIDSON - 001898", "name20": "Davidson - 001898", "county_norm": "DAVIDSON", "prec_id": "001898", "district_num": "54", "area_weight": 0.0019585002458925049, "geometry_status": "sliver", "suggested_action": "manual_split_review" }, "geometry": { "type": "GeometryCollection", "geometries": [ { "type": "Polygon", "coordinates": [ [ [ -86.86863, 36.164375 ], [ -86.868563, 36.164368 ], [ -86.868429, 36.164356 ], [ -86.868185, 36.163892 ], [ -86.868275, 36.163865 ], [ -86.868365, 36.163838 ], [ -86.868379, 36.163865 ], [ -86.868512, 36.164121 ], [ -86.868621, 36.164333 ], [ -86.868644, 36.164373 ], [ -86.86863, 36.164375 ] ] ] }, { "type": "Polygon", "coordinates": [ [ [ -86.868658, 36.164371 ], [ -86.868939, 36.164341 ], [ -86.868972, 36.164338 ], [ -86.869273, 36.164396 ], [ -86.86967, 36.164672 ], [ -86.870039, 36.164851 ], [ -86.870283, 36.165039 ], [ -86.870291, 36.165046 ], [ -86.868658, 36.164371 ] ] ] }, { "type": "Polygon", "coordinates": [ [ [ -86.871905, 36.166734 ], [ -86.872707, 36.167072 ], [ -86.872969, 36.167133 ], [ -86.873005, 36.167123 ], [ -86.87306, 36.167158 ], [ -86.873147, 36.167212 ], [ -86.873205, 36.167248 ], [ -86.873218, 36.167256 ], [ -86.873412431903645, 36.16737861476534 ], [ -86.871905, 36.166734 ] ] ] }, { "type": "Polygon", "coordinates": [ [ [ -86.875984, 36.167208 ], [ -86.876246, 36.167208 ], [ -86.876429, 36.167324 ], [ -86.876723, 36.16755 ], [ -86.87675, 36.167684 ], [ -86.876765, 36.167756 ], [ -86.876523, 36.167906 ], [ -86.875984, 36.167208 ] ] ] }, { "type": "Polygon", "coordinates": [ [ [ -86.878066, 36.168422 ], [ -86.877848, 36.167784 ], [ -86.877905, 36.167651 ], [ -86.878035, 36.167555 ], [ -86.87821, 36.167537 ], [ -86.878423, 36.167574 ], [ -86.878573, 36.167651 ], [ -86.878632, 36.167746 ], [ -86.878738, 36.168088 ], [ -86.878746806358919, 36.168530720342673 ], [ -86.878066, 36.168422 ] ] ] }, { "type": "Polygon", "coordinates": [ [ [ -86.879755906324846, 36.168129933294274 ], [ -86.879736, 36.1681 ], [ -86.879758088785138, 36.168061792496125 ], [ -86.879755906324846, 36.168129933294274 ] ] ] }, { "type": "Polygon", "coordinates": [ [ [ -86.87977712515098, 36.167467433538754 ], [ -86.879756, 36.167393 ], [ -86.879792, 36.167003 ], [ -86.87977712515098, 36.167467433538754 ] ] ] }, { "type": "Polygon", "coordinates": [ [ [ -86.879792, 36.167003 ], [ -86.879994, 36.166772 ], [ -86.880261019980807, 36.166609966617742 ], [ -86.879792, 36.167003 ] ] ] }, { "type": "Polygon", "coordinates": [ [ [ -86.881604, 36.163795 ], [ -86.881738, 36.163532 ], [ -86.882036, 36.163271 ], [ -86.882676, 36.162951 ], [ -86.882861, 36.162894 ], [ -86.883216, 36.162786 ], [ -86.881604, 36.163795 ] ] ] }, { "type": "Polygon", "coordinates": [ [ [ -86.883216, 36.162786 ], [ -86.883959, 36.162661 ], [ -86.884622, 36.162594 ], [ -86.885248, 36.162601 ], [ -86.883216, 36.162786 ] ] ] }, { "type": "Polygon", "coordinates": [ [ [ -86.885248, 36.162601 ], [ -86.885641, 36.16267 ], [ -86.885993, 36.162824 ], [ -86.886977342547013, 36.16348372039478 ], [ -86.885248, 36.162601 ] ] ] }, { "type": "LineString", "coordinates": [ [ -86.868644, 36.164373 ], [ -86.868658, 36.164371 ] ] }, { "type": "LineString", "coordinates": [ [ -86.880971, 36.166015 ], [ -86.881604, 36.163795 ] ] }, { "type": "Point", "coordinates": [ -86.87386, 36.16757 ] }, { "type": "Point", "coordinates": [ -86.875503, 36.168585 ] }, { "type": "Point", "coordinates": [ -86.879738, 36.168689 ] }, { "type": "Point", "coordinates": [ -86.888269, 36.164143 ] }, { "type": "Point", "coordinates": [ -86.889276, 36.163903 ] } ] } },
{ "type": "Feature", "properties": { "precinct_key": "DAVIDSON - 001898", "name20": "Davidson - 001898", "county_norm": "DAVIDSON", "prec_id": "001898", "district_num": "56", "area_weight": 0.43262969265117207, "geometry_status": "real_secondary", "suggested_action": "manual_split_review" }, "geometry": { "type": "GeometryCollection", "geometries": [ { "type": "Polygon", "coordinates": [ [ [ -86.866498, 36.160667 ], [ -86.866279, 36.160174 ], [ -86.865676, 36.159336 ], [ -86.864548, 36.158716 ], [ -86.861628, 36.157829 ], [ -86.859343, 36.156981 ], [ -86.858659, 36.156585 ], [ -86.858186, 36.156176 ], [ -86.857425, 36.155025 ], [ -86.857526, 36.153929 ], [ -86.857671, 36.152446 ], [ -86.857684, 36.152272 ], [ -86.857847, 36.150709 ], [ -86.857953, 36.150156 ], [ -86.857909, 36.14892 ], [ -86.8579, 36.148421 ], [ -86.857968, 36.145007 ], [ -86.857729, 36.143291 ], [ -86.857427, 36.14138 ], [ -86.857382, 36.139538 ], [ -86.858642, 36.139665 ], [ -86.860105, 36.139624 ], [ -86.861228, 36.13819 ], [ -86.863037, 36.1384 ], [ -86.86337, 36.138428 ], [ -86.866672, 36.138145 ], [ -86.866841, 36.138124 ], [ -86.867061, 36.138089 ], [ -86.867354, 36.138033 ], [ -86.867601, 36.137978 ], [ -86.867921004664595, 36.137883218595888 ], [ -86.869339, 36.137586 ], [ -86.869856, 36.137646 ], [ -86.870134, 36.137695 ], [ -86.870312, 36.137721 ], [ -86.870598, 36.137765 ], [ -86.870792, 36.137788 ], [ -86.870995, 36.137793 ], [ -86.871338, 36.137769 ], [ -86.871659, 36.13771 ], [ -86.872059, 36.13758 ], [ -86.87293, 36.137273 ], [ -86.873162, 36.137186 ], [ -86.873203401350423, 36.137170551825662 ], [ -86.873935, 36.136915 ], [ -86.875441, 36.137349 ], [ -86.87799, 36.138894 ], [ -86.87923, 36.140147 ], [ -86.879018, 36.140318 ], [ -86.878382, 36.140832 ], [ -86.87829, 36.140908 ], [ -86.878155, 36.14098 ], [ -86.877458, 36.141356 ], [ -86.877441, 36.141363 ], [ -86.877235, 36.141452 ], [ -86.877013, 36.141555 ], [ -86.876603, 36.141731 ], [ -86.876037, 36.142015 ], [ -86.875562, 36.142266 ], [ -86.875272, 36.142448 ], [ -86.874874, 36.1427 ], [ -86.874612, 36.142915 ], [ -86.874529, 36.14297 ], [ -86.874371, 36.143075 ], [ -86.874283, 36.143139 ], [ -86.874204, 36.143199 ], [ -86.873986, 36.143384 ], [ -86.8738, 36.143543 ], [ -86.873321, 36.143923 ], [ -86.873243, 36.143986 ], [ -86.873101, 36.144105 ], [ -86.873023, 36.144169 ], [ -86.872891, 36.14428 ], [ -86.872795, 36.144368 ], [ -86.872721, 36.144437 ], [ -86.872916, 36.144612 ], [ -86.872937, 36.144631 ], [ -86.873151, 36.144868 ], [ -86.873307, 36.145117 ], [ -86.873366, 36.145249 ], [ -86.873411, 36.145349 ], [ -86.873431, 36.145501 ], [ -86.873492, 36.145661 ], [ -86.873494, 36.145689 ], [ -86.873545, 36.146288 ], [ -86.873563, 36.146488 ], [ -86.873615, 36.146652 ], [ -86.873656, 36.146951 ], [ -86.873671, 36.147018 ], [ -86.873692, 36.147106 ], [ -86.873785, 36.147437 ], [ -86.873937, 36.147651 ], [ -86.874613, 36.148296 ], [ -86.875007, 36.148672 ], [ -86.874934, 36.148706 ], [ -86.874887, 36.148726 ], [ -86.87469, 36.148811 ], [ -86.874522, 36.148875 ], [ -86.8744, 36.148922 ], [ -86.874363, 36.148936 ], [ -86.874203, 36.148989 ], [ -86.87403, 36.149049 ], [ -86.873861, 36.1491 ], [ -86.873611, 36.14918 ], [ -86.873414, 36.149244 ], [ -86.873524, 36.149381 ], [ -86.873598, 36.149481 ], [ -86.873739, 36.149678 ], [ -86.873786, 36.149744 ], [ -86.873938, 36.149899 ], [ -86.874004, 36.149979 ], [ -86.874623, 36.150718 ], [ -86.87483, 36.150965 ], [ -86.874918, 36.15107 ], [ -86.875182, 36.151387 ], [ -86.875271, 36.151493 ], [ -86.875535, 36.151845 ], [ -86.876071, 36.152491 ], [ -86.87584, 36.152584 ], [ -86.874915, 36.153062 ], [ -86.874902, 36.153066 ], [ -86.875154, 36.153391 ], [ -86.875249, 36.153605 ], [ -86.875262, 36.153664 ], [ -86.875294, 36.153766 ], [ -86.875316, 36.153872 ], [ -86.87533, 36.153998 ], [ -86.875333, 36.154126 ], [ -86.875298, 36.154371 ], [ -86.875228, 36.154806 ], [ -86.87509, 36.155546 ], [ -86.875076, 36.155625 ], [ -86.874981, 36.156109 ], [ -86.874941, 36.156338 ], [ -86.874938, 36.156353 ], [ -86.874907, 36.156491 ], [ -86.874686, 36.157643 ], [ -86.874901, 36.157695 ], [ -86.875148, 36.157739 ], [ -86.875727, 36.157842 ], [ -86.876545, 36.157983 ], [ -86.877011, 36.158064 ], [ -86.876995, 36.158177 ], [ -86.876932, 36.158262 ], [ -86.876541, 36.158795 ], [ -86.876411, 36.158973 ], [ -86.876345, 36.159067 ], [ -86.876161, 36.159334 ], [ -86.876148, 36.159349 ], [ -86.876077, 36.15944 ], [ -86.876041, 36.159477 ], [ -86.875935, 36.15959 ], [ -86.87591, 36.159635 ], [ -86.875655, 36.159981 ], [ -86.875499, 36.160193 ], [ -86.874912, 36.161035 ], [ -86.874667, 36.161388 ], [ -86.874545, 36.161556 ], [ -86.874535, 36.161566 ], [ -86.874334, 36.161785 ], [ -86.874099, 36.161953 ], [ -86.874026, 36.16199 ], [ -86.873944, 36.162034 ], [ -86.873886, 36.162062 ], [ -86.873828, 36.16209 ], [ -86.873705, 36.162169 ], [ -86.873582, 36.162248 ], [ -86.873292, 36.162373 ], [ -86.873277, 36.16238 ], [ -86.873148, 36.16242 ], [ -86.873128, 36.162426 ], [ -86.87307, 36.162443 ], [ -86.873051, 36.16245 ], [ -86.872924, 36.162484 ], [ -86.872542, 36.162586 ], [ -86.872416, 36.162621 ], [ -86.871775, 36.162814 ], [ -86.869855, 36.163395 ], [ -86.869215, 36.163589 ], [ -86.869015, 36.163647 ], [ -86.868815, 36.163706 ], [ -86.868545, 36.163785 ], [ -86.86839, 36.16383 ], [ -86.868365, 36.163838 ], [ -86.868275, 36.163865 ], [ -86.868185, 36.163892 ], [ -86.866498, 36.160667 ] ] ] }, { "type": "Polygon", "coordinates": [ [ [ -86.880901860566411, 36.138801584423256 ], [ -86.880823, 36.138864 ], [ -86.880783050202098, 36.138895345271159 ], [ -86.880901860566411, 36.138801584423256 ] ] ] }, { "type": "Polygon", "coordinates": [ [ [ -86.879990403503825, 36.139532065718008 ], [ -86.87993, 36.139581 ], [ -86.87958, 36.139864 ], [ -86.879576273306768, 36.139866972485315 ], [ -86.879990403503825, 36.139532065718008 ] ] ] }, { "type": "Point", "coordinates": [ -86.880563, 36.139069 ] }, { "type": "Point", "coordinates": [ -86.885229, 36.13579 ] }, { "type": "Point", "coordinates": [ -86.883524, 36.136766 ] }, { "type": "Point", "coordinates": [ -86.881246, 36.13853 ] } ] } },
{ "type": "Feature", "properties": { "precinct_key": "DAVIDSON - 001898", "name20": "Davidson - 001898", "county_norm": "DAVIDSON", "prec_id": "001898", "district_num": "59", "area_weight": 0.00022414717116345557, "geometry_status": "sliver", "suggested_action": "manual_split_review" }, "geometry": { "type": "GeometryCollection", "geometries": [ { "type": "Polygon", "coordinates": [ [ [ -86.888792, 36.134422 ], [ -86.8885, 36.13454 ], [ -86.888073, 36.134712 ], [ -86.888792, 36.134422 ] ] ] }, { "type": "Polygon", "coordinates": [ [ [ -86.887058682532142, 36.13509648193655 ], [ -86.886855, 36.135174 ], [ -86.886531851181786, 36.135296174921478 ], [ -86.887058682532142, 36.13509648193655 ] ] ] }, { "type": "Polygon", "coordinates": [ [ [ -86.873203401350423, 36.137170551825662 ], [ -86.873162, 36.137186 ], [ -86.87293, 36.137273 ], [ -86.872059, 36.13758 ], [ -86.871659, 36.13771 ], [ -86.873203401350423, 36.137170551825662 ] ] ] }, { "type": "Polygon", "coordinates": [ [ [ -86.871659, 36.13771 ], [ -86.871338, 36.137769 ], [ -86.870995, 36.137793 ], [ -86.870792, 36.137788 ], [ -86.870598, 36.137765 ], [ -86.870312, 36.137721 ], [ -86.870134, 36.137695 ], [ -86.869856, 36.137646 ], [ -86.869339, 36.137586 ], [ -86.871659, 36.13771 ] ] ] }, { "type": "Polygon", "coordinates": [ [ [ -86.867921004664595, 36.137883218595888 ], [ -86.867601, 36.137978 ], [ -86.867354, 36.138033 ], [ -86.867061, 36.138089 ], [ -86.866841, 36.138124 ], [ -86.866672, 36.138145 ], [ -86.867921004664595, 36.137883218595888 ] ] ] }, { "type": "Polygon", "coordinates": [ [ [ -86.86337, 36.138428 ], [ -86.863037, 36.1384 ], [ -86.861228, 36.13819 ], [ -86.86337, 36.138428 ] ] ] }, { "type": "LineString", "coordinates": [ [ -86.898479, 36.130826 ], [ -86.896737, 36.13147 ] ] }, { "type": "LineString", "coordinates": [ [ -86.896737, 36.13147 ], [ -86.895948, 36.131778 ] ] }, { "type": "LineString", "coordinates": [ [ -86.895948, 36.131778 ], [ -86.895614, 36.131882 ] ] }, { "type": "Point", "coordinates": [ -86.890211, 36.133856 ] }, { "type": "Point", "coordinates": [ -86.885229, 36.13579 ] }, { "type": "Point", "coordinates": [ -86.875441, 36.137349 ] }, { "type": "Point", "coordinates": [ -86.873935, 36.136915 ] } ] } }
]
}
