{
"type": "FeatureCollection",
"name": "intersection_pieces",
"crs": { "type": "name", "properties": { "name": "urn:ogc:def:crs:OGC:1.3:CRS84" } },
"features": [
{ "type": "Feature", "properties": { "precinct_key": "MAURY - 005951", "name20": "Maury - 005951", "county_norm": "MAURY", "prec_id": "005951", "district_num": "64", "area_weight": 0.71776075310388898, "geometry_status": "dominant", "suggested_action": "manual_split_review" }, "geometry": { "type": "Polygon", "coordinates": [ [ [ -86.874839, 35.731526 ], [ -86.876719, 35.723479 ], [ -86.876953, 35.722467 ], [ -86.877825, 35.718807 ], [ -86.878613, 35.715651 ], [ -86.882313, 35.701942 ], [ -86.88554, 35.689979 ], [ -86.885756, 35.690199 ], [ -86.889473, 35.693769 ], [ -86.893776, 35.697264 ], [ -86.896131, 35.699447 ], [ -86.896605, 35.699927 ], [ -86.898199, 35.701694 ], [ -86.898666, 35.702225 ], [ -86.899984, 35.703759 ], [ -86.901117, 35.705066 ], [ -86.901309, 35.705288 ], [ -86.90157, 35.705579 ], [ -86.903405, 35.707293 ], [ -86.907558, 35.709318 ], [ -86.909535, 35.710124 ], [ -86.911042, 35.710736 ], [ -86.912011, 35.711126 ], [ -86.912407, 35.711286 ], [ -86.913234, 35.711621 ], [ -86.917042, 35.713169 ], [ -86.919861, 35.714458 ], [ -86.920899, 35.715173 ], [ -86.921373, 35.715561 ], [ -86.924044, 35.71357 ], [ -86.926025, 35.714239 ], [ -86.927861, 35.714375 ], [ -86.929871, 35.715006 ], [ -86.934837, 35.715552 ], [ -86.935174, 35.717826 ], [ -86.9373, 35.714623 ], [ -86.940909, 35.714912 ], [ -86.945129, 35.715291 ], [ -86.954573, 35.71625 ], [ -86.954898, 35.716335 ], [ -86.956018, 35.716936 ], [ -86.95853, 35.717561 ], [ -86.960492, 35.717626 ], [ -86.963139, 35.718662 ], [ -86.96519, 35.718665 ], [ -86.966035, 35.719127 ], [ -86.966113, 35.71913 ], [ -86.96616, 35.719133 ], [ -86.966321, 35.719232 ], [ -86.966336, 35.719241 ], [ -86.966388, 35.719274 ], [ -86.966642, 35.719431 ], [ -86.966694, 35.719464 ], [ -86.966978, 35.719643 ], [ -86.967406, 35.719899 ], [ -86.967515, 35.719964 ], [ -86.967664, 35.720052 ], [ -86.969357, 35.718329 ], [ -86.969585, 35.718096 ], [ -86.97104, 35.716442 ], [ -86.972642, 35.713794 ], [ -86.972672, 35.713725 ], [ -86.973525, 35.71186 ], [ -86.973894, 35.711063 ], [ -86.974108, 35.711023 ], [ -86.974098, 35.711046 ], [ -86.973887, 35.711503 ], [ -86.973695, 35.711925 ], [ -86.973669, 35.711982 ], [ -86.973402, 35.712575 ], [ -86.972833, 35.713807 ], [ -86.972474, 35.714534 ], [ -86.972179, 35.715056 ], [ -86.971949, 35.715443 ], [ -86.971611, 35.715975 ], [ -86.971493, 35.716126 ], [ -86.971461, 35.716167 ], [ -86.970845, 35.716954 ], [ -86.970655, 35.717181 ], [ -86.97055, 35.717307 ], [ -86.970403, 35.717484 ], [ -86.970213, 35.71768 ], [ -86.970196, 35.717698 ], [ -86.970162, 35.717733 ], [ -86.970149, 35.717746 ], [ -86.969963, 35.717962 ], [ -86.96977, 35.718155 ], [ -86.969679, 35.718247 ], [ -86.969553, 35.718374 ], [ -86.969824, 35.71845 ], [ -86.969941, 35.718483 ], [ -86.969526, 35.718824 ], [ -86.969419, 35.718914 ], [ -86.969262, 35.719046 ], [ -86.969251, 35.719071 ], [ -86.969245, 35.719086 ], [ -86.969174, 35.719121 ], [ -86.969151, 35.719134 ], [ -86.969048, 35.719224 ], [ -86.968278, 35.719892 ], [ -86.967867, 35.72025 ], [ -86.967824, 35.720277 ], [ -86.967698, 35.720359 ], [ -86.967657, 35.720387 ], [ -86.967412, 35.720708 ], [ -86.967202, 35.720926 ], [ -86.965735, 35.722454 ], [ -86.965246, 35.722964 ], [ -86.965203, 35.723006 ], [ -86.964479, 35.723718 ], [ -86.96218, 35.725983 ], [ -86.96182, 35.726339 ], [ -86.96173, 35.726427 ], [ -86.961368, 35.726684 ], [ -86.96002, 35.728104 ], [ -86.956612, 35.731697 ], [ -86.955903, 35.732285 ], [ -86.955505, 35.732615 ], [ -86.955108, 35.732946 ], [ -86.954449, 35.733493 ], [ -86.954397, 35.733535 ], [ -86.953987, 35.733792 ], [ -86.95276, 35.734562 ], [ -86.952351, 35.73482 ], [ -86.952122, 35.734981 ], [ -86.951435, 35.735467 ], [ -86.951207, 35.73563 ], [ -86.951367, 35.735738 ], [ -86.951292, 35.735794 ], [ -86.951207, 35.735852 ], [ -86.951086, 35.73594 ], [ -86.951001, 35.735999 ], [ -86.950882, 35.736085 ], [ -86.950799, 35.736145 ], [ -86.950675, 35.736234 ], [ -86.947709, 35.73833 ], [ -86.947011, 35.738823 ], [ -86.946863, 35.738928 ], [ -86.946771, 35.738993 ], [ -86.946705, 35.738797 ], [ -86.945914, 35.73936 ], [ -86.944613, 35.740281 ], [ -86.943933, 35.74076 ], [ -86.943349, 35.74117 ], [ -86.941474, 35.742486 ], [ -86.94049, 35.743175 ], [ -86.939916, 35.743572 ], [ -86.939491, 35.743865 ], [ -86.938591, 35.744484 ], [ -86.938452, 35.744522 ], [ -86.938346, 35.744592 ], [ -86.93766, 35.745076 ], [ -86.937542, 35.74516 ], [ -86.935921, 35.746302 ], [ -86.935727, 35.746438 ], [ -86.935601, 35.746526 ], [ -86.934917, 35.747012 ], [ -86.934841, 35.747077 ], [ -86.934818, 35.747098 ], [ -86.934597, 35.747251 ], [ -86.934516, 35.747309 ], [ -86.93449, 35.747327 ], [ -86.934433, 35.747365 ], [ -86.934187, 35.747534 ], [ -86.934105, 35.747591 ], [ -86.93388, 35.747748 ], [ -86.933471, 35.748037 ], [ -86.933216, 35.748236 ], [ -86.933192, 35.748255 ], [ -86.933003, 35.748409 ], [ -86.932846, 35.748546 ], [ -86.932469, 35.748879 ], [ -86.932379, 35.748963 ], [ -86.932265, 35.749073 ], [ -86.932239, 35.749098 ], [ -86.932229, 35.749108 ], [ -86.932147, 35.749189 ], [ -86.932038, 35.749298 ], [ -86.931901, 35.74943 ], [ -86.931819, 35.749511 ], [ -86.931591, 35.749731 ], [ -86.93032, 35.750965 ], [ -86.93026, 35.751007 ], [ -86.930263, 35.751024 ], [ -86.92942, 35.751945 ], [ -86.928891, 35.752496 ], [ -86.92884, 35.752544 ], [ -86.928688, 35.752691 ], [ -86.928664, 35.752715 ], [ -86.928638, 35.75274 ], [ -86.928392, 35.752984 ], [ -86.927657, 35.753718 ], [ -86.927412, 35.753964 ], [ -86.927144, 35.75423 ], [ -86.926358, 35.755011 ], [ -86.92634, 35.755028 ], [ -86.926072, 35.755295 ], [ -86.925977, 35.755388 ], [ -86.925781, 35.755584 ], [ -86.925695, 35.755669 ], [ -86.925601, 35.755764 ], [ -86.925519, 35.755845 ], [ -86.925296, 35.756071 ], [ -86.925275, 35.756091 ], [ -86.925189, 35.756173 ], [ -86.925009, 35.756123 ], [ -86.924984, 35.756117 ], [ -86.924419, 35.755987 ], [ -86.92437, 35.755976 ], [ -86.924167, 35.755932 ], [ -86.92162, 35.755236 ], [ -86.919778, 35.754725 ], [ -86.91874, 35.754438 ], [ -86.915461, 35.753444 ], [ -86.914865, 35.753175 ], [ -86.91487, 35.753151 ], [ -86.914826, 35.753127 ], [ -86.914513, 35.753017 ], [ -86.913495, 35.752661 ], [ -86.913083, 35.752518 ], [ -86.912089, 35.752165 ], [ -86.911548, 35.751973 ], [ -86.910862, 35.75173 ], [ -86.909667, 35.751307 ], [ -86.909111, 35.75111 ], [ -86.908119, 35.75076 ], [ -86.907905, 35.750684 ], [ -86.9073, 35.750471 ], [ -86.907266, 35.75046 ], [ -86.907052, 35.750393 ], [ -86.903596794734753, 35.749255599503343 ], [ -86.903595, 35.749255 ], [ -86.902808, 35.748994 ], [ -86.902728, 35.748967 ], [ -86.902708, 35.748963 ], [ -86.900964, 35.74835 ], [ -86.900617, 35.748228 ], [ -86.899689, 35.747903 ], [ -86.898804, 35.747593 ], [ -86.898613, 35.747526 ], [ -86.898493, 35.747484 ], [ -86.8976, 35.74717 ], [ -86.896904, 35.746926 ], [ -86.89559, 35.746466 ], [ -86.89541, 35.746403 ], [ -86.894728, 35.746164 ], [ -86.894583, 35.746113 ], [ -86.894508, 35.746086 ], [ -86.894351329097475, 35.746031687482962 ], [ -86.894027551375558, 35.745917953324984 ], [ -86.893806, 35.74584 ], [ -86.893706, 35.745805 ], [ -86.892855, 35.745506 ], [ -86.891365, 35.744984 ], [ -86.890457, 35.744667 ], [ -86.888056, 35.743823 ], [ -86.887592, 35.743661 ], [ -86.886877, 35.74341 ], [ -86.886821, 35.74339 ], [ -86.886655, 35.743332 ], [ -86.8866, 35.743313 ], [ -86.886506, 35.74328 ], [ -86.885865248729374, 35.743055260073753 ], [ -86.885594, 35.74296 ], [ -86.883987, 35.742396 ], [ -86.88361, 35.742264 ], [ -86.883345678147251, 35.742171487965628 ], [ -86.882818566542824, 35.741986587282433 ], [ -86.882327, 35.741813 ], [ -86.880458, 35.741158 ], [ -86.879838, 35.740941 ], [ -86.879403, 35.740787 ], [ -86.879364, 35.740777 ], [ -86.877917, 35.7404 ], [ -86.87763, 35.740325 ], [ -86.877436, 35.740276 ], [ -86.877104, 35.740189 ], [ -86.876109, 35.739929 ], [ -86.875778, 35.739843 ], [ -86.875233, 35.739701 ], [ -86.875, 35.73964 ], [ -86.873589, 35.739324 ], [ -86.87331, 35.739262 ], [ -86.873047, 35.739204 ], [ -86.874839, 35.731526 ] ] ] } },
{ "type": "Feature", "properties": { "precinct_key": "MAURY - 005951", "name20": "Maury - 005951", "county_norm": "MAURY", "prec_id": "005951", "district_num": "71", "area_weight": 0.28216531562897995, "geometry_status": "real_secondary", "suggested_action": "manual_split_review" }, "geometry": { "type": "Polygon", "coordinates": [ [ [ -86.934871, 35.760223 ], [ -86.92911, 35.757261 ], [ -86.928979, 35.757196 ], [ -86.927966, 35.756922 ], [ -86.925189, 35.756173 ], [ -86.925275, 35.756091 ], [ -86.925296, 35.756071 ], [ -86.925519, 35.755845 ], [ -86.925601, 35.755764 ], [ -86.925695, 35.755669 ], [ -86.925781, 35.755584 ], [ -86.925977, 35.755388 ], [ -86.926072, 35.755295 ], [ -86.92634, 35.755028 ], [ -86.926358, 35.755011 ], [ -86.927144, 35.75423 ], [ -86.927412, 35.753964 ], [ -86.927657, 35.753718 ], [ -86.928392, 35.752984 ], [ -86.928638, 35.75274 ], [ -86.928664, 35.752715 ], [ -86.928688, 35.752691 ], [ -86.92884, 35.752544 ], [ -86.928891, 35.752496 ], [ -86.92942, 35.751945 ], [ -86.930263, 35.751024 ], [ -86.93026, 35.751007 ], [ -86.93032, 35.750965 ], [ -86.931591, 35.749731 ], [ -86.931819, 35.749511 ], [ -86.931901, 35.74943 ], [ -86.932038, 35.749298 ], [ -86.932147, 35.749189 ], [ -86.932229, 35.749108 ], [ -86.932239, 35.749098 ], [ -86.932265, 35.749073 ], [ -86.932379, 35.748963 ], [ -86.932469, 35.748879 ], [ -86.932846, 35.748546 ], [ -86.933003, 35.748409 ], [ -86.933192, 35.748255 ], [ -86.933216, 35.748236 ], [ -86.933471, 35.748037 ], [ -86.93388, 35.747748 ], [ -86.934105, 35.747591 ], [ -86.934187, 35.747534 ], [ -86.934433, 35.747365 ], [ -86.93449, 35.747327 ], [ -86.934516, 35.747309 ], [ -86.934597, 35.747251 ], [ -86.934818, 35.747098 ], [ -86.934841, 35.747077 ], [ -86.934917, 35.747012 ], [ -86.935601, 35.746526 ], [ -86.935727, 35.746438 ], [ -86.935921, 35.746302 ], [ -86.937542, 35.74516 ], [ -86.93766, 35.745076 ], [ -86.938346, 35.744592 ], [ -86.938452, 35.744522 ], [ -86.938591, 35.744484 ], [ -86.939491, 35.743865 ], [ -86.939916, 35.743572 ], [ -86.94049, 35.743175 ], [ -86.941474, 35.742486 ], [ -86.943349, 35.74117 ], [ -86.943933, 35.74076 ], [ -86.944613, 35.740281 ], [ -86.945914, 35.73936 ], [ -86.946705, 35.738797 ], [ -86.946771, 35.738993 ], [ -86.946863, 35.738928 ], [ -86.947011, 35.738823 ], [ -86.947709, 35.73833 ], [ -86.950675, 35.736234 ], [ -86.950799, 35.736145 ], [ -86.950882, 35.736085 ], [ -86.951001, 35.735999 ], [ -86.951086, 35.73594 ], [ -86.951207, 35.735852 ], [ -86.951292, 35.735794 ], [ -86.951367, 35.735738 ], [ -86.951207, 35.73563 ], [ -86.951435, 35.735467 ], [ -86.952122, 35.734981 ], [ -86.952351, 35.73482 ], [ -86.95276, 35.734562 ], [ -86.953987, 35.733792 ], [ -86.954397, 35.733535 ], [ -86.954449, 35.733493 ], [ -86.955108, 35.732946 ], [ -86.955505, 35.732615 ], [ -86.955903, 35.732285 ], [ -86.956612, 35.731697 ], [ -86.96002, 35.728104 ], [ -86.961368, 35.726684 ], [ -86.96173, 35.726427 ], [ -86.96182, 35.726339 ], [ -86.96218, 35.725983 ], [ -86.964479, 35.723718 ], [ -86.965203, 35.723006 ], [ -86.965246, 35.722964 ], [ -86.965735, 35.722454 ], [ -86.967202, 35.720926 ], [ -86.967412, 35.720708 ], [ -86.967657, 35.720387 ], [ -86.967698, 35.720359 ], [ -86.967824, 35.720277 ], [ -86.967867, 35.72025 ], [ -86.968278, 35.719892 ], [ -86.969048, 35.719224 ], [ -86.969151, 35.719134 ], [ -86.969174, 35.719121 ], [ -86.969245, 35.719086 ], [ -86.969251, 35.719071 ], [ -86.969262, 35.719046 ], [ -86.969419, 35.718914 ], [ -86.969526, 35.718824 ], [ -86.969941, 35.718483 ], [ -86.969824, 35.71845 ], [ -86.969553, 35.718374 ], [ -86.969679, 35.718247 ], [ -86.96977, 35.718155 ], [ -86.969963, 35.717962 ], [ -86.970149, 35.717746 ], [ -86.970162, 35.717733 ], [ -86.970196, 35.717698 ], [ -86.970213, 35.71768 ], [ -86.970403, 35.717484 ], [ -86.97055, 35.717307 ], [ -86.970655, 35.717181 ], [ -86.970845, 35.716954 ], [ -86.971461, 35.716167 ], [ -86.971493, 35.716126 ], [ -86.971611, 35.715975 ], [ -86.971949, 35.715443 ], [ -86.972179, 35.715056 ], [ -86.972474, 35.714534 ], [ -86.972833, 35.713807 ], [ -86.973402, 35.712575 ], [ -86.973669, 35.711982 ], [ -86.973695, 35.711925 ], [ -86.973887, 35.711503 ], [ -86.974098, 35.711046 ], [ -86.974108, 35.711023 ], [ -86.975322, 35.710968 ], [ -86.975459, 35.710379 ], [ -86.976284, 35.710412 ], [ -86.977857, 35.71052 ], [ -86.980128, 35.710806 ], [ -86.98115, 35.710939 ], [ -86.982029, 35.711039 ], [ -86.982664, 35.711118 ], [ -86.983591, 35.71123 ], [ -86.983899, 35.711268 ], [ -86.98481, 35.711376 ], [ -86.985925, 35.711697 ], [ -86.989661, 35.713624 ], [ -86.991266, 35.713769 ], [ -86.991301, 35.713772 ], [ -86.993249, 35.714227 ], [ -86.994245, 35.715198 ], [ -86.994393, 35.717194 ], [ -86.993231, 35.71885 ], [ -86.991354, 35.722516 ], [ -86.988784, 35.726114 ], [ -86.98807, 35.72694 ], [ -86.988099, 35.727214 ], [ -86.980793, 35.732545 ], [ -86.977526, 35.734887 ], [ -86.976126, 35.735871 ], [ -86.974862, 35.73685 ], [ -86.973725, 35.737915 ], [ -86.972758, 35.739047 ], [ -86.972669, 35.739159 ], [ -86.972364, 35.739548 ], [ -86.972255, 35.739688 ], [ -86.971912, 35.74022 ], [ -86.971607, 35.740788 ], [ -86.971466, 35.741114 ], [ -86.971049, 35.741115 ], [ -86.968775, 35.744172 ], [ -86.968271, 35.744725 ], [ -86.965707, 35.746732 ], [ -86.963402, 35.74813 ], [ -86.960307, 35.749556 ], [ -86.95323, 35.751791 ], [ -86.950868, 35.752809 ], [ -86.948187, 35.754343 ], [ -86.944883, 35.756973 ], [ -86.939904, 35.76133 ], [ -86.938749, 35.762239 ], [ -86.935994, 35.764634 ], [ -86.935011, 35.765502 ], [ -86.933488, 35.767611 ], [ -86.933124, 35.768181 ], [ -86.932461, 35.769502 ], [ -86.931867, 35.771283 ], [ -86.931318, 35.773898 ], [ -86.930905, 35.775178 ], [ -86.930364, 35.776255 ], [ -86.92938, 35.777607 ], [ -86.928779, 35.778095 ], [ -86.928698, 35.778087 ], [ -86.928459, 35.778064 ], [ -86.92838, 35.778058 ], [ -86.92836, 35.778057 ], [ -86.928918, 35.777644 ], [ -86.928935, 35.777589 ], [ -86.929073919887202, 35.777174046092604 ], [ -86.929779, 35.776302 ], [ -86.930293452573409, 35.775070398683852 ], [ -86.930326, 35.774993 ], [ -86.930515, 35.77454 ], [ -86.932333, 35.768726 ], [ -86.932512, 35.768411 ], [ -86.933336, 35.76697 ], [ -86.933361, 35.766898 ], [ -86.935816, 35.764077 ], [ -86.938278, 35.761972 ], [ -86.934871, 35.760223 ] ] ] } },
{ "type": "Feature", "properties": { "precinct_key": "MAURY - 005951", "name20": "Maury - 005951", "county_norm": "MAURY", "prec_id": "005951", "district_num": "92", "area_weight": 7.3931267132364251e-05, "geometry_status": "sliver", "suggested_action": "manual_split_review" }, "geometry": { "type": "GeometryCollection", "geometries": [ { "type": "Polygon", "coordinates": [ [ [ -86.933361, 35.766898 ], [ -86.933336, 35.76697 ], [ -86.932512, 35.768411 ], [ -86.932333, 35.768726 ], [ -86.933361, 35.766898 ] ] ] }, { "type": "Polygon", "coordinates": [ [ [ -86.930515, 35.77454 ], [ -86.930326, 35.774993 ], [ -86.930293452573409, 35.775070398683852 ], [ -86.930515, 35.77454 ] ] ] }, { "type": "Polygon", "coordinates": [ [ [ -86.929073919887202, 35.777174046092604 ], [ -86.928935, 35.777589 ], [ -86.928918, 35.777644 ], [ -86.92836, 35.778057 ], [ -86.929073919887202, 35.777174046092604 ] ] ] }, { "type": "Polygon", "coordinates": [ [ [ -86.92836, 35.778057 ], [ -86.92838, 35.778058 ], [ -86.928459, 35.778064 ], [ -86.928698, 35.778087 ], [ -86.928779, 35.778095 ], [ -86.92836, 35.778057 ] ] ] }, { "type": "Polygon", "coordinates": [ [ [ -86.87331, 35.739262 ], [ -86.873589, 35.739324 ], [ -86.875, 35.73964 ], [ -86.875233, 35.739701 ], [ -86.875778, 35.739843 ], [ -86.876109, 35.739929 ], [ -86.877104, 35.740189 ], [ -86.877436, 35.740276 ], [ -86.87763, 35.740325 ], [ -86.87331, 35.739262 ] ] ] }, { "type": "Polygon", "coordinates": [ [ [ -86.87763, 35.740325 ], [ -86.877917, 35.7404 ], [ -86.879364, 35.740777 ], [ -86.879403, 35.740787 ], [ -86.879838, 35.740941 ], [ -86.87763, 35.740325 ] ] ] }, { "type": "Polygon", "coordinates": [ [ [ -86.879838, 35.740941 ], [ -86.880458, 35.741158 ], [ -86.882327, 35.741813 ], [ -86.882818566542824, 35.741986587282433 ], [ -86.879838, 35.740941 ] ] ] }, { "type": "Polygon", "coordinates": [ [ [ -86.883345678147251, 35.742171487965628 ], [ -86.88361, 35.742264 ], [ -86.883987, 35.742396 ], [ -86.885594, 35.74296 ], [ -86.885865248729374, 35.743055260073753 ], [ -86.883345678147251, 35.742171487965628 ] ] ] }, { "type": "Polygon", "coordinates": [ [ [ -86.893706, 35.745805 ], [ -86.893806, 35.74584 ], [ -86.894027551375558, 35.745917953324984 ], [ -86.893706, 35.745805 ] ] ] }, { "type": "Polygon", "coordinates": [ [ [ -86.894351329097475, 35.746031687482962 ], [ -86.894508, 35.746086 ], [ -86.894583, 35.746113 ], [ -86.894728, 35.746164 ], [ -86.894351329097475, 35.746031687482962 ] ] ] }, { "type": "Polygon", "coordinates": [ [ [ -86.89541, 35.746403 ], [ -86.89559, 35.746466 ], [ -86.896904, 35.746926 ], [ -86.89541, 35.746403 ] ] ] }, { "type": "Polygon", "coordinates": [ [ [ -86.898493, 35.747484 ], [ -86.898613, 35.747526 ], [ -86.898804, 35.747593 ], [ -86.898493, 35.747484 ] ] ] }, { "type": "Polygon", "coordinates": [ [ [ -86.902708, 35.748963 ], [ -86.902728, 35.748967 ], [ -86.902808, 35.748994 ], [ -86.903595, 35.749255 ], [ -86.903596794734753, 35.749255599503343 ], [ -86.902708, 35.748963 ] ] ] }, { "type": "Polygon", "coordinates": [ [ [ -86.907052, 35.750393 ], [ -86.907266, 35.75046 ], [ -86.9073, 35.750471 ], [ -86.907905, 35.750684 ], [ -86.908119, 35.75076 ], [ -86.909111, 35.75111 ], [ -86.909667, 35.751307 ], [ -86.907052, 35.750393 ] ] ] }, { "type": "Polygon", "coordinates": [ [ [ -86.911548, 35.751973 ], [ -86.912089, 35.752165 ], [ -86.913083, 35.752518 ], [ -86.911548, 35.751973 ] ] ] }, { "type": "Polygon", "coordinates": [ [ [ -86.913495, 35.752661 ], [ -86.914513, 35.753017 ], [ -86.914826, 35.753127 ], [ -86.91487, 35.753151 ], [ -86.913495, 35.752661 ] ] ] }, { "type": "Polygon", "coordinates": [ [ [ -86.91874, 35.754438 ], [ -86.919778, 35.754725 ], [ -86.92162, 35.755236 ], [ -86.91874, 35.754438 ] ] ] }, { "type": "Polygon", "coordinates": [ [ [ -86.924167, 35.755932 ], [ -86.92437, 35.755976 ], [ -86.924419, 35.755987 ], [ -86.924984, 35.756117 ], [ -86.925009, 35.756123 ], [ -86.925189, 35.756173 ], [ -86.924167, 35.755932 ] ] ] }, { "type": "Polygon", "coordinates": [ [ [ -86.925189, 35.756173 ], [ -86.927966, 35.756922 ], [ -86.928979, 35.757196 ], [ -86.92911, 35.757261 ], [ -86.925189, 35.756173 ] ] ] }, { "type": "LineString", "coordinates": [ [ -86.873047, 35.739204 ], [ -86.87331, 35.739262 ] ] }, { "type": "LineString", "coordinates": [ [ -86.886506, 35.74328 ], [ -86.8866, 35.743313 ] ] }, { "type": "LineString", "coordinates": [ [ -86.8866, 35.743313 ], [ -86.886655, 35.743332 ] ] }, { "type": "LineString", "coordinates": [ [ -86.886655, 35.743332 ], [ -86.886821, 35.74339 ] ] }, { "type": "LineString", "coordinates": [ [ -86.886821, 35.74339 ], [ -86.886877, 35.74341 ] ] }, { "type": "LineString", "coordinates": [ [ -86.886877, 35.74341 ], [ -86.887592, 35.743661 ] ] }, { "type": "LineString", "coordinates": [ [ -86.887592, 35.743661 ], [ -86.888056, 35.743823 ] ] }, { "type": "LineString", "coordinates": [ [ -86.894728, 35.746164 ], [ -86.89541, 35.746403 ] ] }, { "type": "LineString", "coordinates": [ [ -86.896904, 35.746926 ], [ -86.8976, 35.74717 ] ] }, { "type": "LineString", "coordinates": [ [ -86.8976, 35.74717 ], [ -86.898493, 35.747484 ] ] }, { "type": "LineString", "coordinates": [ [ -86.900617, 35.748228 ], [ -86.900964, 35.74835 ] ] }, { "type": "LineString", "coordinates": [ [ -86.909667, 35.751307 ], [ -86.910862, 35.75173 ] ] }, { "type": "LineString", "coordinates": [ [ -86.910862, 35.75173 ], [ -86.911548, 35.751973 ] ] }, { "type": "LineString", "coordinates": [ [ -86.91487, 35.753151 ], [ -86.914865, 35.753175 ] ] }, { "type": "LineString", "coordinates": [ [ -86.92911, 35.757261 ], [ -86.934871, 35.760223 ] ] }, { "type": "Point", "coordinates": [ -86.938278, 35.761972 ] }, { "type": "Point", "coordinates": [ -86.935816, 35.764077 ] }, { "type": "Point", "coordinates": [ -86.929779, 35.776302 ] }, { "type": "Point", "coordinates": [ -86.892855, 35.745506 ] }, { "type": "Point", "coordinates": [ -86.890457, 35.744667 ] }, { "type": "Point", "coordinates": [ -86.891365, 35.744984 ] }, { "type": "Point", "coordinates": [ -86.915461, 35.753444 ] }, { "type": "Point", "coordinates": [ -86.899689, 35.747903 ] } ] } }
]
}
