{
"type": "FeatureCollection",
"name": "precinct",
"crs": { "type": "name", "properties": { "name": "urn:ogc:def:crs:OGC:1.3:CRS84" } },
"features": [
{ "type": "Feature", "properties": { "precinct_key": "MAURY - 005951", "name20": "Maury - 005951", "county_norm": "MAURY", "prec_id": "005951" }, "geometry": { "type": "Polygon", "coordinates": [ [ [ -86.934871, 35.760223 ], [ -86.938278, 35.761972 ], [ -86.935816, 35.764077 ], [ -86.933361, 35.766898 ], [ -86.932333, 35.768726 ], [ -86.930515, 35.77454 ], [ -86.929779, 35.776302 ], [ -86.92836, 35.778057 ], [ -86.928779, 35.778095 ], [ -86.92938, 35.777607 ], [ -86.930364, 35.776255 ], [ -86.930905, 35.775178 ], [ -86.931318, 35.773898 ], [ -86.931867, 35.771283 ], [ -86.932461, 35.769502 ], [ -86.933124, 35.768181 ], [ -86.933488, 35.767611 ], [ -86.935011, 35.765502 ], [ -86.935994, 35.764634 ], [ -86.938749, 35.762239 ], [ -86.939904, 35.76133 ], [ -86.944883, 35.756973 ], [ -86.948187, 35.754343 ], [ -86.950868, 35.752809 ], [ -86.95323, 35.751791 ], [ -86.960307, 35.749556 ], [ -86.963402, 35.74813 ], [ -86.965707, 35.746732 ], [ -86.968271, 35.744725 ], [ -86.968775, 35.744172 ], [ -86.971049, 35.741115 ], [ -86.971466, 35.741114 ], [ -86.971607, 35.740788 ], [ -86.971912, 35.74022 ], [ -86.972255, 35.739688 ], [ -86.972364, 35.739548 ], [ -86.972669, 35.739159 ], [ -86.972758, 35.739047 ], [ -86.973725, 35.737915 ], [ -86.974862, 35.73685 ], [ -86.976126, 35.735871 ], [ -86.977526, 35.734887 ], [ -86.980793, 35.732545 ], [ -86.988099, 35.727214 ], [ -86.98807, 35.72694 ], [ -86.988784, 35.726114 ], [ -86.991354, 35.722516 ], [ -86.993231, 35.71885 ], [ -86.994393, 35.717194 ], [ -86.994245, 35.715198 ], [ -86.993249, 35.714227 ], [ -86.991301, 35.713772 ], [ -86.991266, 35.713769 ], [ -86.989661, 35.713624 ], [ -86.985925, 35.711697 ], [ -86.98481, 35.711376 ], [ -86.983899, 35.711268 ], [ -86.983591, 35.71123 ], [ -86.982664, 35.711118 ], [ -86.982029, 35.711039 ], [ -86.98115, 35.710939 ], [ -86.980128, 35.710806 ], [ -86.977857, 35.71052 ], [ -86.976284, 35.710412 ], [ -86.975459, 35.710379 ], [ -86.975322, 35.710968 ], [ -86.974108, 35.711023 ], [ -86.973894, 35.711063 ], [ -86.973525, 35.71186 ], [ -86.972672, 35.713725 ], [ -86.972642, 35.713794 ], [ -86.97104, 35.716442 ], [ -86.969585, 35.718096 ], [ -86.969357, 35.718329 ], [ -86.967664, 35.720052 ], [ -86.967515, 35.719964 ], [ -86.967406, 35.719899 ], [ -86.966978, 35.719643 ], [ -86.966694, 35.719464 ], [ -86.966642, 35.719431 ], [ -86.966388, 35.719274 ], [ -86.966336, 35.719241 ], [ -86.966321, 35.719232 ], [ -86.96616, 35.719133 ], [ -86.966113, 35.71913 ], [ -86.966035, 35.719127 ], [ -86.96519, 35.718665 ], [ -86.963139, 35.718662 ], [ -86.960492, 35.717626 ], [ -86.95853, 35.717561 ], [ -86.956018, 35.716936 ], [ -86.954898, 35.716335 ], [ -86.954573, 35.71625 ], [ -86.945129, 35.715291 ], [ -86.940909, 35.714912 ], [ -86.9373, 35.714623 ], [ -86.935174, 35.717826 ], [ -86.934837, 35.715552 ], [ -86.929871, 35.715006 ], [ -86.927861, 35.714375 ], [ -86.926025, 35.714239 ], [ -86.924044, 35.71357 ], [ -86.921373, 35.715561 ], [ -86.920899, 35.715173 ], [ -86.919861, 35.714458 ], [ -86.917042, 35.713169 ], [ -86.913234, 35.711621 ], [ -86.912407, 35.711286 ], [ -86.912011, 35.711126 ], [ -86.911042, 35.710736 ], [ -86.909535, 35.710124 ], [ -86.907558, 35.709318 ], [ -86.903405, 35.707293 ], [ -86.90157, 35.705579 ], [ -86.901309, 35.705288 ], [ -86.901117, 35.705066 ], [ -86.899984, 35.703759 ], [ -86.898666, 35.702225 ], [ -86.898199, 35.701694 ], [ -86.896605, 35.699927 ], [ -86.896131, 35.699447 ], [ -86.893776, 35.697264 ], [ -86.889473, 35.693769 ], [ -86.885756, 35.690199 ], [ -86.88554, 35.689979 ], [ -86.882313, 35.701942 ], [ -86.878613, 35.715651 ], [ -86.877825, 35.718807 ], [ -86.876953, 35.722467 ], [ -86.876719, 35.723479 ], [ -86.874839, 35.731526 ], [ -86.873047, 35.739204 ], [ -86.87331, 35.739262 ], [ -86.87763, 35.740325 ], [ -86.879838, 35.740941 ], [ -86.886506, 35.74328 ], [ -86.8866, 35.743313 ], [ -86.886655, 35.743332 ], [ -86.886821, 35.74339 ], [ -86.886877, 35.74341 ], [ -86.887592, 35.743661 ], [ -86.888056, 35.743823 ], [ -86.890457, 35.744667 ], [ -86.891365, 35.744984 ], [ -86.892855, 35.745506 ], [ -86.893706, 35.745805 ], [ -86.894728, 35.746164 ], [ -86.89541, 35.746403 ], [ -86.896904, 35.746926 ], [ -86.8976, 35.74717 ], [ -86.898493, 35.747484 ], [ -86.898804, 35.747593 ], [ -86.899689, 35.747903 ], [ -86.900617, 35.748228 ], [ -86.900964, 35.74835 ], [ -86.902708, 35.748963 ], [ -86.907052, 35.750393 ], [ -86.909667, 35.751307 ], [ -86.910862, 35.75173 ], [ -86.911548, 35.751973 ], [ -86.913083, 35.752518 ], [ -86.913495, 35.752661 ], [ -86.91487, 35.753151 ], [ -86.914865, 35.753175 ], [ -86.915461, 35.753444 ], [ -86.91874, 35.754438 ], [ -86.92162, 35.755236 ], [ -86.924167, 35.755932 ], [ -86.925189, 35.756173 ], [ -86.92911, 35.757261 ], [ -86.934871, 35.760223 ] ] ] } }
]
}
