{
"type": "FeatureCollection",
"name": "intersection_pieces",
"crs": { "type": "name", "properties": { "name": "urn:ogc:def:crs:OGC:1.3:CRS84" } },
"features": [
{ "type": "Feature", "properties": { "precinct_key": "RUTHERFORD - 007691", "name20": "Rutherford - 007691", "county_norm": "RUTHERFORD", "prec_id": "007691", "district_num": "4", "area_weight": 0.72899507850023226, "geometry_status": "dominant", "suggested_action": "manual_split_review" }, "geometry": { "type": "MultiPolygon", "coordinates": [ [ [ [ -86.482404, 35.940861 ], [ -86.479824, 35.937907 ], [ -86.478094, 35.935947 ], [ -86.474868, 35.932288 ], [ -86.471162, 35.928035 ], [ -86.468121, 35.924697 ], [ -86.468257, 35.924601 ], [ -86.468718, 35.924324 ], [ -86.469197, 35.923604 ], [ -86.468207, 35.922253 ], [ -86.46835, 35.918707 ], [ -86.468463, 35.91798 ], [ -86.46889, 35.91477 ], [ -86.469933, 35.913636 ], [ -86.470976, 35.912713 ], [ -86.471882, 35.9109 ], [ -86.472065, 35.910674 ], [ -86.472648, 35.909326 ], [ -86.472785, 35.908934 ], [ -86.473197, 35.90779 ], [ -86.473668, 35.906917 ], [ -86.475279, 35.907193 ], [ -86.479568, 35.908249 ], [ -86.48081, 35.908351 ], [ -86.482831, 35.90778 ], [ -86.482539, 35.907069 ], [ -86.483682, 35.905789 ], [ -86.484701, 35.906041 ], [ -86.48552, 35.905209 ], [ -86.488949, 35.907471 ], [ -86.492777, 35.909955 ], [ -86.503898, 35.916735 ], [ -86.5051, 35.91789 ], [ -86.507106, 35.91982 ], [ -86.509064, 35.918726 ], [ -86.509294, 35.916944 ], [ -86.510064, 35.915323 ], [ -86.520857, 35.925014 ], [ -86.520256, 35.927253 ], [ -86.518553, 35.931716 ], [ -86.517235, 35.932361 ], [ -86.517238882620134, 35.932367858171709 ], [ -86.516994943801109, 35.932380801872426 ], [ -86.516694943714953, 35.932377801884705 ], [ -86.515152943267125, 35.932283801932229 ], [ -86.512895942611721, 35.932147802001964 ], [ -86.512256942425893, 35.932105802021049 ], [ -86.511953942338266, 35.932092802031526 ], [ -86.511698942266179, 35.932107802045444 ], [ -86.511447942196725, 35.932145802063857 ], [ -86.51127794215104, 35.932191802080403 ], [ -86.511005942078739, 35.932277802109347 ], [ -86.510828942033086, 35.932355802132584 ], [ -86.510633941983897, 35.932458802161676 ], [ -86.510452941939974, 35.932580802193847 ], [ -86.510282941901124, 35.932731802231473 ], [ -86.510099941862777, 35.93294880228288 ], [ -86.50996494183812, 35.933164802332001 ], [ -86.509885941827889, 35.933354802373543 ], [ -86.509814941826576, 35.93364780243536 ], [ -86.509780941828652, 35.933829802473298 ], [ -86.509709941833748, 35.934220802554719 ], [ -86.509638941832065, 35.934507802615364 ], [ -86.509538941816743, 35.934712802660741 ], [ -86.509410941791728, 35.934891802702147 ], [ -86.509292941765935, 35.935014802731907 ], [ -86.509143941731551, 35.935142802764027 ], [ -86.50890394167277, 35.935296802805262 ], [ -86.508635941604254, 35.93542380284218 ], [ -86.508416941545846, 35.935489802864829 ], [ -86.508176941480741, 35.935546802886627 ], [ -86.507828941382996, 35.935575802907401 ], [ -86.507738941356962, 35.935571802910445 ], [ -86.507510941291031, 35.935563802918672 ], [ -86.507276941222528, 35.93554080292413 ], [ -86.506577941017852, 35.935472802940538 ], [ -86.506344940949703, 35.935450802946171 ], [ -86.506105940879777, 35.935428802952039 ], [ -86.505389940670327, 35.935362802969543 ], [ -86.505151940600811, 35.9353418029756 ], [ -86.504916940532155, 35.93532180298169 ], [ -86.504211940326343, 35.935262803000185 ], [ -86.503976940257743, 35.935243803006479 ], [ -86.503743940189636, 35.935222803012302 ], [ -86.503044939985344, 35.93516080302993 ], [ -86.50281293991759, 35.93514080303585 ], [ -86.502094939707845, 35.935078803054282 ], [ -86.501642939575817, 35.935039803065855 ], [ -86.499944939078944, 35.93488080310695 ], [ -86.499926939073745, 35.934879803107542 ], [ -86.499226938870876, 35.934844803130723 ], [ -86.499300938855981, 35.934288803016024 ], [ -86.499403938836096, 35.933529802859312 ], [ -86.499519938810408, 35.932622802672405 ], [ -86.499591938794993, 35.932067802557953 ], [ -86.499631938785797, 35.931750802492665 ], [ -86.499751938758422, 35.930799802296768 ], [ -86.499791938749297, 35.930482802231445 ], [ -86.499237938587228, 35.93043180224501 ], [ -86.49889393848666, 35.930400802253622 ], [ -86.498665938422079, 35.930411802265667 ], [ -86.49830793832416, 35.930483802295448 ], [ -86.498127938273313, 35.930494802305397 ], [ -86.497923938213304, 35.930470802309323 ], [ -86.497592938112533, 35.930379802305275 ], [ -86.497056937949409, 35.930232802298882 ], [ -86.496963937937736, 35.930462802349041 ], [ -86.496684937902842, 35.931155802499987 ], [ -86.496592937891435, 35.931386802550321 ], [ -86.496315937807353, 35.931313802547606 ], [ -86.495863937670109, 35.931194802543175 ], [ -86.495755937637327, 35.931166802542144 ], [ -86.495487937556021, 35.931096802539642 ], [ -86.495211937472234, 35.931024802537095 ], [ -86.495080937455484, 35.931344802606873 ], [ -86.494736937411787, 35.932188802790982 ], [ -86.494670937399832, 35.932295802815332 ], [ -86.494644937395265, 35.932339802825247 ], [ -86.494441937350928, 35.932552802876693 ], [ -86.494097937238195, 35.932333802847559 ], [ -86.493065936899754, 35.931676802760052 ], [ -86.492721936786992, 35.931457802730996 ], [ -86.492589936755635, 35.931557802756721 ], [ -86.492202936664071, 35.931855802833141 ], [ -86.492067936632282, 35.931961802860194 ], [ -86.492274936704007, 35.932151802889365 ], [ -86.492898936919772, 35.932721802976864 ], [ -86.493106936991779, 35.932911803006078 ], [ -86.493213937028713, 35.933008803020918 ], [ -86.49353693714032, 35.933301803065831 ], [ -86.493644937177649, 35.933399803080846 ], [ -86.49362493717328, 35.933420803085944 ], [ -86.493474937140221, 35.933573803123046 ], [ -86.493096937057047, 35.933960803216962 ], [ -86.492964937028134, 35.934097803250033 ], [ -86.492795936991101, 35.934272803292416 ], [ -86.492916937032831, 35.934381803309044 ], [ -86.492947937043581, 35.934409803313329 ], [ -86.493403937201052, 35.93482280337664 ], [ -86.493556937253885, 35.934960803397743 ], [ -86.493594937266934, 35.934994803402901 ], [ -86.493710937307, 35.935099803419 ], [ -86.493749937320459, 35.935134803424297 ], [ -86.493887937368072, 35.935258803443254 ], [ -86.494301937511025, 35.935632803500461 ], [ -86.494439937558667, 35.935757803519571 ], [ -86.494173937495532, 35.935958803571374 ], [ -86.493835937418183, 35.936258803646112 ], [ -86.493761937401217, 35.936323803662269 ], [ -86.49365893737766, 35.936415803685151 ], [ -86.493413937321691, 35.936634803739601 ], [ -86.492756937171464, 35.937219803885149 ], [ -86.492500937117129, 35.93751180395477 ], [ -86.492316937081981, 35.937781804016815 ], [ -86.492241937072222, 35.937962804056383 ], [ -86.492153937061175, 35.938180804103901 ], [ -86.4920179370569, 35.938714804216865 ], [ -86.491913937058939, 35.939203804319384 ], [ -86.491604937065887, 35.940672804627333 ], [ -86.491502937068489, 35.941162804729892 ], [ -86.491457937071743, 35.941410804781583 ], [ -86.491322937081364, 35.942153804936382 ], [ -86.491278937084942, 35.942402804988212 ], [ -86.490731936924647, 35.942347805000722 ], [ -86.489349936519758, 35.942210805032694 ], [ -86.48909393644486, 35.94218780503914 ], [ -86.488547936285244, 35.942138805052785 ], [ -86.488325936220178, 35.942116805057886 ], [ -86.487851936081427, 35.942071805069233 ], [ -86.487660936025108, 35.94204680507243 ], [ -86.487440935960294, 35.942019805076455 ], [ -86.487142935872512, 35.941982805081871 ], [ -86.4869889358244, 35.941921805076248 ], [ -86.486471935662905, 35.941716805057375 ], [ -86.486092935535822, 35.941432805016674 ], [ -86.485821935442004, 35.941183804978436 ], [ -86.485650935382694, 35.941025804954066 ], [ -86.485479935323497, 35.940868804929963 ], [ -86.485273935254426, 35.940713804907702 ], [ -86.485252935247146, 35.940694804904844 ], [ -86.484746935072423, 35.940237804834887 ], [ -86.484673935047226, 35.9401718048248 ], [ -86.484618935028053, 35.9401188048165 ], [ -86.484414934956646, 35.93991980478539 ], [ -86.484208934907258, 35.940068804824172 ], [ -86.483590934759391, 35.940517804940768 ], [ -86.483425934719918, 35.940637804971907 ], [ -86.483385934710384, 35.940667804979611 ], [ -86.483332934696662, 35.940690804986573 ], [ -86.483176934656555, 35.940760805007287 ], [ -86.483124934643186, 35.940784805014346 ], [ -86.482559934482182, 35.940798805041403 ], [ -86.482409630124138, 35.940867487168582 ], [ -86.482404, 35.940861 ] ] ], [ [ [ -86.487872889550147, 35.947144519349642 ], [ -86.489605937042683, 35.949122806407807 ], [ -86.489749937094786, 35.949288806434865 ], [ -86.492325938026241, 35.952259806919763 ], [ -86.492445938069764, 35.952400806942975 ], [ -86.493725938534595, 35.95390680718976 ], [ -86.494280905453024, 35.954560192445939 ], [ -86.487872889550147, 35.947144519349642 ] ] ], [ [ [ -86.494331851613325, 35.954620172735027 ], [ -86.494334938755784, 35.954623807307328 ], [ -86.494522938828965, 35.954919807358579 ], [ -86.494649171949547, 35.955163895929225 ], [ -86.494331851613325, 35.954620172735027 ] ] ], [ [ [ -86.49552, 35.956656 ], [ -86.495518679465178, 35.956653737404778 ], [ -86.495520738550709, 35.956656720974465 ], [ -86.49552, 35.956656 ] ] ] ] } },
{ "type": "Feature", "properties": { "precinct_key": "RUTHERFORD - 007691", "name20": "Rutherford - 007691", "county_norm": "RUTHERFORD", "prec_id": "007691", "district_num": "9", "area_weight": 0.27100492149976968, "geometry_status": "real_secondary", "suggested_action": "manual_split_review" }, "geometry": { "type": "Polygon", "coordinates": [ [ [ -86.487799, 35.947059 ], [ -86.486236, 35.945276 ], [ -86.482409630124138, 35.940867487168582 ], [ -86.482559934482182, 35.940798805041403 ], [ -86.483124934643186, 35.940784805014346 ], [ -86.483176934656555, 35.940760805007287 ], [ -86.483332934696662, 35.940690804986573 ], [ -86.483385934710384, 35.940667804979611 ], [ -86.483425934719918, 35.940637804971907 ], [ -86.483590934759391, 35.940517804940768 ], [ -86.484208934907258, 35.940068804824172 ], [ -86.484414934956646, 35.93991980478539 ], [ -86.484618935028053, 35.9401188048165 ], [ -86.484673935047226, 35.9401718048248 ], [ -86.484746935072423, 35.940237804834887 ], [ -86.485252935247146, 35.940694804904844 ], [ -86.485273935254426, 35.940713804907702 ], [ -86.485479935323497, 35.940868804929963 ], [ -86.485650935382694, 35.941025804954066 ], [ -86.485821935442004, 35.941183804978436 ], [ -86.486092935535822, 35.941432805016674 ], [ -86.486471935662905, 35.941716805057375 ], [ -86.4869889358244, 35.941921805076248 ], [ -86.487142935872512, 35.941982805081871 ], [ -86.487440935960294, 35.942019805076455 ], [ -86.487660936025108, 35.94204680507243 ], [ -86.487851936081427, 35.942071805069233 ], [ -86.488325936220178, 35.942116805057886 ], [ -86.488547936285244, 35.942138805052785 ], [ -86.48909393644486, 35.94218780503914 ], [ -86.489349936519758, 35.942210805032694 ], [ -86.490731936924647, 35.942347805000722 ], [ -86.491278937084942, 35.942402804988212 ], [ -86.491322937081364, 35.942153804936382 ], [ -86.491457937071743, 35.941410804781583 ], [ -86.491502937068489, 35.941162804729892 ], [ -86.491604937065887, 35.940672804627333 ], [ -86.491913937058939, 35.939203804319384 ], [ -86.4920179370569, 35.938714804216865 ], [ -86.492153937061175, 35.938180804103901 ], [ -86.492241937072222, 35.937962804056383 ], [ -86.492316937081981, 35.937781804016815 ], [ -86.492500937117129, 35.93751180395477 ], [ -86.492756937171464, 35.937219803885149 ], [ -86.493413937321691, 35.936634803739601 ], [ -86.49365893737766, 35.936415803685151 ], [ -86.493761937401217, 35.936323803662269 ], [ -86.493835937418183, 35.936258803646112 ], [ -86.494173937495532, 35.935958803571374 ], [ -86.494439937558667, 35.935757803519571 ], [ -86.494301937511025, 35.935632803500461 ], [ -86.493887937368072, 35.935258803443254 ], [ -86.493749937320459, 35.935134803424297 ], [ -86.493710937307, 35.935099803419 ], [ -86.493594937266934, 35.934994803402901 ], [ -86.493556937253885, 35.934960803397743 ], [ -86.493403937201052, 35.93482280337664 ], [ -86.492947937043581, 35.934409803313329 ], [ -86.492916937032831, 35.934381803309044 ], [ -86.492795936991101, 35.934272803292416 ], [ -86.492964937028134, 35.934097803250033 ], [ -86.493096937057047, 35.933960803216962 ], [ -86.493474937140221, 35.933573803123046 ], [ -86.49362493717328, 35.933420803085944 ], [ -86.493644937177649, 35.933399803080846 ], [ -86.49353693714032, 35.933301803065831 ], [ -86.493213937028713, 35.933008803020918 ], [ -86.493106936991779, 35.932911803006078 ], [ -86.492898936919772, 35.932721802976864 ], [ -86.492274936704007, 35.932151802889365 ], [ -86.492067936632282, 35.931961802860194 ], [ -86.492202936664071, 35.931855802833141 ], [ -86.492589936755635, 35.931557802756721 ], [ -86.492721936786992, 35.931457802730996 ], [ -86.493065936899754, 35.931676802760052 ], [ -86.494097937238195, 35.932333802847559 ], [ -86.494441937350928, 35.932552802876693 ], [ -86.494644937395265, 35.932339802825247 ], [ -86.494670937399832, 35.932295802815332 ], [ -86.494736937411787, 35.932188802790982 ], [ -86.495080937455484, 35.931344802606873 ], [ -86.495211937472234, 35.931024802537095 ], [ -86.495487937556021, 35.931096802539642 ], [ -86.495755937637327, 35.931166802542144 ], [ -86.495863937670109, 35.931194802543175 ], [ -86.496315937807353, 35.931313802547606 ], [ -86.496592937891435, 35.931386802550321 ], [ -86.496684937902842, 35.931155802499987 ], [ -86.496963937937736, 35.930462802349041 ], [ -86.497056937949409, 35.930232802298882 ], [ -86.497592938112533, 35.930379802305275 ], [ -86.497923938213304, 35.930470802309323 ], [ -86.498127938273313, 35.930494802305397 ], [ -86.49830793832416, 35.930483802295448 ], [ -86.498665938422079, 35.930411802265667 ], [ -86.49889393848666, 35.930400802253622 ], [ -86.499237938587228, 35.93043180224501 ], [ -86.499791938749297, 35.930482802231445 ], [ -86.499751938758422, 35.930799802296768 ], [ -86.499631938785797, 35.931750802492665 ], [ -86.499591938794993, 35.932067802557953 ], [ -86.499519938810408, 35.932622802672405 ], [ -86.499403938836096, 35.933529802859312 ], [ -86.499300938855981, 35.934288803016024 ], [ -86.499226938870876, 35.934844803130723 ], [ -86.499926939073745, 35.934879803107542 ], [ -86.499944939078944, 35.93488080310695 ], [ -86.501642939575817, 35.935039803065855 ], [ -86.502094939707845, 35.935078803054282 ], [ -86.50281293991759, 35.93514080303585 ], [ -86.503044939985344, 35.93516080302993 ], [ -86.503743940189636, 35.935222803012302 ], [ -86.503976940257743, 35.935243803006479 ], [ -86.504211940326343, 35.935262803000185 ], [ -86.504916940532155, 35.93532180298169 ], [ -86.505151940600811, 35.9353418029756 ], [ -86.505389940670327, 35.935362802969543 ], [ -86.506105940879777, 35.935428802952039 ], [ -86.506344940949703, 35.935450802946171 ], [ -86.506577941017852, 35.935472802940538 ], [ -86.507276941222528, 35.93554080292413 ], [ -86.507510941291031, 35.935563802918672 ], [ -86.507738941356962, 35.935571802910445 ], [ -86.507828941382996, 35.935575802907401 ], [ -86.508176941480741, 35.935546802886627 ], [ -86.508416941545846, 35.935489802864829 ], [ -86.508635941604254, 35.93542380284218 ], [ -86.50890394167277, 35.935296802805262 ], [ -86.509143941731551, 35.935142802764027 ], [ -86.509292941765935, 35.935014802731907 ], [ -86.509410941791728, 35.934891802702147 ], [ -86.509538941816743, 35.934712802660741 ], [ -86.509638941832065, 35.934507802615364 ], [ -86.509709941833748, 35.934220802554719 ], [ -86.509780941828652, 35.933829802473298 ], [ -86.509814941826576, 35.93364780243536 ], [ -86.509885941827889, 35.933354802373543 ], [ -86.50996494183812, 35.933164802332001 ], [ -86.510099941862777, 35.93294880228288 ], [ -86.510282941901124, 35.932731802231473 ], [ -86.510452941939974, 35.932580802193847 ], [ -86.510633941983897, 35.932458802161676 ], [ -86.510828942033086, 35.932355802132584 ], [ -86.511005942078739, 35.932277802109347 ], [ -86.51127794215104, 35.932191802080403 ], [ -86.511447942196725, 35.932145802063857 ], [ -86.511698942266179, 35.932107802045444 ], [ -86.511953942338266, 35.932092802031526 ], [ -86.512256942425893, 35.932105802021049 ], [ -86.512895942611721, 35.932147802001964 ], [ -86.515152943267125, 35.932283801932229 ], [ -86.516694943714953, 35.932377801884705 ], [ -86.516994943801109, 35.932380801872426 ], [ -86.517238882620134, 35.932367858171709 ], [ -86.519169, 35.935777 ], [ -86.518677, 35.937754 ], [ -86.518933, 35.940834 ], [ -86.518917, 35.941099 ], [ -86.518306, 35.942995 ], [ -86.516192, 35.944598 ], [ -86.515474, 35.945603 ], [ -86.515427, 35.946267 ], [ -86.515256, 35.946593 ], [ -86.514598, 35.946903 ], [ -86.512967, 35.946831 ], [ -86.512037, 35.946373 ], [ -86.509172, 35.946128 ], [ -86.508466, 35.946585 ], [ -86.508147, 35.947395 ], [ -86.507703, 35.947748 ], [ -86.50551, 35.945751 ], [ -86.505155, 35.945425 ], [ -86.504332, 35.944663 ], [ -86.502546, 35.94308 ], [ -86.502067, 35.942664 ], [ -86.500455, 35.9412 ], [ -86.499073, 35.94358 ], [ -86.498347, 35.945407 ], [ -86.498053, 35.947173 ], [ -86.497774, 35.948793 ], [ -86.496876, 35.954589 ], [ -86.497781, 35.955803 ], [ -86.499945, 35.956538 ], [ -86.500254, 35.957313 ], [ -86.497871, 35.957698 ], [ -86.497216, 35.958073 ], [ -86.497073, 35.958172 ], [ -86.495520738550709, 35.956656720974465 ], [ -86.495518679465178, 35.956653737404778 ], [ -86.494649171949547, 35.955163895929225 ], [ -86.494522938828965, 35.954919807358579 ], [ -86.494334938755784, 35.954623807307328 ], [ -86.494331851613325, 35.954620172735027 ], [ -86.49433, 35.954617 ], [ -86.494280905453024, 35.954560192445939 ], [ -86.493725938534595, 35.95390680718976 ], [ -86.492445938069764, 35.952400806942975 ], [ -86.492325938026241, 35.952259806919763 ], [ -86.489749937094786, 35.949288806434865 ], [ -86.489605937042683, 35.949122806407807 ], [ -86.487872889550147, 35.947144519349642 ], [ -86.487799, 35.947059 ] ] ] } }
]
}
