{
"type": "FeatureCollection",
"name": "precinct",
"crs": { "type": "name", "properties": { "name": "urn:ogc:def:crs:OGC:1.3:CRS84" } },
"features": [
{ "type": "Feature", "properties": { "precinct_key": "RUTHERFORD - 007691", "name20": "Rutherford - 007691", "county_norm": "RUTHERFORD", "prec_id": "007691" }, "geometry": { "type": "Polygon", "coordinates": [ [ [ -86.520857, 35.925014 ], [ -86.510064, 35.915323 ], [ -86.509294, 35.916944 ], [ -86.509064, 35.918726 ], [ -86.507106, 35.91982 ], [ -86.5051, 35.91789 ], [ -86.503898, 35.916735 ], [ -86.492777, 35.909955 ], [ -86.488949, 35.907471 ], [ -86.48552, 35.905209 ], [ -86.484701, 35.906041 ], [ -86.483682, 35.905789 ], [ -86.482539, 35.907069 ], [ -86.482831, 35.90778 ], [ -86.48081, 35.908351 ], [ -86.479568, 35.908249 ], [ -86.475279, 35.907193 ], [ -86.473668, 35.906917 ], [ -86.473197, 35.90779 ], [ -86.472785, 35.908934 ], [ -86.472648, 35.909326 ], [ -86.472065, 35.910674 ], [ -86.471882, 35.9109 ], [ -86.470976, 35.912713 ], [ -86.469933, 35.913636 ], [ -86.46889, 35.91477 ], [ -86.468463, 35.91798 ], [ -86.46835, 35.918707 ], [ -86.468207, 35.922253 ], [ -86.469197, 35.923604 ], [ -86.468718, 35.924324 ], [ -86.468257, 35.924601 ], [ -86.468121, 35.924697 ], [ -86.471162, 35.928035 ], [ -86.474868, 35.932288 ], [ -86.478094, 35.935947 ], [ -86.479824, 35.937907 ], [ -86.482404, 35.940861 ], [ -86.486236, 35.945276 ], [ -86.487799, 35.947059 ], [ -86.49433, 35.954617 ], [ -86.49552, 35.956656 ], [ -86.497073, 35.958172 ], [ -86.497216, 35.958073 ], [ -86.497871, 35.957698 ], [ -86.500254, 35.957313 ], [ -86.499945, 35.956538 ], [ -86.497781, 35.955803 ], [ -86.496876, 35.954589 ], [ -86.497774, 35.948793 ], [ -86.498053, 35.947173 ], [ -86.498347, 35.945407 ], [ -86.499073, 35.94358 ], [ -86.500455, 35.9412 ], [ -86.502067, 35.942664 ], [ -86.502546, 35.94308 ], [ -86.504332, 35.944663 ], [ -86.505155, 35.945425 ], [ -86.50551, 35.945751 ], [ -86.507703, 35.947748 ], [ -86.508147, 35.947395 ], [ -86.508466, 35.946585 ], [ -86.509172, 35.946128 ], [ -86.512037, 35.946373 ], [ -86.512967, 35.946831 ], [ -86.514598, 35.946903 ], [ -86.515256, 35.946593 ], [ -86.515427, 35.946267 ], [ -86.515474, 35.945603 ], [ -86.516192, 35.944598 ], [ -86.518306, 35.942995 ], [ -86.518917, 35.941099 ], [ -86.518933, 35.940834 ], [ -86.518677, 35.937754 ], [ -86.519169, 35.935777 ], [ -86.517235, 35.932361 ], [ -86.518553, 35.931716 ], [ -86.520256, 35.927253 ], [ -86.520857, 35.925014 ] ] ] } }
]
}
