{
"type": "FeatureCollection",
"name": "intersection_pieces",
"crs": { "type": "name", "properties": { "name": "urn:ogc:def:crs:OGC:1.3:CRS84" } },
"features": [
{ "type": "Feature", "properties": { "precinct_key": "DAVIDSON - 001953", "name20": "Davidson - 001953", "county_norm": "DAVIDSON", "prec_id": "001953", "district_num": "56", "area_weight": 0.44039452901328724, "geometry_status": "real_secondary", "suggested_action": "manual_split_review" }, "geometry": { "type": "MultiPolygon", "coordinates": [ [ [ [ -86.8347, 36.109395 ], [ -86.835036, 36.109421 ], [ -86.836044, 36.1095 ], [ -86.836381, 36.109527 ], [ -86.836585, 36.109543 ], [ -86.837199, 36.109591 ], [ -86.837404, 36.109608 ], [ -86.8347, 36.109395 ] ] ], [ [ [ -86.83224, 36.091517 ], [ -86.832924, 36.092458 ], [ -86.833046, 36.092641 ], [ -86.833098, 36.092778 ], [ -86.833089, 36.092943 ], [ -86.83303, 36.093061 ], [ -86.832924, 36.093219 ], [ -86.832895, 36.093305 ], [ -86.8328, 36.09371 ], [ -86.832771, 36.09389 ], [ -86.83277, 36.093971 ], [ -86.832994, 36.093988 ], [ -86.833474, 36.094039 ], [ -86.834044, 36.094102 ], [ -86.834436, 36.094146 ], [ -86.834729, 36.094181 ], [ -86.83499, 36.094191 ], [ -86.834511, 36.097641 ], [ -86.834455, 36.097998 ], [ -86.834436, 36.098297 ], [ -86.834003, 36.101707 ], [ -86.833974, 36.102379 ], [ -86.834004, 36.102381 ], [ -86.834098, 36.102388 ], [ -86.834129, 36.102391 ], [ -86.834241, 36.10317 ], [ -86.834269, 36.103368 ], [ -86.834353, 36.103948 ], [ -86.834649, 36.106007 ], [ -86.834656, 36.106251 ], [ -86.834658, 36.106302 ], [ -86.834675, 36.106584 ], [ -86.834671, 36.106758 ], [ -86.834685, 36.107289 ], [ -86.834681, 36.107396 ], [ -86.834681, 36.107424 ], [ -86.834685, 36.107829 ], [ -86.834698, 36.107964 ], [ -86.83469, 36.108186 ], [ -86.834691, 36.10825 ], [ -86.834709, 36.109074 ], [ -86.834707, 36.109108 ], [ -86.8347, 36.109271 ], [ -86.8347, 36.109395 ], [ -86.830266, 36.108974 ], [ -86.82946, 36.108886 ], [ -86.828607, 36.108689 ], [ -86.827755, 36.108238 ], [ -86.825587, 36.107111 ], [ -86.82249, 36.106728 ], [ -86.821331, 36.106594 ], [ -86.820037, 36.104186 ], [ -86.820498, 36.102955 ], [ -86.820446, 36.101126 ], [ -86.820871, 36.099231 ], [ -86.821349, 36.098902 ], [ -86.823456, 36.097537 ], [ -86.825398, 36.095586 ], [ -86.827279, 36.093095 ], [ -86.828508, 36.091363 ], [ -86.829422667750691, 36.091389764457055 ], [ -86.829462, 36.091391 ], [ -86.829486975679828, 36.091391645932319 ], [ -86.830046, 36.091408 ], [ -86.83224, 36.091517 ] ] ] ] } },
{ "type": "Feature", "properties": { "precinct_key": "DAVIDSON - 001953", "name20": "Davidson - 001953", "county_norm": "DAVIDSON", "prec_id": "001953", "district_num": "59", "area_weight": 0.55960547098671221, "geometry_status": "dominant", "suggested_action": "manual_split_review" }, "geometry": { "type": "GeometryCollection", "geometries": [ { "type": "Polygon", "coordinates": [ [ [ -86.834558, 36.091823 ], [ -86.837983, 36.092577 ], [ -86.839769, 36.092754 ], [ -86.845541, 36.092859 ], [ -86.845815, 36.090948 ], [ -86.844007, 36.090134 ], [ -86.842569, 36.088612 ], [ -86.84346, 36.086025 ], [ -86.843638, 36.083431 ], [ -86.844116, 36.082395 ], [ -86.845913, 36.083284 ], [ -86.848106, 36.08494 ], [ -86.849892, 36.08602 ], [ -86.850633, 36.084971 ], [ -86.851973, 36.08579 ], [ -86.851776, 36.086325 ], [ -86.850969, 36.088322 ], [ -86.850286, 36.090171 ], [ -86.84972, 36.09165 ], [ -86.849229, 36.093091 ], [ -86.84879, 36.093111 ], [ -86.847069, 36.092922 ], [ -86.846665, 36.09477 ], [ -86.845429, 36.096884 ], [ -86.844558, 36.10099 ], [ -86.844463, 36.101775 ], [ -86.844233, 36.103723 ], [ -86.844751, 36.103758 ], [ -86.844012, 36.106245 ], [ -86.843121, 36.110108 ], [ -86.842268, 36.110019 ], [ -86.839707, 36.109803 ], [ -86.837404, 36.109608 ], [ -86.837199, 36.109591 ], [ -86.836585, 36.109543 ], [ -86.836381, 36.109527 ], [ -86.836044, 36.1095 ], [ -86.835036, 36.109421 ], [ -86.8347, 36.109395 ], [ -86.8347, 36.109271 ], [ -86.834707, 36.109108 ], [ -86.834709, 36.109074 ], [ -86.834691, 36.10825 ], [ -86.83469, 36.108186 ], [ -86.834698, 36.107964 ], [ -86.834685, 36.107829 ], [ -86.834681, 36.107424 ], [ -86.834681, 36.107396 ], [ -86.834685, 36.107289 ], [ -86.834671, 36.106758 ], [ -86.834675, 36.106584 ], [ -86.834658, 36.106302 ], [ -86.834656, 36.106251 ], [ -86.834649, 36.106007 ], [ -86.834353, 36.103948 ], [ -86.834269, 36.103368 ], [ -86.834241, 36.10317 ], [ -86.834129, 36.102391 ], [ -86.834098, 36.102388 ], [ -86.834004, 36.102381 ], [ -86.833974, 36.102379 ], [ -86.834003, 36.101707 ], [ -86.834436, 36.098297 ], [ -86.834455, 36.097998 ], [ -86.834511, 36.097641 ], [ -86.83499, 36.094191 ], [ -86.834729, 36.094181 ], [ -86.834436, 36.094146 ], [ -86.834044, 36.094102 ], [ -86.833474, 36.094039 ], [ -86.832994, 36.093988 ], [ -86.83277, 36.093971 ], [ -86.832771, 36.09389 ], [ -86.8328, 36.09371 ], [ -86.832895, 36.093305 ], [ -86.832924, 36.093219 ], [ -86.83303, 36.093061 ], [ -86.833089, 36.092943 ], [ -86.833098, 36.092778 ], [ -86.833046, 36.092641 ], [ -86.832924, 36.092458 ], [ -86.83224, 36.091517 ], [ -86.834558, 36.091823 ] ] ] }, { "type": "Polygon", "coordinates": [ [ [ -86.829486975679828, 36.091391645932319 ], [ -86.829462, 36.091391 ], [ -86.829422667750691, 36.091389764457055 ], [ -86.829486975679828, 36.091391645932319 ] ] ] }, { "type": "Point", "coordinates": [ -86.828508, 36.091363 ] }, { "type": "Point", "coordinates": [ -86.830046, 36.091408 ] } ] } }
]
}
