{
"type": "FeatureCollection",
"name": "precinct",
"crs": { "type": "name", "properties": { "name": "urn:ogc:def:crs:OGC:1.3:CRS84" } },
"features": [
{ "type": "Feature", "properties": { "precinct_key": "DAVIDSON - 001953", "name20": "Davidson - 001953", "county_norm": "DAVIDSON", "prec_id": "001953" }, "geometry": { "type": "Polygon", "coordinates": [ [ [ -86.8347, 36.109395 ], [ -86.837404, 36.109608 ], [ -86.839707, 36.109803 ], [ -86.842268, 36.110019 ], [ -86.843121, 36.110108 ], [ -86.844012, 36.106245 ], [ -86.844751, 36.103758 ], [ -86.844233, 36.103723 ], [ -86.844463, 36.101775 ], [ -86.844558, 36.10099 ], [ -86.845429, 36.096884 ], [ -86.846665, 36.09477 ], [ -86.847069, 36.092922 ], [ -86.84879, 36.093111 ], [ -86.849229, 36.093091 ], [ -86.84972, 36.09165 ], [ -86.850286, 36.090171 ], [ -86.850969, 36.088322 ], [ -86.851776, 36.086325 ], [ -86.851973, 36.08579 ], [ -86.850633, 36.084971 ], [ -86.849892, 36.08602 ], [ -86.848106, 36.08494 ], [ -86.845913, 36.083284 ], [ -86.844116, 36.082395 ], [ -86.843638, 36.083431 ], [ -86.84346, 36.086025 ], [ -86.842569, 36.088612 ], [ -86.844007, 36.090134 ], [ -86.845815, 36.090948 ], [ -86.845541, 36.092859 ], [ -86.839769, 36.092754 ], [ -86.837983, 36.092577 ], [ -86.834558, 36.091823 ], [ -86.83224, 36.091517 ], [ -86.830046, 36.091408 ], [ -86.828508, 36.091363 ], [ -86.827279, 36.093095 ], [ -86.825398, 36.095586 ], [ -86.823456, 36.097537 ], [ -86.821349, 36.098902 ], [ -86.820871, 36.099231 ], [ -86.820446, 36.101126 ], [ -86.820498, 36.102955 ], [ -86.820037, 36.104186 ], [ -86.821331, 36.106594 ], [ -86.82249, 36.106728 ], [ -86.825587, 36.107111 ], [ -86.827755, 36.108238 ], [ -86.828607, 36.108689 ], [ -86.82946, 36.108886 ], [ -86.830266, 36.108974 ], [ -86.8347, 36.109395 ] ] ] } }
]
}
