{
"type": "FeatureCollection",
"name": "intersection_pieces",
"crs": { "type": "name", "properties": { "name": "urn:ogc:def:crs:OGC:1.3:CRS84" } },
"features": [
{ "type": "Feature", "properties": { "precinct_key": "MONTGOMERY - 006457", "name20": "Montgomery - 006457", "county_norm": "MONTGOMERY", "prec_id": "006457", "district_num": "5", "area_weight": 0.385674344804735, "geometry_status": "real_secondary", "suggested_action": "manual_split_review" }, "geometry": { "type": "MultiPolygon", "coordinates": [ [ [ [ -87.404897, 36.569067 ], [ -87.406914, 36.573452 ], [ -87.407404, 36.574511 ], [ -87.407763, 36.57529 ], [ -87.409323, 36.578701 ], [ -87.410465, 36.581183 ], [ -87.410854, 36.582005 ], [ -87.412121, 36.58466 ], [ -87.412205, 36.584845 ], [ -87.412963, 36.586533 ], [ -87.413918, 36.588327 ], [ -87.416405, 36.59203 ], [ -87.41798, 36.593978 ], [ -87.419258, 36.595651 ], [ -87.421117, 36.598601 ], [ -87.421757, 36.599618 ], [ -87.422269, 36.600436 ], [ -87.422085, 36.60045 ], [ -87.420025, 36.600706 ], [ -87.419171, 36.600274 ], [ -87.41761, 36.599006 ], [ -87.414489, 36.597822 ], [ -87.409925, 36.597917 ], [ -87.40715, 36.598314 ], [ -87.403506, 36.599343 ], [ -87.40223, 36.601439 ], [ -87.401402, 36.601834 ], [ -87.399203, 36.600951 ], [ -87.398713, 36.600329 ], [ -87.397735, 36.601048 ], [ -87.397993, 36.602074 ], [ -87.39936, 36.602822 ], [ -87.39963, 36.604245 ], [ -87.398901, 36.604961 ], [ -87.396147, 36.605131 ], [ -87.393693, 36.603957 ], [ -87.393607, 36.602964 ], [ -87.394976, 36.601461 ], [ -87.394471, 36.599293 ], [ -87.393706, 36.598703 ], [ -87.392293, 36.598897 ], [ -87.391285, 36.599654 ], [ -87.388348, 36.60343 ], [ -87.387132, 36.603258 ], [ -87.386621, 36.601716 ], [ -87.387418, 36.600825 ], [ -87.386888, 36.599911 ], [ -87.382686, 36.59747 ], [ -87.382967, 36.595363 ], [ -87.386522, 36.593628 ], [ -87.389641, 36.592909 ], [ -87.389971, 36.592402 ], [ -87.389721279834134, 36.591783128356283 ], [ -87.389723237557305, 36.591781894138613 ], [ -87.389763237566925, 36.591756894131905 ], [ -87.39002223762958, 36.591594894088523 ], [ -87.390185237667993, 36.591478894058469 ], [ -87.390229237678469, 36.591448894050586 ], [ -87.390455237729199, 36.591250894001639 ], [ -87.390619237762891, 36.591061893957118 ], [ -87.390739237785638, 36.590896893919414 ], [ -87.390824237799293, 36.590743893885588 ], [ -87.390932237812549, 36.590491893831334 ], [ -87.39099423781262, 36.590237893778777 ], [ -87.391010237807492, 36.590097893750638 ], [ -87.391020237804966, 36.59002089373508 ], [ -87.391016237788662, 36.589801893692339 ], [ -87.390975237759463, 36.589549893644872 ], [ -87.390847237674564, 36.588851893513841 ], [ -87.390681237579386, 36.588162893386375 ], [ -87.390718237570894, 36.587887893330787 ], [ -87.391008237657019, 36.587936893327296 ], [ -87.391296237740946, 36.587962893319407 ], [ -87.39304023824927, 36.588120893271721 ], [ -87.393504238384509, 36.588162893258989 ], [ -87.393622238418146, 36.588162893253696 ], [ -87.393644238405471, 36.587889893199183 ], [ -87.393713238368349, 36.587070893035602 ], [ -87.393736238356027, 36.586798892981292 ], [ -87.394027238440913, 36.586825892973437 ], [ -87.394196238490238, 36.58684289296918 ], [ -87.394901238694999, 36.586895892947723 ], [ -87.395193238779797, 36.586917892938835 ], [ -87.39520423877812, 36.586848892924792 ], [ -87.395236238772924, 36.586641892882852 ], [ -87.395248238771586, 36.586573892869012 ], [ -87.394402238524336, 36.5864868928901 ], [ -87.393158238160794, 36.586360892921519 ], [ -87.391021237535838, 36.586136892974039 ], [ -87.391036237532632, 36.586028892952193 ], [ -87.391037237532203, 36.586018892950214 ], [ -87.391085237524251, 36.585706892886897 ], [ -87.391102237521721, 36.585599892865183 ], [ -87.391138237516316, 36.585373892819277 ], [ -87.391250237501225, 36.58469589268136 ], [ -87.391265237499425, 36.584608892663603 ], [ -87.39128823749644, 36.584470892635586 ], [ -87.391361237485185, 36.584008892541746 ], [ -87.391582237452099, 36.582622892260133 ], [ -87.391656237441268, 36.582161892166447 ], [ -87.391877237506051, 36.582187892161613 ], [ -87.392544237701756, 36.582266892147054 ], [ -87.392766237766949, 36.582293892142296 ], [ -87.39297923782955, 36.582320892138 ], [ -87.393619238017706, 36.582401892124992 ], [ -87.393833238080632, 36.582429892120828 ], [ -87.394771238355574, 36.582536892099512 ], [ -87.39479123836135, 36.582537892098742 ], [ -87.397105239035326, 36.582740892034188 ], [ -87.39721623906641, 36.582732892027586 ], [ -87.397303239088615, 36.582695892016424 ], [ -87.397404239111069, 36.582603891993855 ], [ -87.397449239117847, 36.582516891974791 ], [ -87.397477239116895, 36.582387891948173 ], [ -87.39752223911573, 36.582185891906597 ], [ -87.397513239105592, 36.58207689188562 ], [ -87.3974602390836, 36.581977891868632 ], [ -87.397372239052132, 36.581885891854583 ], [ -87.397250239012266, 36.581812891845779 ], [ -87.397159238984528, 36.581786891844757 ], [ -87.396988238934512, 36.581768891849045 ], [ -87.397022238910381, 36.581280891751838 ], [ -87.397022238901656, 36.581154891727159 ], [ -87.396993238877783, 36.580929891684313 ], [ -87.396591238654352, 36.579360891395048 ], [ -87.39643923856967, 36.578764891285097 ], [ -87.397121238770367, 36.578854891271931 ], [ -87.397221238800299, 36.578874891271347 ], [ -87.397376238846675, 36.578905891270445 ], [ -87.39806023905119, 36.579042891266461 ], [ -87.398161239082853, 36.579084891270064 ], [ -87.398249239112673, 36.579152891279442 ], [ -87.398307239135548, 36.579243891294645 ], [ -87.398311239137641, 36.579257891297274 ], [ -87.398324239147556, 36.579346891314081 ], [ -87.398302239153949, 36.579529891350965 ], [ -87.398141239175743, 36.580505891549436 ], [ -87.398141239184071, 36.580625891573014 ], [ -87.398181239202444, 36.58072689159097 ], [ -87.398244239224923, 36.580791891600846 ], [ -87.398323239250942, 36.580841891607065 ], [ -87.398405239276357, 36.580871891609327 ], [ -87.398447239288842, 36.580878891608741 ], [ -87.398574239326663, 36.580901891607517 ], [ -87.39933723954951, 36.580977891588006 ], [ -87.39939023956461, 36.580977891585576 ], [ -87.399658239643585, 36.5810148915808 ], [ -87.399777239678698, 36.58103189157881 ], [ -87.400465239879821, 36.581102891561656 ], [ -87.400735239958777, 36.581130891554928 ], [ -87.400595239978387, 36.58198889172936 ], [ -87.400581239980596, 36.582078891747635 ], [ -87.400400239997666, 36.5830688919498 ], [ -87.400291240019826, 36.583836892105133 ], [ -87.400300240029011, 36.583931892123417 ], [ -87.400364240055396, 36.584049892143639 ], [ -87.400556240126122, 36.584279892180021 ], [ -87.400701240176957, 36.584416892200316 ], [ -87.400863240231104, 36.584530892215341 ], [ -87.401035240286248, 36.584618892224839 ], [ -87.401191240334029, 36.584666892227148 ], [ -87.401397240395141, 36.584700892224603 ], [ -87.401513240428898, 36.584710892221246 ], [ -87.401633240416871, 36.584043892085212 ], [ -87.401636240416352, 36.584023892081198 ], [ -87.401972240369005, 36.581959891661583 ], [ -87.402085240353571, 36.581272891521905 ], [ -87.402355240432513, 36.581300891515205 ], [ -87.403168240670141, 36.581384891494956 ], [ -87.403440240749646, 36.581412891488156 ], [ -87.403709240828292, 36.58144089148152 ], [ -87.404518241064935, 36.581526891461912 ], [ -87.404788241143947, 36.581555891455338 ], [ -87.404857241133854, 36.581126891368179 ], [ -87.405061241104278, 36.579861891111165 ], [ -87.405065241103898, 36.579839891106701 ], [ -87.405118241100595, 36.579574891052317 ], [ -87.405172241105276, 36.579419891019484 ], [ -87.405278241123256, 36.579242890980034 ], [ -87.405323241131995, 36.579183890966533 ], [ -87.405581241182659, 36.578853890890144 ], [ -87.405664241200441, 36.578768890869775 ], [ -87.405902241255376, 36.578582890822588 ], [ -87.405920241259622, 36.578569890819203 ], [ -87.406111241302099, 36.578396890776716 ], [ -87.405974241257908, 36.578322890768369 ], [ -87.405796241200477, 36.578226890757627 ], [ -87.405554241124477, 36.578125890748758 ], [ -87.405412241079915, 36.578066890743564 ], [ -87.404961240939997, 36.577903890731953 ], [ -87.404627240837556, 36.577799890726624 ], [ -87.404298240736679, 36.577697890721559 ], [ -87.40377824058001, 36.577576890721282 ], [ -87.403379240462201, 36.577518890727887 ], [ -87.40273124027172, 36.577436890741055 ], [ -87.402184240110984, 36.577367890752271 ], [ -87.402026240064615, 36.577348890755566 ], [ -87.401368239868617, 36.577227890761591 ], [ -87.401412239863888, 36.576978890710819 ], [ -87.401547239850814, 36.576234890558922 ], [ -87.401592239846437, 36.575986890508268 ], [ -87.401625239841138, 36.57577489046519 ], [ -87.401727239826442, 36.575142890336778 ], [ -87.40176223982175, 36.574931890293833 ], [ -87.402128239771656, 36.572702889840521 ], [ -87.402276239742008, 36.571666889630791 ], [ -87.402337239731082, 36.571257889547887 ], [ -87.402523239699036, 36.570030889299062 ], [ -87.402550239694619, 36.569855889263494 ], [ -87.402601239693183, 36.56962488921593 ], [ -87.402831239760204, 36.569645889209689 ], [ -87.403084239834016, 36.569669889202963 ], [ -87.403258239883556, 36.569668889194944 ], [ -87.40339223992018, 36.569645889184436 ], [ -87.403514239951818, 36.569600889170111 ], [ -87.403731240008184, 36.569520889144655 ], [ -87.403965240068686, 36.569431889116593 ], [ -87.404667240250191, 36.569162889032278 ], [ -87.404747240270964, 36.569132889022733 ], [ -87.404743767028918, 36.569125327390637 ], [ -87.404897, 36.569067 ] ] ], [ [ [ -87.378942578119776, 36.605329803512547 ], [ -87.379106235390424, 36.604190897048774 ], [ -87.379137235384647, 36.603979897006006 ], [ -87.379239128035948, 36.603347094532886 ], [ -87.378942578119776, 36.605329803512547 ] ] ], [ [ [ -87.379330679681402, 36.602779230830336 ], [ -87.379341235355085, 36.60271589674921 ], [ -87.379394235356017, 36.602511896706901 ], [ -87.379525235371119, 36.602190896638128 ], [ -87.379698235400781, 36.601907896574858 ], [ -87.379878235434902, 36.60165989651815 ], [ -87.38070023559608, 36.600603896274151 ], [ -87.380728221908555, 36.600562139072196 ], [ -87.379330679681402, 36.602779230830336 ] ] ], [ [ [ -87.381144506552857, 36.597666916949905 ], [ -87.381136235507327, 36.597533895653079 ], [ -87.38114223549519, 36.597333895613566 ], [ -87.381175235482033, 36.597008895548427 ], [ -87.381235716195732, 36.596739713892283 ], [ -87.381144506552857, 36.597666916949905 ] ] ], [ [ [ -87.381253658590239, 36.596670480640817 ], [ -87.381297235484183, 36.596538895450848 ], [ -87.381457235503362, 36.5961568953688 ], [ -87.381540235516241, 36.596001895334673 ], [ -87.381716235547003, 36.595721895271843 ], [ -87.381881235579129, 36.595506895222329 ], [ -87.381936235589933, 36.595435895205924 ], [ -87.382126235630352, 36.595237895158547 ], [ -87.382337235677028, 36.595042895110794 ], [ -87.382601235737866, 36.594834895058113 ], [ -87.382913563844241, 36.594635378062755 ], [ -87.381253658590239, 36.596670480640817 ] ] ], [ [ [ -87.382991641590536, 36.59459168894589 ], [ -87.38319423588274, 36.594484894962818 ], [ -87.383479235954965, 36.5943548949245 ], [ -87.383929236071239, 36.594180894870064 ], [ -87.384267236159744, 36.594066894832572 ], [ -87.385346591612787, 36.59372522935589 ], [ -87.382991641590536, 36.59459168894589 ] ] ] ] } },
{ "type": "Feature", "properties": { "precinct_key": "MONTGOMERY - 006457", "name20": "Montgomery - 006457", "county_norm": "MONTGOMERY", "prec_id": "006457", "district_num": "7", "area_weight": 0.61432565519526372, "geometry_status": "dominant", "suggested_action": "manual_split_review" }, "geometry": { "type": "Polygon", "coordinates": [ [ [ -87.378784, 36.60639 ], [ -87.378416, 36.608945 ], [ -87.378231, 36.610095 ], [ -87.37246, 36.609641 ], [ -87.370359, 36.608882 ], [ -87.367653, 36.608648 ], [ -87.366104, 36.608486 ], [ -87.362841, 36.610071 ], [ -87.361784, 36.610281 ], [ -87.360297, 36.609479 ], [ -87.357527, 36.605968 ], [ -87.357268, 36.604776 ], [ -87.357831, 36.60412 ], [ -87.360145, 36.603559 ], [ -87.364015, 36.604283 ], [ -87.365559, 36.604981 ], [ -87.367713, 36.604604 ], [ -87.369092, 36.603426 ], [ -87.369575, 36.602063 ], [ -87.369082, 36.600327 ], [ -87.367517, 36.598493 ], [ -87.366013, 36.597743 ], [ -87.364352, 36.596144 ], [ -87.362354, 36.595644 ], [ -87.358521, 36.596248 ], [ -87.357726, 36.596155 ], [ -87.35731, 36.594988 ], [ -87.357804, 36.594519 ], [ -87.363052, 36.592 ], [ -87.362469, 36.590793 ], [ -87.360698, 36.590091 ], [ -87.358723, 36.590206 ], [ -87.354554, 36.592094 ], [ -87.353724, 36.591834 ], [ -87.352915, 36.589852 ], [ -87.354493, 36.588913 ], [ -87.359129, 36.58862 ], [ -87.361198, 36.588705 ], [ -87.362178, 36.588113 ], [ -87.363788, 36.58865 ], [ -87.364714, 36.589773 ], [ -87.365485, 36.589766 ], [ -87.366697, 36.588501 ], [ -87.366722, 36.587419 ], [ -87.365528, 36.584772 ], [ -87.363937, 36.583115 ], [ -87.362225, 36.582688 ], [ -87.359381, 36.580094 ], [ -87.359281, 36.579959 ], [ -87.358024, 36.577916 ], [ -87.356486, 36.577179 ], [ -87.360683, 36.574032 ], [ -87.362967, 36.573844 ], [ -87.364931, 36.574145 ], [ -87.368922, 36.577441 ], [ -87.371861, 36.577829 ], [ -87.373339, 36.577273 ], [ -87.376534, 36.575445 ], [ -87.378596, 36.575051 ], [ -87.380928, 36.575605 ], [ -87.383533, 36.577042 ], [ -87.383858, 36.578674 ], [ -87.384833, 36.578365 ], [ -87.390738, 36.578431 ], [ -87.389992, 36.577282 ], [ -87.389539, 36.57658 ], [ -87.39239, 36.576668 ], [ -87.393898, 36.576808 ], [ -87.393981, 36.576351 ], [ -87.395332, 36.576405 ], [ -87.395463, 36.575422 ], [ -87.395632, 36.574368 ], [ -87.395807, 36.573234 ], [ -87.396015, 36.572151 ], [ -87.396196, 36.571062 ], [ -87.396493, 36.569027 ], [ -87.397824, 36.56915 ], [ -87.399426, 36.569307 ], [ -87.399879, 36.569348 ], [ -87.40123, 36.569489 ], [ -87.402596, 36.569618 ], [ -87.404742, 36.569126 ], [ -87.404743767028918, 36.569125327390637 ], [ -87.404747240270964, 36.569132889022733 ], [ -87.404667240250191, 36.569162889032278 ], [ -87.403965240068686, 36.569431889116593 ], [ -87.403731240008184, 36.569520889144655 ], [ -87.403514239951818, 36.569600889170111 ], [ -87.40339223992018, 36.569645889184436 ], [ -87.403258239883556, 36.569668889194944 ], [ -87.403084239834016, 36.569669889202963 ], [ -87.402831239760204, 36.569645889209689 ], [ -87.402601239693183, 36.56962488921593 ], [ -87.402550239694619, 36.569855889263494 ], [ -87.402523239699036, 36.570030889299062 ], [ -87.402337239731082, 36.571257889547887 ], [ -87.402276239742008, 36.571666889630791 ], [ -87.402128239771656, 36.572702889840521 ], [ -87.40176223982175, 36.574931890293833 ], [ -87.401727239826442, 36.575142890336778 ], [ -87.401625239841138, 36.57577489046519 ], [ -87.401592239846437, 36.575986890508268 ], [ -87.401547239850814, 36.576234890558922 ], [ -87.401412239863888, 36.576978890710819 ], [ -87.401368239868617, 36.577227890761591 ], [ -87.402026240064615, 36.577348890755566 ], [ -87.402184240110984, 36.577367890752271 ], [ -87.40273124027172, 36.577436890741055 ], [ -87.403379240462201, 36.577518890727887 ], [ -87.40377824058001, 36.577576890721282 ], [ -87.404298240736679, 36.577697890721559 ], [ -87.404627240837556, 36.577799890726624 ], [ -87.404961240939997, 36.577903890731953 ], [ -87.405412241079915, 36.578066890743564 ], [ -87.405554241124477, 36.578125890748758 ], [ -87.405796241200477, 36.578226890757627 ], [ -87.405974241257908, 36.578322890768369 ], [ -87.406111241302099, 36.578396890776716 ], [ -87.405920241259622, 36.578569890819203 ], [ -87.405902241255376, 36.578582890822588 ], [ -87.405664241200441, 36.578768890869775 ], [ -87.405581241182659, 36.578853890890144 ], [ -87.405323241131995, 36.579183890966533 ], [ -87.405278241123256, 36.579242890980034 ], [ -87.405172241105276, 36.579419891019484 ], [ -87.405118241100595, 36.579574891052317 ], [ -87.405065241103898, 36.579839891106701 ], [ -87.405061241104278, 36.579861891111165 ], [ -87.404857241133854, 36.581126891368179 ], [ -87.404788241143947, 36.581555891455338 ], [ -87.404518241064935, 36.581526891461912 ], [ -87.403709240828292, 36.58144089148152 ], [ -87.403440240749646, 36.581412891488156 ], [ -87.403168240670141, 36.581384891494956 ], [ -87.402355240432513, 36.581300891515205 ], [ -87.402085240353571, 36.581272891521905 ], [ -87.401972240369005, 36.581959891661583 ], [ -87.401636240416352, 36.584023892081198 ], [ -87.401633240416871, 36.584043892085212 ], [ -87.401513240428898, 36.584710892221246 ], [ -87.401397240395141, 36.584700892224603 ], [ -87.401191240334029, 36.584666892227148 ], [ -87.401035240286248, 36.584618892224839 ], [ -87.400863240231104, 36.584530892215341 ], [ -87.400701240176957, 36.584416892200316 ], [ -87.400556240126122, 36.584279892180021 ], [ -87.400364240055396, 36.584049892143639 ], [ -87.400300240029011, 36.583931892123417 ], [ -87.400291240019826, 36.583836892105133 ], [ -87.400400239997666, 36.5830688919498 ], [ -87.400581239980596, 36.582078891747635 ], [ -87.400595239978387, 36.58198889172936 ], [ -87.400735239958777, 36.581130891554928 ], [ -87.400465239879821, 36.581102891561656 ], [ -87.399777239678698, 36.58103189157881 ], [ -87.399658239643585, 36.5810148915808 ], [ -87.39939023956461, 36.580977891585576 ], [ -87.39933723954951, 36.580977891588006 ], [ -87.398574239326663, 36.580901891607517 ], [ -87.398447239288842, 36.580878891608741 ], [ -87.398405239276357, 36.580871891609327 ], [ -87.398323239250942, 36.580841891607065 ], [ -87.398244239224923, 36.580791891600846 ], [ -87.398181239202444, 36.58072689159097 ], [ -87.398141239184071, 36.580625891573014 ], [ -87.398141239175743, 36.580505891549436 ], [ -87.398302239153949, 36.579529891350965 ], [ -87.398324239147556, 36.579346891314081 ], [ -87.398311239137641, 36.579257891297274 ], [ -87.398307239135548, 36.579243891294645 ], [ -87.398249239112673, 36.579152891279442 ], [ -87.398161239082853, 36.579084891270064 ], [ -87.39806023905119, 36.579042891266461 ], [ -87.397376238846675, 36.578905891270445 ], [ -87.397221238800299, 36.578874891271347 ], [ -87.397121238770367, 36.578854891271931 ], [ -87.39643923856967, 36.578764891285097 ], [ -87.396591238654352, 36.579360891395048 ], [ -87.396993238877783, 36.580929891684313 ], [ -87.397022238901656, 36.581154891727159 ], [ -87.397022238910381, 36.581280891751838 ], [ -87.396988238934512, 36.581768891849045 ], [ -87.397159238984528, 36.581786891844757 ], [ -87.397250239012266, 36.581812891845779 ], [ -87.397372239052132, 36.581885891854583 ], [ -87.3974602390836, 36.581977891868632 ], [ -87.397513239105592, 36.58207689188562 ], [ -87.39752223911573, 36.582185891906597 ], [ -87.397477239116895, 36.582387891948173 ], [ -87.397449239117847, 36.582516891974791 ], [ -87.397404239111069, 36.582603891993855 ], [ -87.397303239088615, 36.582695892016424 ], [ -87.39721623906641, 36.582732892027586 ], [ -87.397105239035326, 36.582740892034188 ], [ -87.39479123836135, 36.582537892098742 ], [ -87.394771238355574, 36.582536892099512 ], [ -87.393833238080632, 36.582429892120828 ], [ -87.393619238017706, 36.582401892124992 ], [ -87.39297923782955, 36.582320892138 ], [ -87.392766237766949, 36.582293892142296 ], [ -87.392544237701756, 36.582266892147054 ], [ -87.391877237506051, 36.582187892161613 ], [ -87.391656237441268, 36.582161892166447 ], [ -87.391582237452099, 36.582622892260133 ], [ -87.391361237485185, 36.584008892541746 ], [ -87.39128823749644, 36.584470892635586 ], [ -87.391265237499425, 36.584608892663603 ], [ -87.391250237501225, 36.58469589268136 ], [ -87.391138237516316, 36.585373892819277 ], [ -87.391102237521721, 36.585599892865183 ], [ -87.391085237524251, 36.585706892886897 ], [ -87.391037237532203, 36.586018892950214 ], [ -87.391036237532632, 36.586028892952193 ], [ -87.391021237535838, 36.586136892974039 ], [ -87.393158238160794, 36.586360892921519 ], [ -87.394402238524336, 36.5864868928901 ], [ -87.395248238771586, 36.586573892869012 ], [ -87.395236238772924, 36.586641892882852 ], [ -87.39520423877812, 36.586848892924792 ], [ -87.395193238779797, 36.586917892938835 ], [ -87.394901238694999, 36.586895892947723 ], [ -87.394196238490238, 36.58684289296918 ], [ -87.394027238440913, 36.586825892973437 ], [ -87.393736238356027, 36.586798892981292 ], [ -87.393713238368349, 36.587070893035602 ], [ -87.393644238405471, 36.587889893199183 ], [ -87.393622238418146, 36.588162893253696 ], [ -87.393504238384509, 36.588162893258989 ], [ -87.39304023824927, 36.588120893271721 ], [ -87.391296237740946, 36.587962893319407 ], [ -87.391008237657019, 36.587936893327296 ], [ -87.390718237570894, 36.587887893330787 ], [ -87.390681237579386, 36.588162893386375 ], [ -87.390847237674564, 36.588851893513841 ], [ -87.390975237759463, 36.589549893644872 ], [ -87.391016237788662, 36.589801893692339 ], [ -87.391020237804966, 36.59002089373508 ], [ -87.391010237807492, 36.590097893750638 ], [ -87.39099423781262, 36.590237893778777 ], [ -87.390932237812549, 36.590491893831334 ], [ -87.390824237799293, 36.590743893885588 ], [ -87.390739237785638, 36.590896893919414 ], [ -87.390619237762891, 36.591061893957118 ], [ -87.390455237729199, 36.591250894001639 ], [ -87.390229237678469, 36.591448894050586 ], [ -87.390185237667993, 36.591478894058469 ], [ -87.39002223762958, 36.591594894088523 ], [ -87.389763237566925, 36.591756894131905 ], [ -87.389723237557305, 36.591781894138613 ], [ -87.389721279834134, 36.591783128356283 ], [ -87.389718, 36.591775 ], [ -87.387783, 36.592901 ], [ -87.385513, 36.593664 ], [ -87.385346591612787, 36.59372522935589 ], [ -87.384267236159744, 36.594066894832572 ], [ -87.383929236071239, 36.594180894870064 ], [ -87.383479235954965, 36.5943548949245 ], [ -87.38319423588274, 36.594484894962818 ], [ -87.382991641590536, 36.59459168894589 ], [ -87.382931, 36.594614 ], [ -87.382913563844241, 36.594635378062755 ], [ -87.382601235737866, 36.594834895058113 ], [ -87.382337235677028, 36.595042895110794 ], [ -87.382126235630352, 36.595237895158547 ], [ -87.381936235589933, 36.595435895205924 ], [ -87.381881235579129, 36.595506895222329 ], [ -87.381716235547003, 36.595721895271843 ], [ -87.381540235516241, 36.596001895334673 ], [ -87.381457235503362, 36.5961568953688 ], [ -87.381297235484183, 36.596538895450848 ], [ -87.381253658590239, 36.596670480640817 ], [ -87.381241, 36.596686 ], [ -87.381235716195732, 36.596739713892283 ], [ -87.381175235482033, 36.597008895548427 ], [ -87.38114223549519, 36.597333895613566 ], [ -87.381136235507327, 36.597533895653079 ], [ -87.381144506552857, 36.597666916949905 ], [ -87.380884, 36.600315 ], [ -87.380728221908555, 36.600562139072196 ], [ -87.38070023559608, 36.600603896274151 ], [ -87.379878235434902, 36.60165989651815 ], [ -87.379698235400781, 36.601907896574858 ], [ -87.379525235371119, 36.602190896638128 ], [ -87.379394235356017, 36.602511896706901 ], [ -87.379341235355085, 36.60271589674921 ], [ -87.379330679681402, 36.602779230830336 ], [ -87.379322, 36.602793 ], [ -87.379239128035948, 36.603347094532886 ], [ -87.379137235384647, 36.603979897006006 ], [ -87.379106235390424, 36.604190897048774 ], [ -87.378942578119776, 36.605329803512547 ], [ -87.378784, 36.60639 ] ] ] } }
]
}
