{
"type": "FeatureCollection",
"name": "precinct",
"crs": { "type": "name", "properties": { "name": "urn:ogc:def:crs:OGC:1.3:CRS84" } },
"features": [
{ "type": "Feature", "properties": { "precinct_key": "MONTGOMERY - 006457", "name20": "Montgomery - 006457", "county_norm": "MONTGOMERY", "prec_id": "006457" }, "geometry": { "type": "Polygon", "coordinates": [ [ [ -87.410465, 36.581183 ], [ -87.409323, 36.578701 ], [ -87.407763, 36.57529 ], [ -87.407404, 36.574511 ], [ -87.406914, 36.573452 ], [ -87.404897, 36.569067 ], [ -87.404742, 36.569126 ], [ -87.402596, 36.569618 ], [ -87.40123, 36.569489 ], [ -87.399879, 36.569348 ], [ -87.399426, 36.569307 ], [ -87.397824, 36.56915 ], [ -87.396493, 36.569027 ], [ -87.396196, 36.571062 ], [ -87.396015, 36.572151 ], [ -87.395807, 36.573234 ], [ -87.395632, 36.574368 ], [ -87.395463, 36.575422 ], [ -87.395332, 36.576405 ], [ -87.393981, 36.576351 ], [ -87.393898, 36.576808 ], [ -87.39239, 36.576668 ], [ -87.389539, 36.57658 ], [ -87.389992, 36.577282 ], [ -87.390738, 36.578431 ], [ -87.384833, 36.578365 ], [ -87.383858, 36.578674 ], [ -87.383533, 36.577042 ], [ -87.380928, 36.575605 ], [ -87.378596, 36.575051 ], [ -87.376534, 36.575445 ], [ -87.373339, 36.577273 ], [ -87.371861, 36.577829 ], [ -87.368922, 36.577441 ], [ -87.364931, 36.574145 ], [ -87.362967, 36.573844 ], [ -87.360683, 36.574032 ], [ -87.356486, 36.577179 ], [ -87.358024, 36.577916 ], [ -87.359281, 36.579959 ], [ -87.359381, 36.580094 ], [ -87.362225, 36.582688 ], [ -87.363937, 36.583115 ], [ -87.365528, 36.584772 ], [ -87.366722, 36.587419 ], [ -87.366697, 36.588501 ], [ -87.365485, 36.589766 ], [ -87.364714, 36.589773 ], [ -87.363788, 36.58865 ], [ -87.362178, 36.588113 ], [ -87.361198, 36.588705 ], [ -87.359129, 36.58862 ], [ -87.354493, 36.588913 ], [ -87.352915, 36.589852 ], [ -87.353724, 36.591834 ], [ -87.354554, 36.592094 ], [ -87.358723, 36.590206 ], [ -87.360698, 36.590091 ], [ -87.362469, 36.590793 ], [ -87.363052, 36.592 ], [ -87.357804, 36.594519 ], [ -87.35731, 36.594988 ], [ -87.357726, 36.596155 ], [ -87.358521, 36.596248 ], [ -87.362354, 36.595644 ], [ -87.364352, 36.596144 ], [ -87.366013, 36.597743 ], [ -87.367517, 36.598493 ], [ -87.369082, 36.600327 ], [ -87.369575, 36.602063 ], [ -87.369092, 36.603426 ], [ -87.367713, 36.604604 ], [ -87.365559, 36.604981 ], [ -87.364015, 36.604283 ], [ -87.360145, 36.603559 ], [ -87.357831, 36.60412 ], [ -87.357268, 36.604776 ], [ -87.357527, 36.605968 ], [ -87.360297, 36.609479 ], [ -87.361784, 36.610281 ], [ -87.362841, 36.610071 ], [ -87.366104, 36.608486 ], [ -87.367653, 36.608648 ], [ -87.370359, 36.608882 ], [ -87.37246, 36.609641 ], [ -87.378231, 36.610095 ], [ -87.378416, 36.608945 ], [ -87.378784, 36.60639 ], [ -87.379322, 36.602793 ], [ -87.380884, 36.600315 ], [ -87.381241, 36.596686 ], [ -87.382931, 36.594614 ], [ -87.385513, 36.593664 ], [ -87.387783, 36.592901 ], [ -87.389718, 36.591775 ], [ -87.389971, 36.592402 ], [ -87.389641, 36.592909 ], [ -87.386522, 36.593628 ], [ -87.382967, 36.595363 ], [ -87.382686, 36.59747 ], [ -87.386888, 36.599911 ], [ -87.387418, 36.600825 ], [ -87.386621, 36.601716 ], [ -87.387132, 36.603258 ], [ -87.388348, 36.60343 ], [ -87.391285, 36.599654 ], [ -87.392293, 36.598897 ], [ -87.393706, 36.598703 ], [ -87.394471, 36.599293 ], [ -87.394976, 36.601461 ], [ -87.393607, 36.602964 ], [ -87.393693, 36.603957 ], [ -87.396147, 36.605131 ], [ -87.398901, 36.604961 ], [ -87.39963, 36.604245 ], [ -87.39936, 36.602822 ], [ -87.397993, 36.602074 ], [ -87.397735, 36.601048 ], [ -87.398713, 36.600329 ], [ -87.399203, 36.600951 ], [ -87.401402, 36.601834 ], [ -87.40223, 36.601439 ], [ -87.403506, 36.599343 ], [ -87.40715, 36.598314 ], [ -87.409925, 36.597917 ], [ -87.414489, 36.597822 ], [ -87.41761, 36.599006 ], [ -87.419171, 36.600274 ], [ -87.420025, 36.600706 ], [ -87.422085, 36.60045 ], [ -87.422269, 36.600436 ], [ -87.421757, 36.599618 ], [ -87.421117, 36.598601 ], [ -87.419258, 36.595651 ], [ -87.41798, 36.593978 ], [ -87.416405, 36.59203 ], [ -87.413918, 36.588327 ], [ -87.412963, 36.586533 ], [ -87.412205, 36.584845 ], [ -87.412121, 36.58466 ], [ -87.410854, 36.582005 ], [ -87.410465, 36.581183 ] ] ] } }
]
}
