{
"type": "FeatureCollection",
"name": "intersection_pieces",
"crs": { "type": "name", "properties": { "name": "urn:ogc:def:crs:OGC:1.3:CRS84" } },
"features": [
{ "type": "Feature", "properties": { "precinct_key": "SHELBY - 008076", "name20": "Shelby - 008076", "county_norm": "SHELBY", "prec_id": "008076", "district_num": "97", "area_weight": 0.11868785289209108, "geometry_status": "real_secondary", "suggested_action": "manual_split_review" }, "geometry": { "type": "GeometryCollection", "geometries": [ { "type": "Polygon", "coordinates": [ [ [ -89.761598090182886, 35.159585176433566 ], [ -89.761589, 35.159517 ], [ -89.761584, 35.159477 ], [ -89.761598090182886, 35.159585176433566 ] ] ] }, { "type": "Polygon", "coordinates": [ [ [ -89.761584, 35.159477 ], [ -89.761573, 35.159395 ], [ -89.761551141613324, 35.159227565248578 ], [ -89.761584, 35.159477 ] ] ] }, { "type": "Polygon", "coordinates": [ [ [ -89.761305, 35.157359 ], [ -89.760098, 35.157375 ], [ -89.759763, 35.157378 ], [ -89.759756, 35.157273 ], [ -89.75973, 35.156861 ], [ -89.761305, 35.157359 ] ] ] }, { "type": "Polygon", "coordinates": [ [ [ -89.75973, 35.156861 ], [ -89.759675, 35.155982 ], [ -89.759652, 35.155617 ], [ -89.759629, 35.155236 ], [ -89.75973, 35.156861 ] ] ] }, { "type": "Polygon", "coordinates": [ [ [ -89.759483, 35.152879 ], [ -89.75945, 35.152857 ], [ -89.759393, 35.152813 ], [ -89.759296, 35.152738 ], [ -89.758986, 35.15248 ], [ -89.758886, 35.152393 ], [ -89.758829, 35.15234 ], [ -89.758666, 35.152185 ], [ -89.758532, 35.152035 ], [ -89.758299, 35.151712 ], [ -89.758131, 35.15145 ], [ -89.758113, 35.151422 ], [ -89.759483, 35.152879 ] ] ] }, { "type": "Polygon", "coordinates": [ [ [ -89.756211, 35.153756 ], [ -89.755288, 35.153727 ], [ -89.755192, 35.153482 ], [ -89.756211, 35.153756 ] ] ] }, { "type": "Polygon", "coordinates": [ [ [ -89.746788, 35.129335 ], [ -89.747776, 35.131163 ], [ -89.750252, 35.134837 ], [ -89.750601, 35.143196 ], [ -89.747112, 35.143207 ], [ -89.747132, 35.143736 ], [ -89.749227, 35.143723 ], [ -89.749864, 35.145196 ], [ -89.749533, 35.145207 ], [ -89.746248, 35.145144 ], [ -89.745687, 35.148949 ], [ -89.747714, 35.14902 ], [ -89.7491, 35.149038 ], [ -89.749379, 35.149041 ], [ -89.751085, 35.149071 ], [ -89.751081, 35.150187 ], [ -89.753046, 35.150216 ], [ -89.753918, 35.150229 ], [ -89.755192, 35.153482 ], [ -89.743337, 35.153382 ], [ -89.743317, 35.153135 ], [ -89.743257, 35.1528 ], [ -89.74321, 35.152086 ], [ -89.743169, 35.151097 ], [ -89.743162, 35.150817 ], [ -89.743068, 35.150152 ], [ -89.743009, 35.149904 ], [ -89.742987, 35.149812 ], [ -89.742967, 35.149554 ], [ -89.743, 35.149065 ], [ -89.74302, 35.148955 ], [ -89.743013, 35.148653 ], [ -89.742939, 35.148345 ], [ -89.742939, 35.148005 ], [ -89.742832, 35.147104 ], [ -89.742831, 35.14667 ], [ -89.742757, 35.145852 ], [ -89.742623, 35.145429 ], [ -89.74263, 35.145346 ], [ -89.742623, 35.145088 ], [ -89.742576, 35.145011 ], [ -89.742583, 35.144962 ], [ -89.742543, 35.144836 ], [ -89.742469, 35.144671 ], [ -89.742382, 35.144325 ], [ -89.742187, 35.143704 ], [ -89.741765, 35.142529 ], [ -89.741591, 35.142139 ], [ -89.741464, 35.141529 ], [ -89.741377, 35.141365 ], [ -89.741296, 35.141128 ], [ -89.741216, 35.140651 ], [ -89.741182, 35.140546 ], [ -89.741135, 35.140415 ], [ -89.741075, 35.140096 ], [ -89.740961, 35.139673 ], [ -89.740733, 35.13902 ], [ -89.740318, 35.138004 ], [ -89.74011, 35.137416 ], [ -89.739963, 35.136598 ], [ -89.739874, 35.136252 ], [ -89.739587, 35.135137 ], [ -89.739145, 35.133681 ], [ -89.738984, 35.133412 ], [ -89.73873, 35.132907 ], [ -89.738676, 35.132698 ], [ -89.738643, 35.132424 ], [ -89.738562, 35.131853 ], [ -89.738509, 35.131545 ], [ -89.738267, 35.130968 ], [ -89.738254, 35.130809 ], [ -89.7382, 35.130639 ], [ -89.738234, 35.130457 ], [ -89.738314, 35.129947 ], [ -89.73832, 35.129716 ], [ -89.738333, 35.12957 ], [ -89.738483, 35.129557 ], [ -89.739119, 35.129486 ], [ -89.739471, 35.129414 ], [ -89.739709, 35.12934 ], [ -89.740025, 35.129243 ], [ -89.740394, 35.129142 ], [ -89.741577, 35.128939 ], [ -89.743828, 35.128555 ], [ -89.74463, 35.128418 ], [ -89.745206, 35.128313 ], [ -89.746788, 35.129335 ] ] ] }, { "type": "Polygon", "coordinates": [ [ [ -89.756766434622676, 35.129348022594023 ], [ -89.756774, 35.129345 ], [ -89.757612, 35.129054 ], [ -89.757716, 35.129019 ], [ -89.757809, 35.128988 ], [ -89.757854, 35.128973 ], [ -89.758362, 35.128814 ], [ -89.758435, 35.12879 ], [ -89.758498, 35.128771 ], [ -89.758656, 35.128726 ], [ -89.75873, 35.128705 ], [ -89.756766434622676, 35.129348022594023 ] ] ] }, { "type": "Polygon", "coordinates": [ [ [ -89.759069, 35.128617 ], [ -89.759453, 35.128536 ], [ -89.759841, 35.128487 ], [ -89.760348646418478, 35.128442897704552 ], [ -89.759069, 35.128617 ] ] ] }, { "type": "Polygon", "coordinates": [ [ [ -89.760919574863507, 35.128365215280667 ], [ -89.760927, 35.12836 ], [ -89.761002, 35.128354 ], [ -89.760919574863507, 35.128365215280667 ] ] ] }, { "type": "Polygon", "coordinates": [ [ [ -89.761002, 35.128354 ], [ -89.761204, 35.128337 ], [ -89.761282096706708, 35.128330814266704 ], [ -89.761002, 35.128354 ] ] ] }, { "type": "Polygon", "coordinates": [ [ [ -89.764541, 35.128061 ], [ -89.764611, 35.128055 ], [ -89.76501, 35.128024 ], [ -89.76504439437133, 35.128021341349189 ], [ -89.764541, 35.128061 ] ] ] }, { "type": "Polygon", "coordinates": [ [ [ -89.766889, 35.127876 ], [ -89.767022, 35.127861 ], [ -89.767032941319371, 35.127864647112339 ], [ -89.766889, 35.127876 ] ] ] }, { "type": "Polygon", "coordinates": [ [ [ -89.770634610313849, 35.127482682323631 ], [ -89.770658, 35.12748 ], [ -89.770731, 35.127472 ], [ -89.770634610313849, 35.127482682323631 ] ] ] }, { "type": "LineString", "coordinates": [ [ -89.761628, 35.159816 ], [ -89.761615, 35.159715 ] ] }, { "type": "LineString", "coordinates": [ [ -89.759629, 35.155236 ], [ -89.759537, 35.15375 ] ] }, { "type": "LineString", "coordinates": [ [ -89.759537, 35.15375 ], [ -89.759483, 35.152879 ] ] }, { "type": "Point", "coordinates": [ -89.745935, 35.128118 ] }, { "type": "Point", "coordinates": [ -89.755603, 35.129729 ] }, { "type": "Point", "coordinates": [ -89.769964, 35.127557 ] }, { "type": "Point", "coordinates": [ -89.767992, 35.127789 ] } ] } },
{ "type": "Feature", "properties": { "precinct_key": "SHELBY - 008076", "name20": "Shelby - 008076", "county_norm": "SHELBY", "prec_id": "008076", "district_num": "95", "area_weight": 0.27524211665170345, "geometry_status": "real_secondary", "suggested_action": "manual_split_review" }, "geometry": { "type": "GeometryCollection", "geometries": [ { "type": "Polygon", "coordinates": [ [ [ -89.749861, 35.105428 ], [ -89.749621, 35.105516 ], [ -89.7494124284907, 35.105536039498496 ], [ -89.749861, 35.105428 ] ] ] }, { "type": "Polygon", "coordinates": [ [ [ -89.744871371397551, 35.106629649670566 ], [ -89.744538, 35.106783 ], [ -89.744229, 35.10689 ], [ -89.743895, 35.106948 ], [ -89.743541, 35.10695 ], [ -89.744871371397551, 35.106629649670566 ] ] ] }, { "type": "Polygon", "coordinates": [ [ [ -89.727269, 35.149642 ], [ -89.726269, 35.146363 ], [ -89.727235, 35.144215 ], [ -89.727659, 35.14099 ], [ -89.727892, 35.13726 ], [ -89.728056, 35.129492 ], [ -89.728102, 35.127693 ], [ -89.728192, 35.12398 ], [ -89.728202, 35.123512 ], [ -89.728097, 35.122421 ], [ -89.725613, 35.120821 ], [ -89.723104, 35.117418 ], [ -89.723121, 35.114709 ], [ -89.723633, 35.114125 ], [ -89.726033, 35.113078 ], [ -89.727698, 35.11304 ], [ -89.731676, 35.110606 ], [ -89.731458, 35.107573 ], [ -89.731539, 35.105631 ], [ -89.733729, 35.109964 ], [ -89.734293, 35.110579 ], [ -89.736386, 35.110867 ], [ -89.737176, 35.110511 ], [ -89.737371, 35.108826 ], [ -89.739503, 35.109569 ], [ -89.741754, 35.107391 ], [ -89.743541, 35.10695 ], [ -89.743538, 35.107419 ], [ -89.743526, 35.107453 ], [ -89.743508, 35.107485 ], [ -89.74348, 35.107514 ], [ -89.743438, 35.107574 ], [ -89.743424, 35.107608 ], [ -89.743398, 35.107637 ], [ -89.743365, 35.107659 ], [ -89.743347, 35.10769 ], [ -89.743315, 35.107713 ], [ -89.743299, 35.107747 ], [ -89.743252, 35.107805 ], [ -89.743145, 35.107999 ], [ -89.74309, 35.108134 ], [ -89.742938, 35.108469 ], [ -89.742882, 35.10864 ], [ -89.742804, 35.108807 ], [ -89.742793, 35.109019 ], [ -89.742807, 35.109052 ], [ -89.742824, 35.109121 ], [ -89.742906, 35.109285 ], [ -89.74293, 35.109314 ], [ -89.74296, 35.10934 ], [ -89.743032, 35.109381 ], [ -89.743112, 35.109411 ], [ -89.743239, 35.109439 ], [ -89.743457, 35.109471 ], [ -89.743544, 35.109478 ], [ -89.743895, 35.109494 ], [ -89.7442, 35.109523 ], [ -89.744266, 35.10954 ], [ -89.744283, 35.109545 ], [ -89.74432, 35.109564 ], [ -89.7444, 35.109589 ], [ -89.744441, 35.109594 ], [ -89.744477, 35.109615 ], [ -89.744555, 35.109641 ], [ -89.744668, 35.109694 ], [ -89.744741, 35.109735 ], [ -89.744904, 35.109852 ], [ -89.744998, 35.109925 ], [ -89.745053, 35.10998 ], [ -89.745192, 35.110161 ], [ -89.745244, 35.110257 ], [ -89.745251, 35.110291 ], [ -89.745288, 35.110354 ], [ -89.74529, 35.11039 ], [ -89.745309, 35.11042 ], [ -89.745312, 35.110527 ], [ -89.745339, 35.110763 ], [ -89.745259, 35.111011 ], [ -89.745065, 35.111351 ], [ -89.744751, 35.111802 ], [ -89.744371, 35.11228 ], [ -89.744064, 35.112681 ], [ -89.743716, 35.113126 ], [ -89.743242, 35.113665 ], [ -89.742808, 35.11417 ], [ -89.742461, 35.11461 ], [ -89.742387, 35.114769 ], [ -89.74224, 35.114923 ], [ -89.742154, 35.115071 ], [ -89.741679, 35.115648 ], [ -89.741345, 35.116097 ], [ -89.741185, 35.116313 ], [ -89.740798, 35.116747 ], [ -89.740537, 35.117099 ], [ -89.739956, 35.117775 ], [ -89.739758, 35.118012 ], [ -89.739723, 35.118055 ], [ -89.739736, 35.118077 ], [ -89.739622, 35.118226 ], [ -89.739335, 35.118583 ], [ -89.739275, 35.118682 ], [ -89.738975, 35.119017 ], [ -89.738794, 35.119346 ], [ -89.738688, 35.119682 ], [ -89.738601, 35.120121 ], [ -89.738595, 35.120692 ], [ -89.73854, 35.121303 ], [ -89.738528, 35.121434 ], [ -89.738529, 35.121676 ], [ -89.738517, 35.12184 ], [ -89.738502, 35.122055 ], [ -89.738549, 35.122433 ], [ -89.738616, 35.12279 ], [ -89.738583, 35.123446 ], [ -89.738577, 35.123587 ], [ -89.738477, 35.123972 ], [ -89.738496, 35.125092 ], [ -89.738465, 35.125464 ], [ -89.738525, 35.125618 ], [ -89.738552, 35.12581 ], [ -89.738505, 35.126025 ], [ -89.738446, 35.12826 ], [ -89.73843, 35.128452 ], [ -89.73838, 35.129068 ], [ -89.738327, 35.129315 ], [ -89.73834, 35.129496 ], [ -89.738333, 35.12957 ], [ -89.738316, 35.129572 ], [ -89.737605, 35.129636 ], [ -89.73726, 35.129636 ], [ -89.736844, 35.129597 ], [ -89.736755, 35.129983 ], [ -89.736664, 35.130381 ], [ -89.736653, 35.130467 ], [ -89.736651, 35.130676 ], [ -89.736609, 35.132498 ], [ -89.736581, 35.133793 ], [ -89.736561, 35.135039 ], [ -89.736608, 35.135034 ], [ -89.736169, 35.147404 ], [ -89.736107, 35.148832 ], [ -89.736096, 35.149612 ], [ -89.735556, 35.149607 ], [ -89.735456, 35.149605 ], [ -89.734656, 35.14959 ], [ -89.734098, 35.149579 ], [ -89.734085, 35.149876 ], [ -89.734078, 35.150064 ], [ -89.73405, 35.150341 ], [ -89.734013, 35.150492 ], [ -89.733903, 35.150739 ], [ -89.733855, 35.15085 ], [ -89.733775, 35.151007 ], [ -89.733768, 35.151022 ], [ -89.733483, 35.151602 ], [ -89.733431, 35.151721 ], [ -89.733359, 35.151889 ], [ -89.733084, 35.152463 ], [ -89.733043, 35.152548 ], [ -89.73301, 35.152617 ], [ -89.732986, 35.152678 ], [ -89.732884, 35.152935 ], [ -89.732817, 35.153157 ], [ -89.732776, 35.15397 ], [ -89.732738, 35.154762 ], [ -89.732559, 35.154746 ], [ -89.73214, 35.154751 ], [ -89.731658, 35.154793 ], [ -89.731622, 35.154797 ], [ -89.730881, 35.154826 ], [ -89.730623, 35.154809 ], [ -89.730475, 35.154777 ], [ -89.730214, 35.154682 ], [ -89.729262, 35.154211 ], [ -89.729114, 35.154141 ], [ -89.728645, 35.153904 ], [ -89.728616, 35.153893 ], [ -89.728368, 35.153802 ], [ -89.728269, 35.153781 ], [ -89.728016, 35.153751 ], [ -89.727723, 35.153741 ], [ -89.727555, 35.153748 ], [ -89.727269, 35.149642 ] ] ] }, { "type": "Polygon", "coordinates": [ [ [ -89.727494502650018, 35.15853235559765 ], [ -89.7275, 35.158819 ], [ -89.727511, 35.1594 ], [ -89.727513, 35.159705 ], [ -89.727516, 35.160088 ], [ -89.727494502650018, 35.15853235559765 ] ] ] }, { "type": "LineString", "coordinates": [ [ -89.749889, 35.105634 ], [ -89.749861, 35.105428 ] ] }, { "type": "LineString", "coordinates": [ [ -89.727472, 35.156479 ], [ -89.727475, 35.157121 ] ] }, { "type": "Point", "coordinates": [ -89.752147, 35.105105 ] } ] } },
{ "type": "Feature", "properties": { "precinct_key": "SHELBY - 008076", "name20": "Shelby - 008076", "county_norm": "SHELBY", "prec_id": "008076", "district_num": "83", "area_weight": 0.30222539977174318, "geometry_status": "real_secondary", "suggested_action": "manual_split_review" }, "geometry": { "type": "Polygon", "coordinates": [ [ [ -89.745206, 35.128313 ], [ -89.74463, 35.128418 ], [ -89.743828, 35.128555 ], [ -89.741577, 35.128939 ], [ -89.740394, 35.129142 ], [ -89.740025, 35.129243 ], [ -89.739709, 35.12934 ], [ -89.739471, 35.129414 ], [ -89.739119, 35.129486 ], [ -89.738483, 35.129557 ], [ -89.738333, 35.12957 ], [ -89.73834, 35.129496 ], [ -89.738327, 35.129315 ], [ -89.73838, 35.129068 ], [ -89.73843, 35.128452 ], [ -89.738446, 35.12826 ], [ -89.738505, 35.126025 ], [ -89.738552, 35.12581 ], [ -89.738525, 35.125618 ], [ -89.738465, 35.125464 ], [ -89.738496, 35.125092 ], [ -89.738477, 35.123972 ], [ -89.738577, 35.123587 ], [ -89.738583, 35.123446 ], [ -89.738616, 35.12279 ], [ -89.738549, 35.122433 ], [ -89.738502, 35.122055 ], [ -89.738517, 35.12184 ], [ -89.738529, 35.121676 ], [ -89.738528, 35.121434 ], [ -89.73854, 35.121303 ], [ -89.738595, 35.120692 ], [ -89.738601, 35.120121 ], [ -89.738688, 35.119682 ], [ -89.738794, 35.119346 ], [ -89.738975, 35.119017 ], [ -89.739275, 35.118682 ], [ -89.739335, 35.118583 ], [ -89.739622, 35.118226 ], [ -89.739736, 35.118077 ], [ -89.739723, 35.118055 ], [ -89.739758, 35.118012 ], [ -89.739956, 35.117775 ], [ -89.740537, 35.117099 ], [ -89.740798, 35.116747 ], [ -89.741185, 35.116313 ], [ -89.741345, 35.116097 ], [ -89.741679, 35.115648 ], [ -89.742154, 35.115071 ], [ -89.74224, 35.114923 ], [ -89.742387, 35.114769 ], [ -89.742461, 35.11461 ], [ -89.742808, 35.11417 ], [ -89.743242, 35.113665 ], [ -89.743716, 35.113126 ], [ -89.744064, 35.112681 ], [ -89.744371, 35.11228 ], [ -89.744751, 35.111802 ], [ -89.745065, 35.111351 ], [ -89.745259, 35.111011 ], [ -89.745339, 35.110763 ], [ -89.745312, 35.110527 ], [ -89.745309, 35.11042 ], [ -89.74529, 35.11039 ], [ -89.745288, 35.110354 ], [ -89.745251, 35.110291 ], [ -89.745244, 35.110257 ], [ -89.745192, 35.110161 ], [ -89.745053, 35.10998 ], [ -89.744998, 35.109925 ], [ -89.744904, 35.109852 ], [ -89.744741, 35.109735 ], [ -89.744668, 35.109694 ], [ -89.744555, 35.109641 ], [ -89.744477, 35.109615 ], [ -89.744441, 35.109594 ], [ -89.7444, 35.109589 ], [ -89.74432, 35.109564 ], [ -89.744283, 35.109545 ], [ -89.744266, 35.10954 ], [ -89.7442, 35.109523 ], [ -89.743895, 35.109494 ], [ -89.743544, 35.109478 ], [ -89.743457, 35.109471 ], [ -89.743239, 35.109439 ], [ -89.743112, 35.109411 ], [ -89.743032, 35.109381 ], [ -89.74296, 35.10934 ], [ -89.74293, 35.109314 ], [ -89.742906, 35.109285 ], [ -89.742824, 35.109121 ], [ -89.742807, 35.109052 ], [ -89.742793, 35.109019 ], [ -89.742804, 35.108807 ], [ -89.742882, 35.10864 ], [ -89.742938, 35.108469 ], [ -89.74309, 35.108134 ], [ -89.743145, 35.107999 ], [ -89.743252, 35.107805 ], [ -89.743299, 35.107747 ], [ -89.743315, 35.107713 ], [ -89.743347, 35.10769 ], [ -89.743365, 35.107659 ], [ -89.743398, 35.107637 ], [ -89.743424, 35.107608 ], [ -89.743438, 35.107574 ], [ -89.74348, 35.107514 ], [ -89.743508, 35.107485 ], [ -89.743526, 35.107453 ], [ -89.743538, 35.107419 ], [ -89.743541, 35.10695 ], [ -89.743895, 35.106948 ], [ -89.744229, 35.10689 ], [ -89.744538, 35.106783 ], [ -89.744871371397551, 35.106629649670566 ], [ -89.7494124284907, 35.105536039498496 ], [ -89.749621, 35.105516 ], [ -89.749861, 35.105428 ], [ -89.749889, 35.105634 ], [ -89.752147, 35.105105 ], [ -89.760779, 35.103339 ], [ -89.761086, 35.103374 ], [ -89.760754, 35.110043 ], [ -89.760653, 35.11015 ], [ -89.760621, 35.110184 ], [ -89.760619, 35.110205 ], [ -89.760607, 35.110457 ], [ -89.760601, 35.111001 ], [ -89.760591, 35.111849 ], [ -89.760592, 35.111894 ], [ -89.760593, 35.111927 ], [ -89.760596, 35.112061 ], [ -89.760594, 35.112285 ], [ -89.760592, 35.112457 ], [ -89.760882, 35.115262 ], [ -89.760736, 35.117844 ], [ -89.760924, 35.117835 ], [ -89.76286, 35.11769 ], [ -89.763809, 35.11758 ], [ -89.766516, 35.117604 ], [ -89.767277, 35.117615 ], [ -89.769214, 35.117639 ], [ -89.770073, 35.117659 ], [ -89.771422, 35.11769 ], [ -89.771362, 35.121768 ], [ -89.771342, 35.123189 ], [ -89.771302, 35.123971 ], [ -89.771185, 35.125293 ], [ -89.771027, 35.126412 ], [ -89.770731, 35.127472 ], [ -89.770658, 35.12748 ], [ -89.770634610313849, 35.127482682323631 ], [ -89.769964, 35.127557 ], [ -89.77003, 35.126797 ], [ -89.768023, 35.126774 ], [ -89.767992, 35.127789 ], [ -89.767032941319371, 35.127864647112339 ], [ -89.767022, 35.127861 ], [ -89.766889, 35.127876 ], [ -89.76504439437133, 35.128021341349189 ], [ -89.76501, 35.128024 ], [ -89.764611, 35.128055 ], [ -89.764541, 35.128061 ], [ -89.761282096706708, 35.128330814266704 ], [ -89.761204, 35.128337 ], [ -89.761002, 35.128354 ], [ -89.760927, 35.12836 ], [ -89.760919574863507, 35.128365215280667 ], [ -89.760348646418478, 35.128442897704552 ], [ -89.759841, 35.128487 ], [ -89.759453, 35.128536 ], [ -89.759069, 35.128617 ], [ -89.759048, 35.125361 ], [ -89.759521, 35.125057 ], [ -89.758888, 35.123325 ], [ -89.753699, 35.123142 ], [ -89.752933, 35.123115 ], [ -89.753779, 35.124205 ], [ -89.755936, 35.125558 ], [ -89.756211, 35.126339 ], [ -89.758602, 35.128014 ], [ -89.75873, 35.128705 ], [ -89.758656, 35.128726 ], [ -89.758498, 35.128771 ], [ -89.758435, 35.12879 ], [ -89.758362, 35.128814 ], [ -89.757854, 35.128973 ], [ -89.757809, 35.128988 ], [ -89.757716, 35.129019 ], [ -89.757612, 35.129054 ], [ -89.756774, 35.129345 ], [ -89.756766434622676, 35.129348022594023 ], [ -89.755603, 35.129729 ], [ -89.755655, 35.126832 ], [ -89.752512, 35.126726 ], [ -89.751279, 35.126132 ], [ -89.749811, 35.126101 ], [ -89.749559, 35.126686 ], [ -89.746008, 35.126248 ], [ -89.745935, 35.128118 ], [ -89.745206, 35.128313 ] ] ] } },
{ "type": "Feature", "properties": { "precinct_key": "SHELBY - 008076", "name20": "Shelby - 008076", "county_norm": "SHELBY", "prec_id": "008076", "district_num": "96", "area_weight": 0.3038446306844636, "geometry_status": "dominant", "suggested_action": "manual_split_review" }, "geometry": { "type": "Polygon", "coordinates": [ [ [ -89.762135, 35.15974 ], [ -89.771047, 35.157196 ], [ -89.771078, 35.158023 ], [ -89.771029, 35.158962 ], [ -89.769551, 35.159066 ], [ -89.767813, 35.159631 ], [ -89.766338, 35.160675 ], [ -89.764761, 35.162347 ], [ -89.763304, 35.163323 ], [ -89.764896, 35.16453 ], [ -89.764589, 35.166008 ], [ -89.764824, 35.168446 ], [ -89.764257, 35.168853 ], [ -89.764208, 35.168852 ], [ -89.766257, 35.170182 ], [ -89.767389, 35.170557 ], [ -89.767447, 35.171666 ], [ -89.76544, 35.172155 ], [ -89.765368, 35.172187 ], [ -89.765701, 35.173076 ], [ -89.763003, 35.173898 ], [ -89.762948, 35.173844 ], [ -89.761371, 35.17295 ], [ -89.761303, 35.175114 ], [ -89.760403, 35.17509 ], [ -89.758335, 35.175034 ], [ -89.758412, 35.172969 ], [ -89.756799, 35.172969 ], [ -89.756609, 35.172968 ], [ -89.756644, 35.171732 ], [ -89.756676, 35.170514 ], [ -89.756752, 35.169539 ], [ -89.757045, 35.168447 ], [ -89.757091, 35.166725 ], [ -89.756961, 35.163785 ], [ -89.755304, 35.163754 ], [ -89.751919, 35.163682 ], [ -89.751736, 35.163678 ], [ -89.751286, 35.163667 ], [ -89.742972, 35.163445 ], [ -89.740351, 35.163067 ], [ -89.737376, 35.161975 ], [ -89.735545, 35.161145 ], [ -89.734344, 35.160617 ], [ -89.732984, 35.160276 ], [ -89.732172, 35.160223 ], [ -89.731849, 35.160209 ], [ -89.727516, 35.160088 ], [ -89.727513, 35.159705 ], [ -89.727511, 35.1594 ], [ -89.7275, 35.158819 ], [ -89.727494502650018, 35.15853235559765 ], [ -89.727475, 35.157121 ], [ -89.727472, 35.156479 ], [ -89.727555, 35.153748 ], [ -89.727723, 35.153741 ], [ -89.728016, 35.153751 ], [ -89.728269, 35.153781 ], [ -89.728368, 35.153802 ], [ -89.728616, 35.153893 ], [ -89.728645, 35.153904 ], [ -89.729114, 35.154141 ], [ -89.729262, 35.154211 ], [ -89.730214, 35.154682 ], [ -89.730475, 35.154777 ], [ -89.730623, 35.154809 ], [ -89.730881, 35.154826 ], [ -89.731622, 35.154797 ], [ -89.731658, 35.154793 ], [ -89.73214, 35.154751 ], [ -89.732559, 35.154746 ], [ -89.732738, 35.154762 ], [ -89.732776, 35.15397 ], [ -89.732817, 35.153157 ], [ -89.732884, 35.152935 ], [ -89.732986, 35.152678 ], [ -89.73301, 35.152617 ], [ -89.733043, 35.152548 ], [ -89.733084, 35.152463 ], [ -89.733359, 35.151889 ], [ -89.733431, 35.151721 ], [ -89.733483, 35.151602 ], [ -89.733768, 35.151022 ], [ -89.733775, 35.151007 ], [ -89.733855, 35.15085 ], [ -89.733903, 35.150739 ], [ -89.734013, 35.150492 ], [ -89.73405, 35.150341 ], [ -89.734078, 35.150064 ], [ -89.734085, 35.149876 ], [ -89.734098, 35.149579 ], [ -89.734656, 35.14959 ], [ -89.735456, 35.149605 ], [ -89.735556, 35.149607 ], [ -89.736096, 35.149612 ], [ -89.736107, 35.148832 ], [ -89.736169, 35.147404 ], [ -89.736608, 35.135034 ], [ -89.736561, 35.135039 ], [ -89.736581, 35.133793 ], [ -89.736609, 35.132498 ], [ -89.736651, 35.130676 ], [ -89.736653, 35.130467 ], [ -89.736664, 35.130381 ], [ -89.736755, 35.129983 ], [ -89.736844, 35.129597 ], [ -89.73726, 35.129636 ], [ -89.737605, 35.129636 ], [ -89.738316, 35.129572 ], [ -89.738333, 35.12957 ], [ -89.73832, 35.129716 ], [ -89.738314, 35.129947 ], [ -89.738234, 35.130457 ], [ -89.7382, 35.130639 ], [ -89.738254, 35.130809 ], [ -89.738267, 35.130968 ], [ -89.738509, 35.131545 ], [ -89.738562, 35.131853 ], [ -89.738643, 35.132424 ], [ -89.738676, 35.132698 ], [ -89.73873, 35.132907 ], [ -89.738984, 35.133412 ], [ -89.739145, 35.133681 ], [ -89.739587, 35.135137 ], [ -89.739874, 35.136252 ], [ -89.739963, 35.136598 ], [ -89.74011, 35.137416 ], [ -89.740318, 35.138004 ], [ -89.740733, 35.13902 ], [ -89.740961, 35.139673 ], [ -89.741075, 35.140096 ], [ -89.741135, 35.140415 ], [ -89.741182, 35.140546 ], [ -89.741216, 35.140651 ], [ -89.741296, 35.141128 ], [ -89.741377, 35.141365 ], [ -89.741464, 35.141529 ], [ -89.741591, 35.142139 ], [ -89.741765, 35.142529 ], [ -89.742187, 35.143704 ], [ -89.742382, 35.144325 ], [ -89.742469, 35.144671 ], [ -89.742543, 35.144836 ], [ -89.742583, 35.144962 ], [ -89.742576, 35.145011 ], [ -89.742623, 35.145088 ], [ -89.74263, 35.145346 ], [ -89.742623, 35.145429 ], [ -89.742757, 35.145852 ], [ -89.742831, 35.14667 ], [ -89.742832, 35.147104 ], [ -89.742939, 35.148005 ], [ -89.742939, 35.148345 ], [ -89.743013, 35.148653 ], [ -89.74302, 35.148955 ], [ -89.743, 35.149065 ], [ -89.742967, 35.149554 ], [ -89.742987, 35.149812 ], [ -89.743009, 35.149904 ], [ -89.743068, 35.150152 ], [ -89.743162, 35.150817 ], [ -89.743169, 35.151097 ], [ -89.74321, 35.152086 ], [ -89.743257, 35.1528 ], [ -89.743317, 35.153135 ], [ -89.743337, 35.153382 ], [ -89.755192, 35.153482 ], [ -89.755288, 35.153727 ], [ -89.756211, 35.153756 ], [ -89.758113, 35.151422 ], [ -89.758131, 35.15145 ], [ -89.758299, 35.151712 ], [ -89.758532, 35.152035 ], [ -89.758666, 35.152185 ], [ -89.758829, 35.15234 ], [ -89.758886, 35.152393 ], [ -89.758986, 35.15248 ], [ -89.759296, 35.152738 ], [ -89.759393, 35.152813 ], [ -89.75945, 35.152857 ], [ -89.759483, 35.152879 ], [ -89.759537, 35.15375 ], [ -89.759629, 35.155236 ], [ -89.759652, 35.155617 ], [ -89.759675, 35.155982 ], [ -89.75973, 35.156861 ], [ -89.759756, 35.157273 ], [ -89.759763, 35.157378 ], [ -89.760098, 35.157375 ], [ -89.761305, 35.157359 ], [ -89.761551141613324, 35.159227565248578 ], [ -89.761573, 35.159395 ], [ -89.761584, 35.159477 ], [ -89.761589, 35.159517 ], [ -89.761598090182886, 35.159585176433566 ], [ -89.761615, 35.159715 ], [ -89.761628, 35.159816 ], [ -89.762135, 35.15974 ] ] ] } }
]
}
