{
"type": "FeatureCollection",
"name": "precinct",
"crs": { "type": "name", "properties": { "name": "urn:ogc:def:crs:OGC:1.3:CRS84" } },
"features": [
{ "type": "Feature", "properties": { "precinct_key": "SHELBY - 008076", "name20": "Shelby - 008076", "county_norm": "SHELBY", "prec_id": "008076" }, "geometry": { "type": "Polygon", "coordinates": [ [ [ -89.769551, 35.159066 ], [ -89.771029, 35.158962 ], [ -89.771078, 35.158023 ], [ -89.771047, 35.157196 ], [ -89.762135, 35.15974 ], [ -89.761628, 35.159816 ], [ -89.761615, 35.159715 ], [ -89.761584, 35.159477 ], [ -89.761305, 35.157359 ], [ -89.75973, 35.156861 ], [ -89.759629, 35.155236 ], [ -89.759537, 35.15375 ], [ -89.759483, 35.152879 ], [ -89.758113, 35.151422 ], [ -89.756211, 35.153756 ], [ -89.755192, 35.153482 ], [ -89.753918, 35.150229 ], [ -89.753046, 35.150216 ], [ -89.751081, 35.150187 ], [ -89.751085, 35.149071 ], [ -89.749379, 35.149041 ], [ -89.7491, 35.149038 ], [ -89.747714, 35.14902 ], [ -89.745687, 35.148949 ], [ -89.746248, 35.145144 ], [ -89.749533, 35.145207 ], [ -89.749864, 35.145196 ], [ -89.749227, 35.143723 ], [ -89.747132, 35.143736 ], [ -89.747112, 35.143207 ], [ -89.750601, 35.143196 ], [ -89.750252, 35.134837 ], [ -89.747776, 35.131163 ], [ -89.746788, 35.129335 ], [ -89.745206, 35.128313 ], [ -89.745935, 35.128118 ], [ -89.746008, 35.126248 ], [ -89.749559, 35.126686 ], [ -89.749811, 35.126101 ], [ -89.751279, 35.126132 ], [ -89.752512, 35.126726 ], [ -89.755655, 35.126832 ], [ -89.755603, 35.129729 ], [ -89.75873, 35.128705 ], [ -89.758602, 35.128014 ], [ -89.756211, 35.126339 ], [ -89.755936, 35.125558 ], [ -89.753779, 35.124205 ], [ -89.752933, 35.123115 ], [ -89.753699, 35.123142 ], [ -89.758888, 35.123325 ], [ -89.759521, 35.125057 ], [ -89.759048, 35.125361 ], [ -89.759069, 35.128617 ], [ -89.761002, 35.128354 ], [ -89.764541, 35.128061 ], [ -89.766889, 35.127876 ], [ -89.767992, 35.127789 ], [ -89.768023, 35.126774 ], [ -89.77003, 35.126797 ], [ -89.769964, 35.127557 ], [ -89.770731, 35.127472 ], [ -89.771027, 35.126412 ], [ -89.771185, 35.125293 ], [ -89.771302, 35.123971 ], [ -89.771342, 35.123189 ], [ -89.771362, 35.121768 ], [ -89.771422, 35.11769 ], [ -89.770073, 35.117659 ], [ -89.769214, 35.117639 ], [ -89.767277, 35.117615 ], [ -89.766516, 35.117604 ], [ -89.763809, 35.11758 ], [ -89.76286, 35.11769 ], [ -89.760924, 35.117835 ], [ -89.760736, 35.117844 ], [ -89.760882, 35.115262 ], [ -89.760592, 35.112457 ], [ -89.760594, 35.112285 ], [ -89.760596, 35.112061 ], [ -89.760593, 35.111927 ], [ -89.760592, 35.111894 ], [ -89.760591, 35.111849 ], [ -89.760601, 35.111001 ], [ -89.760607, 35.110457 ], [ -89.760619, 35.110205 ], [ -89.760621, 35.110184 ], [ -89.760653, 35.11015 ], [ -89.760754, 35.110043 ], [ -89.761086, 35.103374 ], [ -89.760779, 35.103339 ], [ -89.752147, 35.105105 ], [ -89.749889, 35.105634 ], [ -89.749861, 35.105428 ], [ -89.743541, 35.10695 ], [ -89.741754, 35.107391 ], [ -89.739503, 35.109569 ], [ -89.737371, 35.108826 ], [ -89.737176, 35.110511 ], [ -89.736386, 35.110867 ], [ -89.734293, 35.110579 ], [ -89.733729, 35.109964 ], [ -89.731539, 35.105631 ], [ -89.731458, 35.107573 ], [ -89.731676, 35.110606 ], [ -89.727698, 35.11304 ], [ -89.726033, 35.113078 ], [ -89.723633, 35.114125 ], [ -89.723121, 35.114709 ], [ -89.723104, 35.117418 ], [ -89.725613, 35.120821 ], [ -89.728097, 35.122421 ], [ -89.728202, 35.123512 ], [ -89.728192, 35.12398 ], [ -89.728102, 35.127693 ], [ -89.728056, 35.129492 ], [ -89.727892, 35.13726 ], [ -89.727659, 35.14099 ], [ -89.727235, 35.144215 ], [ -89.726269, 35.146363 ], [ -89.727269, 35.149642 ], [ -89.727555, 35.153748 ], [ -89.727472, 35.156479 ], [ -89.727475, 35.157121 ], [ -89.727516, 35.160088 ], [ -89.731849, 35.160209 ], [ -89.732172, 35.160223 ], [ -89.732984, 35.160276 ], [ -89.734344, 35.160617 ], [ -89.735545, 35.161145 ], [ -89.737376, 35.161975 ], [ -89.740351, 35.163067 ], [ -89.742972, 35.163445 ], [ -89.751286, 35.163667 ], [ -89.751736, 35.163678 ], [ -89.751919, 35.163682 ], [ -89.755304, 35.163754 ], [ -89.756961, 35.163785 ], [ -89.757091, 35.166725 ], [ -89.757045, 35.168447 ], [ -89.756752, 35.169539 ], [ -89.756676, 35.170514 ], [ -89.756644, 35.171732 ], [ -89.756609, 35.172968 ], [ -89.756799, 35.172969 ], [ -89.758412, 35.172969 ], [ -89.758335, 35.175034 ], [ -89.760403, 35.17509 ], [ -89.761303, 35.175114 ], [ -89.761371, 35.17295 ], [ -89.762948, 35.173844 ], [ -89.763003, 35.173898 ], [ -89.765701, 35.173076 ], [ -89.765368, 35.172187 ], [ -89.76544, 35.172155 ], [ -89.767447, 35.171666 ], [ -89.767389, 35.170557 ], [ -89.766257, 35.170182 ], [ -89.764208, 35.168852 ], [ -89.764257, 35.168853 ], [ -89.764824, 35.168446 ], [ -89.764589, 35.166008 ], [ -89.764896, 35.16453 ], [ -89.763304, 35.163323 ], [ -89.764761, 35.162347 ], [ -89.766338, 35.160675 ], [ -89.767813, 35.159631 ], [ -89.769551, 35.159066 ] ] ] } }
]
}
