{
"type": "FeatureCollection",
"name": "intersection_pieces",
"crs": { "type": "name", "properties": { "name": "urn:ogc:def:crs:OGC:1.3:CRS84" } },
"features": [
{ "type": "Feature", "properties": { "precinct_key": "RUTHERFORD - 007669", "name20": "Rutherford - 007669", "county_norm": "RUTHERFORD", "prec_id": "007669", "district_num": "13", "area_weight": 0.28743008401891162, "geometry_status": "real_secondary", "suggested_action": "manual_split_review" }, "geometry": { "type": "GeometryCollection", "geometries": [ { "type": "Polygon", "coordinates": [ [ [ -86.584819, 35.880916 ], [ -86.584276, 35.880853 ], [ -86.583558127734136, 35.880735789403289 ], [ -86.584819, 35.880916 ] ] ] }, { "type": "Polygon", "coordinates": [ [ [ -86.576329, 35.880221 ], [ -86.575972, 35.880293 ], [ -86.575788, 35.88032 ], [ -86.575539, 35.880326 ], [ -86.57524, 35.880296 ], [ -86.574127, 35.880068 ], [ -86.576329, 35.880221 ] ] ] }, { "type": "Polygon", "coordinates": [ [ [ -86.574127, 35.880068 ], [ -86.574076, 35.880393 ], [ -86.574063, 35.880477 ], [ -86.574034, 35.880612 ], [ -86.574008, 35.880695 ], [ -86.573927, 35.880889 ], [ -86.573877, 35.880979 ], [ -86.573804, 35.881085 ], [ -86.573723, 35.881191 ], [ -86.57365, 35.881265 ], [ -86.573422, 35.881503 ], [ -86.574127, 35.880068 ] ] ] }, { "type": "Polygon", "coordinates": [ [ [ -86.572548, 35.8827 ], [ -86.572484, 35.882848 ], [ -86.57238, 35.883056 ], [ -86.572371, 35.883076 ], [ -86.572284, 35.883195 ], [ -86.572172, 35.883329 ], [ -86.572077, 35.883416 ], [ -86.571975, 35.883509 ], [ -86.571892, 35.883573 ], [ -86.571795, 35.883635 ], [ -86.571601, 35.883741 ], [ -86.571429, 35.883829 ], [ -86.571229, 35.883936 ], [ -86.57122, 35.883942 ], [ -86.571017, 35.884067 ], [ -86.572548, 35.8827 ] ] ] }, { "type": "Polygon", "coordinates": [ [ [ -86.570191, 35.885108 ], [ -86.570146, 35.885181 ], [ -86.570008, 35.885387 ], [ -86.569583, 35.886027 ], [ -86.570191, 35.885108 ] ] ] }, { "type": "Polygon", "coordinates": [ [ [ -86.569583, 35.886027 ], [ -86.569442, 35.886221 ], [ -86.569166, 35.88652 ], [ -86.569583, 35.886027 ] ] ] }, { "type": "Polygon", "coordinates": [ [ [ -86.569166, 35.88652 ], [ -86.568964, 35.886698 ], [ -86.568876, 35.886765 ], [ -86.568342341584327, 35.887181834585306 ], [ -86.569166, 35.88652 ] ] ] }, { "type": "Polygon", "coordinates": [ [ [ -86.562496, 35.902611 ], [ -86.562506, 35.902752 ], [ -86.562511, 35.902804 ], [ -86.562509, 35.902849 ], [ -86.562505, 35.902969 ], [ -86.562501, 35.902988 ], [ -86.562466, 35.903201 ], [ -86.562496, 35.902611 ] ] ] }, { "type": "Polygon", "coordinates": [ [ [ -86.562466, 35.903201 ], [ -86.562388, 35.903391 ], [ -86.562373, 35.903428 ], [ -86.562321, 35.903514 ], [ -86.562226, 35.903671 ], [ -86.56221, 35.903688 ], [ -86.562078, 35.903832 ], [ -86.562026, 35.903884 ], [ -86.561957, 35.903954 ], [ -86.562466, 35.903201 ] ] ] }, { "type": "Polygon", "coordinates": [ [ [ -86.561957, 35.903954 ], [ -86.561808, 35.904059 ], [ -86.561745, 35.904094 ], [ -86.561639, 35.904154 ], [ -86.561562, 35.90419 ], [ -86.56145, 35.904243 ], [ -86.561957, 35.903954 ] ] ] }, { "type": "Polygon", "coordinates": [ [ [ -86.56145, 35.904243 ], [ -86.561254, 35.904315 ], [ -86.561044, 35.904371 ], [ -86.560807, 35.904406 ], [ -86.56145, 35.904243 ] ] ] }, { "type": "Polygon", "coordinates": [ [ [ -86.560807, 35.904406 ], [ -86.560732, 35.904407 ], [ -86.56055, 35.904412 ], [ -86.560251, 35.904392 ], [ -86.560807, 35.904406 ] ] ] }, { "type": "Polygon", "coordinates": [ [ [ -86.551666, 35.912687 ], [ -86.551618, 35.913009 ], [ -86.551543, 35.913526 ], [ -86.551471, 35.913976 ], [ -86.551421, 35.914299 ], [ -86.551328, 35.914886 ], [ -86.551051, 35.916647 ], [ -86.550959, 35.917235 ], [ -86.551666, 35.912687 ] ] ] }, { "type": "Polygon", "coordinates": [ [ [ -86.596531, 35.956264 ], [ -86.596543, 35.956245 ], [ -86.596583, 35.956189 ], [ -86.596597, 35.956171 ], [ -86.596623, 35.956135 ], [ -86.596696, 35.956048 ], [ -86.596816, 35.955941 ], [ -86.597013, 35.955801 ], [ -86.597268, 35.955635 ], [ -86.597469, 35.955437 ], [ -86.597629, 35.955293 ], [ -86.597829, 35.955149 ], [ -86.597844, 35.955139 ], [ -86.598368, 35.954895 ], [ -86.598542, 35.95482 ], [ -86.598892, 35.954684 ], [ -86.599179, 35.954582 ], [ -86.599376, 35.954533 ], [ -86.599425, 35.954524 ], [ -86.599529, 35.954516 ], [ -86.599718, 35.954512 ], [ -86.600001, 35.954514 ], [ -86.600488, 35.954505 ], [ -86.600705, 35.954486 ], [ -86.600914, 35.95446 ], [ -86.601013, 35.954441 ], [ -86.601136, 35.954407 ], [ -86.601164, 35.954399 ], [ -86.601242, 35.95437 ], [ -86.601532, 35.954214 ], [ -86.60168, 35.954126 ], [ -86.601874, 35.954043 ], [ -86.602013, 35.954012 ], [ -86.602132, 35.954003 ], [ -86.602258, 35.954005 ], [ -86.602428, 35.954029 ], [ -86.602956, 35.954107 ], [ -86.603392, 35.954135 ], [ -86.604023, 35.954233 ], [ -86.604437, 35.952856 ], [ -86.604459, 35.952785 ], [ -86.604599, 35.9524 ], [ -86.604611, 35.952368 ], [ -86.604637, 35.952271 ], [ -86.605321, 35.949732 ], [ -86.605292, 35.949539 ], [ -86.605189, 35.949374 ], [ -86.605039, 35.94922 ], [ -86.604875, 35.949111 ], [ -86.604646, 35.948982 ], [ -86.604235, 35.94875 ], [ -86.603847, 35.948509 ], [ -86.603669, 35.948323 ], [ -86.603559, 35.948147 ], [ -86.603547, 35.948106 ], [ -86.603483, 35.947899 ], [ -86.60346, 35.947607 ], [ -86.603478, 35.947401 ], [ -86.603485, 35.947336 ], [ -86.603822, 35.945283 ], [ -86.603939, 35.944577 ], [ -86.604048, 35.943787 ], [ -86.604376, 35.941675 ], [ -86.604759, 35.939207 ], [ -86.604883, 35.938572 ], [ -86.604915, 35.938464 ], [ -86.605052, 35.938014 ], [ -86.605055, 35.938003 ], [ -86.605111, 35.937834 ], [ -86.605193, 35.937845 ], [ -86.605481, 35.937017 ], [ -86.605511, 35.936931 ], [ -86.605536, 35.936864 ], [ -86.60554, 35.936853 ], [ -86.60555, 35.936829 ], [ -86.605558, 35.936808 ], [ -86.605562, 35.936797 ], [ -86.605567, 35.936785 ], [ -86.605571, 35.936775 ], [ -86.604812, 35.936602 ], [ -86.604371, 35.936498 ], [ -86.60406, 35.936425 ], [ -86.603742, 35.936307 ], [ -86.603347, 35.93614 ], [ -86.601935, 35.935504 ], [ -86.60135, 35.935247 ], [ -86.600639, 35.93493 ], [ -86.599138, 35.934279 ], [ -86.598783, 35.934121 ], [ -86.598621, 35.934043 ], [ -86.598267, 35.933889 ], [ -86.597792, 35.933671 ], [ -86.596884, 35.933206 ], [ -86.596857, 35.933235 ], [ -86.596816, 35.933291 ], [ -86.595788, 35.932805 ], [ -86.595658, 35.932744 ], [ -86.595508, 35.932674 ], [ -86.595446, 35.932642 ], [ -86.594991, 35.932406 ], [ -86.594885, 35.932342 ], [ -86.594638, 35.932192 ], [ -86.594459, 35.932083 ], [ -86.593925, 35.931701 ], [ -86.593691, 35.931533 ], [ -86.593479, 35.931381 ], [ -86.592845, 35.930926 ], [ -86.592816, 35.930906 ], [ -86.592633, 35.930776 ], [ -86.592126, 35.930416 ], [ -86.59146, 35.929944 ], [ -86.589742, 35.928726 ], [ -86.589374, 35.928501 ], [ -86.587911, 35.927748 ], [ -86.587795, 35.927687 ], [ -86.586522, 35.927021 ], [ -86.586381, 35.926952 ], [ -86.585959, 35.926747 ], [ -86.585819, 35.926679 ], [ -86.586037, 35.926619 ], [ -86.586226, 35.926586 ], [ -86.586463, 35.926564 ], [ -86.586841, 35.92658 ], [ -86.586976, 35.926613 ], [ -86.587382, 35.926745 ], [ -86.587517, 35.926761 ], [ -86.587694, 35.926757 ], [ -86.587747, 35.926756 ], [ -86.587983, 35.926684 ], [ -86.588375, 35.926481 ], [ -86.588531, 35.92642 ], [ -86.588963, 35.926338 ], [ -86.589105, 35.926349 ], [ -86.58926, 35.926376 ], [ -86.589456, 35.926398 ], [ -86.589686, 35.926393 ], [ -86.589936, 35.926398 ], [ -86.590558, 35.926381 ], [ -86.591037, 35.926304 ], [ -86.592051, 35.925952 ], [ -86.592287, 35.925831 ], [ -86.592456, 35.925644 ], [ -86.592557, 35.925507 ], [ -86.592639, 35.925337 ], [ -86.592693, 35.925133 ], [ -86.592716, 35.924988 ], [ -86.592726, 35.92493 ], [ -86.592814, 35.924765 ], [ -86.592949, 35.924622 ], [ -86.593091, 35.924518 ], [ -86.593206, 35.924468 ], [ -86.593523, 35.924364 ], [ -86.593692, 35.924259 ], [ -86.593767, 35.924193 ], [ -86.593807, 35.924133 ], [ -86.593807, 35.924078 ], [ -86.593699, 35.923874 ], [ -86.593692, 35.923786 ], [ -86.593706, 35.923737 ], [ -86.593728, 35.923704 ], [ -86.593739, 35.923688 ], [ -86.593841, 35.923627 ], [ -86.594034, 35.923489 ], [ -86.594111, 35.923435 ], [ -86.594388, 35.923127 ], [ -86.594624, 35.92272 ], [ -86.594689, 35.922586 ], [ -86.594719, 35.922528 ], [ -86.594867, 35.92233 ], [ -86.594918, 35.922293 ], [ -86.594982, 35.922247 ], [ -86.59509, 35.922187 ], [ -86.595219, 35.922137 ], [ -86.595327, 35.922077 ], [ -86.595387, 35.922005 ], [ -86.595421, 35.921879 ], [ -86.595441, 35.921741 ], [ -86.595475, 35.921664 ], [ -86.595762, 35.921316 ], [ -86.595779, 35.921296 ], [ -86.595853, 35.921164 ], [ -86.595907, 35.92101 ], [ -86.595759, 35.920768 ], [ -86.595677, 35.920593 ], [ -86.595637, 35.920433 ], [ -86.595612, 35.920255 ], [ -86.59567, 35.920048 ], [ -86.595751, 35.919873 ], [ -86.596055, 35.919378 ], [ -86.5964, 35.918944 ], [ -86.596623, 35.918795 ], [ -86.596717, 35.918707 ], [ -86.596798, 35.918608 ], [ -86.596859, 35.918372 ], [ -86.596947, 35.918245 ], [ -86.597048, 35.918179 ], [ -86.597122, 35.918097 ], [ -86.597169, 35.917976 ], [ -86.597176, 35.917586 ], [ -86.597185, 35.917518 ], [ -86.597264, 35.917545 ], [ -86.59732, 35.917565 ], [ -86.597494, 35.91765 ], [ -86.59757, 35.917688 ], [ -86.597645, 35.917497 ], [ -86.598018, 35.915606 ], [ -86.598044, 35.915477 ], [ -86.598382, 35.913639 ], [ -86.598739, 35.911933 ], [ -86.598855, 35.911546 ], [ -86.599061, 35.91101 ], [ -86.599159, 35.910486 ], [ -86.599229, 35.91025 ], [ -86.599316, 35.910123 ], [ -86.599407, 35.91004 ], [ -86.599493, 35.909985 ], [ -86.599559, 35.909954 ], [ -86.599615, 35.909934 ], [ -86.599696, 35.909916 ], [ -86.599753, 35.909912 ], [ -86.599913, 35.909924 ], [ -86.599994, 35.909937 ], [ -86.600708, 35.910055 ], [ -86.601013, 35.910096 ], [ -86.601108, 35.910098 ], [ -86.601187, 35.910093 ], [ -86.601261, 35.910074 ], [ -86.601305, 35.910057 ], [ -86.601394, 35.910002 ], [ -86.601434, 35.909959 ], [ -86.601465, 35.909913 ], [ -86.601493, 35.909858 ], [ -86.601549, 35.909682 ], [ -86.601631, 35.90937 ], [ -86.601633, 35.909355 ], [ -86.601681, 35.909059 ], [ -86.601761, 35.908581 ], [ -86.601847, 35.90836 ], [ -86.601935, 35.908204 ], [ -86.601965, 35.908152 ], [ -86.602113, 35.907964 ], [ -86.602208, 35.907861 ], [ -86.602333, 35.907739 ], [ -86.602411, 35.907659 ], [ -86.602775, 35.907291 ], [ -86.602869, 35.907222 ], [ -86.602937, 35.907196 ], [ -86.60302, 35.907177 ], [ -86.603093, 35.907179 ], [ -86.603191, 35.907187 ], [ -86.603398, 35.907215 ], [ -86.6035, 35.90722 ], [ -86.603647, 35.907207 ], [ -86.60375, 35.907187 ], [ -86.604055, 35.907097 ], [ -86.60417, 35.907073 ], [ -86.604293, 35.907061 ], [ -86.604425, 35.907073 ], [ -86.604498, 35.907088 ], [ -86.604583, 35.90712 ], [ -86.604674, 35.907162 ], [ -86.604906, 35.9073 ], [ -86.605147, 35.907463 ], [ -86.605364, 35.907588 ], [ -86.605991, 35.907852 ], [ -86.606112, 35.907899 ], [ -86.60613, 35.907906 ], [ -86.606356, 35.907973 ], [ -86.606706, 35.908049 ], [ -86.60709, 35.908087 ], [ -86.607205, 35.90809 ], [ -86.607503, 35.908071 ], [ -86.60779, 35.908043 ], [ -86.608264, 35.907986 ], [ -86.608602, 35.907901 ], [ -86.609197, 35.907639 ], [ -86.609591, 35.907494 ], [ -86.60968, 35.907457 ], [ -86.609762, 35.907415 ], [ -86.609831, 35.907374 ], [ -86.609942, 35.907285 ], [ -86.609986, 35.907245 ], [ -86.610068, 35.90714 ], [ -86.610208, 35.906921 ], [ -86.610283, 35.906778 ], [ -86.610367, 35.906604 ], [ -86.610451, 35.9064 ], [ -86.610497, 35.906243 ], [ -86.610514, 35.906165 ], [ -86.610527, 35.906072 ], [ -86.610525, 35.906015 ], [ -86.610517, 35.905957 ], [ -86.610501, 35.905899 ], [ -86.610424, 35.905725 ], [ -86.610361, 35.905626 ], [ -86.610285, 35.905528 ], [ -86.610131, 35.905354 ], [ -86.610041, 35.905232 ], [ -86.609988, 35.905123 ], [ -86.609971, 35.904998 ], [ -86.609981, 35.904921 ], [ -86.610048, 35.904557 ], [ -86.61007, 35.904391 ], [ -86.610082, 35.904241 ], [ -86.610089, 35.904036 ], [ -86.610082, 35.903846 ], [ -86.610067, 35.90366 ], [ -86.610015, 35.903285 ], [ -86.60999, 35.903153 ], [ -86.609849, 35.902601 ], [ -86.609811, 35.902452 ], [ -86.609752, 35.902248 ], [ -86.609563, 35.901677 ], [ -86.609524, 35.901509 ], [ -86.609517, 35.901431 ], [ -86.609518, 35.901194 ], [ -86.609596, 35.900498 ], [ -86.609607, 35.900327 ], [ -86.609603, 35.900169 ], [ -86.609579, 35.899949 ], [ -86.609586, 35.899718 ], [ -86.609613, 35.899425 ], [ -86.609619, 35.899273 ], [ -86.609613, 35.899213 ], [ -86.609577, 35.899047 ], [ -86.609432, 35.898648 ], [ -86.609324, 35.898251 ], [ -86.609301, 35.898206 ], [ -86.609263, 35.898165 ], [ -86.609222, 35.898133 ], [ -86.609158, 35.898092 ], [ -86.608966, 35.898013 ], [ -86.608451, 35.897815 ], [ -86.608306, 35.897756 ], [ -86.608203, 35.897725 ], [ -86.608074, 35.897702 ], [ -86.607794, 35.897689 ], [ -86.607569, 35.897695 ], [ -86.607474, 35.897702 ], [ -86.607337, 35.897695 ], [ -86.607261, 35.897674 ], [ -86.607193, 35.897649 ], [ -86.606736, 35.897446 ], [ -86.606407, 35.897285 ], [ -86.606249, 35.897193 ], [ -86.60614, 35.897115 ], [ -86.605987, 35.89696 ], [ -86.605935, 35.8969 ], [ -86.605887, 35.896832 ], [ -86.60579, 35.89665 ], [ -86.605727, 35.89644 ], [ -86.605674, 35.896303 ], [ -86.60559, 35.89616 ], [ -86.605557, 35.896112 ], [ -86.605462, 35.895973 ], [ -86.605455, 35.895963 ], [ -86.605263, 35.895622 ], [ -86.60524, 35.895544 ], [ -86.605235, 35.895525 ], [ -86.605219, 35.895448 ], [ -86.605209, 35.89536 ], [ -86.605183, 35.895126 ], [ -86.605169, 35.894975 ], [ -86.605145, 35.894716 ], [ -86.605131, 35.894476 ], [ -86.605085, 35.894119 ], [ -86.605031, 35.893823 ], [ -86.60503, 35.893813 ], [ -86.604977, 35.893593 ], [ -86.604933, 35.893449 ], [ -86.604855, 35.893195 ], [ -86.604774, 35.893021 ], [ -86.60475, 35.892981 ], [ -86.604704, 35.892924 ], [ -86.60465, 35.892868 ], [ -86.604598, 35.892828 ], [ -86.604576, 35.892811 ], [ -86.604506, 35.89274 ], [ -86.604453, 35.892671 ], [ -86.604295, 35.892425 ], [ -86.604225, 35.892307 ], [ -86.604042, 35.89203 ], [ -86.603878, 35.891804 ], [ -86.603761, 35.891685 ], [ -86.603583, 35.891553 ], [ -86.60339, 35.891387 ], [ -86.603261, 35.89126 ], [ -86.60321, 35.891196 ], [ -86.603144, 35.891114 ], [ -86.603082, 35.89102 ], [ -86.603028, 35.890903 ], [ -86.602955, 35.890679 ], [ -86.60296, 35.890542 ], [ -86.605582, 35.89086 ], [ -86.608749, 35.89166 ], [ -86.609944, 35.89127 ], [ -86.610595, 35.890148 ], [ -86.611634, 35.889682 ], [ -86.613857, 35.889666 ], [ -86.615132, 35.88944 ], [ -86.616933, 35.896957 ], [ -86.61763, 35.899864 ], [ -86.624243, 35.905421 ], [ -86.624994, 35.906052 ], [ -86.62544, 35.906411 ], [ -86.62687438357645, 35.908381218945188 ], [ -86.626927, 35.908502 ], [ -86.627157, 35.908857 ], [ -86.627338, 35.909018 ], [ -86.62791, 35.910961 ], [ -86.62731, 35.911574 ], [ -86.626625, 35.91249 ], [ -86.626216, 35.913181 ], [ -86.626532, 35.914281 ], [ -86.626884, 35.914956 ], [ -86.626978, 35.915135 ], [ -86.625552279087444, 35.918879482302209 ], [ -86.625468, 35.919017 ], [ -86.624995, 35.920343 ], [ -86.619121, 35.933946 ], [ -86.616395, 35.940263 ], [ -86.615267709094013, 35.943017294619729 ], [ -86.615032, 35.943593 ], [ -86.614985, 35.943708 ], [ -86.621683, 35.950552 ], [ -86.623009217128455, 35.951905957459481 ], [ -86.623629, 35.952539 ], [ -86.623733, 35.952645 ], [ -86.623788, 35.952701 ], [ -86.624984, 35.953923 ], [ -86.624949, 35.954122 ], [ -86.625090482116235, 35.954333178039391 ], [ -86.625153, 35.954574 ], [ -86.624585, 35.958169 ], [ -86.623629, 35.95805 ], [ -86.622363, 35.958019 ], [ -86.622195, 35.959463 ], [ -86.622197946345281, 35.960787897917491 ], [ -86.622003, 35.964058 ], [ -86.62401, 35.964492 ], [ -86.624027, 35.96453 ], [ -86.625036, 35.966706 ], [ -86.621783, 35.968145 ], [ -86.620811, 35.967997 ], [ -86.620309, 35.967921 ], [ -86.62015177303384, 35.967897611010088 ], [ -86.618928, 35.967712 ], [ -86.6189, 35.967963 ], [ -86.618899, 35.968141 ], [ -86.616061, 35.967787 ], [ -86.614216, 35.967247 ], [ -86.611944, 35.967422 ], [ -86.610572, 35.967295 ], [ -86.60481, 35.966578 ], [ -86.602486, 35.966347 ], [ -86.601135, 35.965508 ], [ -86.601076, 35.96526 ], [ -86.601017, 35.96513 ], [ -86.600935, 35.965008 ], [ -86.600829, 35.964915 ], [ -86.600777, 35.964877 ], [ -86.600715, 35.964833 ], [ -86.600492, 35.964696 ], [ -86.600443404684086, 35.964669351023517 ], [ -86.599696, 35.963763 ], [ -86.59979, 35.963162 ], [ -86.599895, 35.962496 ], [ -86.599906, 35.962422 ], [ -86.599959015440476, 35.962061088902907 ], [ -86.600229, 35.960314 ], [ -86.60055, 35.958311 ], [ -86.600563, 35.95814 ], [ -86.600561, 35.957993 ], [ -86.600534, 35.957811 ], [ -86.600479, 35.957662 ], [ -86.600406, 35.957529 ], [ -86.600337, 35.957431 ], [ -86.600262, 35.957344 ], [ -86.600146, 35.957244 ], [ -86.600044, 35.957175 ], [ -86.599938, 35.957114 ], [ -86.599806, 35.957055 ], [ -86.59962, 35.956992 ], [ -86.599463, 35.956951 ], [ -86.599008, 35.956869 ], [ -86.598564, 35.956815 ], [ -86.59808, 35.956757 ], [ -86.596531, 35.956264 ] ] ] }, { "type": "Polygon", "coordinates": [ [ [ -86.60296, 35.890542 ], [ -86.602655, 35.890512 ], [ -86.602441, 35.890484 ], [ -86.601888, 35.890412 ], [ -86.601793612972031, 35.890399872093191 ], [ -86.60296, 35.890542 ] ] ] }, { "type": "Polygon", "coordinates": [ [ [ -86.597322558805814, 35.889854949129067 ], [ -86.59724, 35.88985 ], [ -86.596965, 35.889835 ], [ -86.596697, 35.88981 ], [ -86.596576, 35.889791 ], [ -86.596396, 35.889742 ], [ -86.597322558805814, 35.889854949129067 ] ] ] }, { "type": "Polygon", "coordinates": [ [ [ -86.596396, 35.889742 ], [ -86.596261, 35.889692 ], [ -86.596166, 35.889651 ], [ -86.596079, 35.889614 ], [ -86.595921, 35.889527 ], [ -86.595848, 35.889473 ], [ -86.595614, 35.8893 ], [ -86.595544, 35.889238 ], [ -86.595255, 35.888979 ], [ -86.595115, 35.888822 ], [ -86.596396, 35.889742 ] ] ] }, { "type": "Polygon", "coordinates": [ [ [ -86.595115, 35.888822 ], [ -86.595063, 35.888734 ], [ -86.595003, 35.888609 ], [ -86.594954, 35.888474 ], [ -86.594925, 35.888332 ], [ -86.594925, 35.888308 ], [ -86.594933, 35.887983 ], [ -86.59494, 35.887925 ], [ -86.595115, 35.888822 ] ] ] }, { "type": "Polygon", "coordinates": [ [ [ -86.591748, 35.883953 ], [ -86.591289, 35.883738 ], [ -86.590562, 35.88339 ], [ -86.590374, 35.883303 ], [ -86.590149, 35.883199 ], [ -86.590058, 35.883157 ], [ -86.589795, 35.88301 ], [ -86.58951, 35.882827 ], [ -86.589421, 35.88277 ], [ -86.589304, 35.882693 ], [ -86.58895, 35.882459 ], [ -86.588699, 35.882293 ], [ -86.588479, 35.882146 ], [ -86.591748, 35.883953 ] ] ] }, { "type": "LineString", "coordinates": [ [ -86.566549, 35.89075 ], [ -86.566464, 35.891267 ] ] }, { "type": "LineString", "coordinates": [ [ -86.566464, 35.891267 ], [ -86.566415, 35.891569 ] ] }, { "type": "LineString", "coordinates": [ [ -86.566415, 35.891569 ], [ -86.566312, 35.89206 ] ] }, { "type": "LineString", "coordinates": [ [ -86.566312, 35.89206 ], [ -86.566271, 35.892209 ] ] }, { "type": "LineString", "coordinates": [ [ -86.566271, 35.892209 ], [ -86.566229, 35.892336 ] ] }, { "type": "LineString", "coordinates": [ [ -86.566229, 35.892336 ], [ -86.566168, 35.892494 ] ] }, { "type": "LineString", "coordinates": [ [ -86.566168, 35.892494 ], [ -86.566147, 35.892534 ] ] }, { "type": "LineString", "coordinates": [ [ -86.566147, 35.892534 ], [ -86.566102, 35.892626 ] ] }, { "type": "LineString", "coordinates": [ [ -86.566102, 35.892626 ], [ -86.566031, 35.892752 ] ] }, { "type": "LineString", "coordinates": [ [ -86.566031, 35.892752 ], [ -86.566021, 35.892766 ] ] }, { "type": "LineString", "coordinates": [ [ -86.566021, 35.892766 ], [ -86.565892, 35.892953 ] ] }, { "type": "LineString", "coordinates": [ [ -86.565892, 35.892953 ], [ -86.565756, 35.893127 ] ] }, { "type": "LineString", "coordinates": [ [ -86.565756, 35.893127 ], [ -86.565706, 35.893185 ] ] }, { "type": "LineString", "coordinates": [ [ -86.565706, 35.893185 ], [ -86.565436, 35.893498 ] ] }, { "type": "LineString", "coordinates": [ [ -86.565436, 35.893498 ], [ -86.565085, 35.893912 ] ] }, { "type": "LineString", "coordinates": [ [ -86.565085, 35.893912 ], [ -86.563431, 35.895873 ] ] }, { "type": "LineString", "coordinates": [ [ -86.563431, 35.895873 ], [ -86.563267, 35.896128 ] ] }, { "type": "LineString", "coordinates": [ [ -86.563267, 35.896128 ], [ -86.56323, 35.896188 ] ] }, { "type": "LineString", "coordinates": [ [ -86.56323, 35.896188 ], [ -86.563103, 35.896454 ] ] }, { "type": "LineString", "coordinates": [ [ -86.563103, 35.896454 ], [ -86.563004, 35.89673 ] ] }, { "type": "LineString", "coordinates": [ [ -86.563004, 35.89673 ], [ -86.562945, 35.897022 ] ] }, { "type": "LineString", "coordinates": [ [ -86.552333, 35.908746 ], [ -86.552044, 35.9105 ] ] }, { "type": "LineString", "coordinates": [ [ -86.594626, 35.88603 ], [ -86.59434, 35.885798 ] ] }, { "type": "Point", "coordinates": [ -86.586363, 35.880882 ] }, { "type": "Point", "coordinates": [ -86.578523, 35.880016 ] }, { "type": "Point", "coordinates": [ -86.555818, 35.903889 ] }, { "type": "Point", "coordinates": [ -86.572987, 35.881953 ] }, { "type": "Point", "coordinates": [ -86.553785, 35.904258 ] }, { "type": "Point", "coordinates": [ -86.552923, 35.905336 ] }, { "type": "Point", "coordinates": [ -86.570809, 35.884243 ] }, { "type": "Point", "coordinates": [ -86.562354, 35.902 ] }, { "type": "Point", "coordinates": [ -86.567232, 35.888074 ] }, { "type": "Point", "coordinates": [ -86.566951, 35.888593 ] }, { "type": "Point", "coordinates": [ -86.554732, 35.903898 ] }, { "type": "Point", "coordinates": [ -86.562836, 35.897827 ] }, { "type": "Point", "coordinates": [ -86.562451, 35.900879 ] }, { "type": "Point", "coordinates": [ -86.553338, 35.90463 ] } ] } },
{ "type": "Feature", "properties": { "precinct_key": "RUTHERFORD - 007669", "name20": "Rutherford - 007669", "county_norm": "RUTHERFORD", "prec_id": "007669", "district_num": "49", "area_weight": 0.71246528277100574, "geometry_status": "dominant", "suggested_action": "manual_split_review" }, "geometry": { "type": "MultiPolygon", "coordinates": [ [ [ [ -86.588479, 35.882146 ], [ -86.588699, 35.882293 ], [ -86.58895, 35.882459 ], [ -86.589304, 35.882693 ], [ -86.589421, 35.88277 ], [ -86.58951, 35.882827 ], [ -86.589795, 35.88301 ], [ -86.590058, 35.883157 ], [ -86.590149, 35.883199 ], [ -86.590374, 35.883303 ], [ -86.590562, 35.88339 ], [ -86.591289, 35.883738 ], [ -86.591748, 35.883953 ], [ -86.59434, 35.885798 ], [ -86.594626, 35.88603 ], [ -86.59494, 35.887925 ], [ -86.594933, 35.887983 ], [ -86.594925, 35.888308 ], [ -86.594925, 35.888332 ], [ -86.594954, 35.888474 ], [ -86.595003, 35.888609 ], [ -86.595063, 35.888734 ], [ -86.595115, 35.888822 ], [ -86.595255, 35.888979 ], [ -86.595544, 35.889238 ], [ -86.595614, 35.8893 ], [ -86.595848, 35.889473 ], [ -86.595921, 35.889527 ], [ -86.596079, 35.889614 ], [ -86.596166, 35.889651 ], [ -86.596261, 35.889692 ], [ -86.596396, 35.889742 ], [ -86.596576, 35.889791 ], [ -86.596697, 35.88981 ], [ -86.596965, 35.889835 ], [ -86.59724, 35.88985 ], [ -86.597322558805814, 35.889854949129067 ], [ -86.601793612972031, 35.890399872093191 ], [ -86.601888, 35.890412 ], [ -86.602441, 35.890484 ], [ -86.602655, 35.890512 ], [ -86.60296, 35.890542 ], [ -86.602955, 35.890679 ], [ -86.603028, 35.890903 ], [ -86.603082, 35.89102 ], [ -86.603144, 35.891114 ], [ -86.60321, 35.891196 ], [ -86.603261, 35.89126 ], [ -86.60339, 35.891387 ], [ -86.603583, 35.891553 ], [ -86.603761, 35.891685 ], [ -86.603878, 35.891804 ], [ -86.604042, 35.89203 ], [ -86.604225, 35.892307 ], [ -86.604295, 35.892425 ], [ -86.604453, 35.892671 ], [ -86.604506, 35.89274 ], [ -86.604576, 35.892811 ], [ -86.604598, 35.892828 ], [ -86.60465, 35.892868 ], [ -86.604704, 35.892924 ], [ -86.60475, 35.892981 ], [ -86.604774, 35.893021 ], [ -86.604855, 35.893195 ], [ -86.604933, 35.893449 ], [ -86.604977, 35.893593 ], [ -86.60503, 35.893813 ], [ -86.605031, 35.893823 ], [ -86.605085, 35.894119 ], [ -86.605131, 35.894476 ], [ -86.605145, 35.894716 ], [ -86.605169, 35.894975 ], [ -86.605183, 35.895126 ], [ -86.605209, 35.89536 ], [ -86.605219, 35.895448 ], [ -86.605235, 35.895525 ], [ -86.60524, 35.895544 ], [ -86.605263, 35.895622 ], [ -86.605455, 35.895963 ], [ -86.605462, 35.895973 ], [ -86.605557, 35.896112 ], [ -86.60559, 35.89616 ], [ -86.605674, 35.896303 ], [ -86.605727, 35.89644 ], [ -86.60579, 35.89665 ], [ -86.605887, 35.896832 ], [ -86.605935, 35.8969 ], [ -86.605987, 35.89696 ], [ -86.60614, 35.897115 ], [ -86.606249, 35.897193 ], [ -86.606407, 35.897285 ], [ -86.606736, 35.897446 ], [ -86.607193, 35.897649 ], [ -86.607261, 35.897674 ], [ -86.607337, 35.897695 ], [ -86.607474, 35.897702 ], [ -86.607569, 35.897695 ], [ -86.607794, 35.897689 ], [ -86.608074, 35.897702 ], [ -86.608203, 35.897725 ], [ -86.608306, 35.897756 ], [ -86.608451, 35.897815 ], [ -86.608966, 35.898013 ], [ -86.609158, 35.898092 ], [ -86.609222, 35.898133 ], [ -86.609263, 35.898165 ], [ -86.609301, 35.898206 ], [ -86.609324, 35.898251 ], [ -86.609432, 35.898648 ], [ -86.609577, 35.899047 ], [ -86.609613, 35.899213 ], [ -86.609619, 35.899273 ], [ -86.609613, 35.899425 ], [ -86.609586, 35.899718 ], [ -86.609579, 35.899949 ], [ -86.609603, 35.900169 ], [ -86.609607, 35.900327 ], [ -86.609596, 35.900498 ], [ -86.609518, 35.901194 ], [ -86.609517, 35.901431 ], [ -86.609524, 35.901509 ], [ -86.609563, 35.901677 ], [ -86.609752, 35.902248 ], [ -86.609811, 35.902452 ], [ -86.609849, 35.902601 ], [ -86.60999, 35.903153 ], [ -86.610015, 35.903285 ], [ -86.610067, 35.90366 ], [ -86.610082, 35.903846 ], [ -86.610089, 35.904036 ], [ -86.610082, 35.904241 ], [ -86.61007, 35.904391 ], [ -86.610048, 35.904557 ], [ -86.609981, 35.904921 ], [ -86.609971, 35.904998 ], [ -86.609988, 35.905123 ], [ -86.610041, 35.905232 ], [ -86.610131, 35.905354 ], [ -86.610285, 35.905528 ], [ -86.610361, 35.905626 ], [ -86.610424, 35.905725 ], [ -86.610501, 35.905899 ], [ -86.610517, 35.905957 ], [ -86.610525, 35.906015 ], [ -86.610527, 35.906072 ], [ -86.610514, 35.906165 ], [ -86.610497, 35.906243 ], [ -86.610451, 35.9064 ], [ -86.610367, 35.906604 ], [ -86.610283, 35.906778 ], [ -86.610208, 35.906921 ], [ -86.610068, 35.90714 ], [ -86.609986, 35.907245 ], [ -86.609942, 35.907285 ], [ -86.609831, 35.907374 ], [ -86.609762, 35.907415 ], [ -86.60968, 35.907457 ], [ -86.609591, 35.907494 ], [ -86.609197, 35.907639 ], [ -86.608602, 35.907901 ], [ -86.608264, 35.907986 ], [ -86.60779, 35.908043 ], [ -86.607503, 35.908071 ], [ -86.607205, 35.90809 ], [ -86.60709, 35.908087 ], [ -86.606706, 35.908049 ], [ -86.606356, 35.907973 ], [ -86.60613, 35.907906 ], [ -86.606112, 35.907899 ], [ -86.605991, 35.907852 ], [ -86.605364, 35.907588 ], [ -86.605147, 35.907463 ], [ -86.604906, 35.9073 ], [ -86.604674, 35.907162 ], [ -86.604583, 35.90712 ], [ -86.604498, 35.907088 ], [ -86.604425, 35.907073 ], [ -86.604293, 35.907061 ], [ -86.60417, 35.907073 ], [ -86.604055, 35.907097 ], [ -86.60375, 35.907187 ], [ -86.603647, 35.907207 ], [ -86.6035, 35.90722 ], [ -86.603398, 35.907215 ], [ -86.603191, 35.907187 ], [ -86.603093, 35.907179 ], [ -86.60302, 35.907177 ], [ -86.602937, 35.907196 ], [ -86.602869, 35.907222 ], [ -86.602775, 35.907291 ], [ -86.602411, 35.907659 ], [ -86.602333, 35.907739 ], [ -86.602208, 35.907861 ], [ -86.602113, 35.907964 ], [ -86.601965, 35.908152 ], [ -86.601935, 35.908204 ], [ -86.601847, 35.90836 ], [ -86.601761, 35.908581 ], [ -86.601681, 35.909059 ], [ -86.601633, 35.909355 ], [ -86.601631, 35.90937 ], [ -86.601549, 35.909682 ], [ -86.601493, 35.909858 ], [ -86.601465, 35.909913 ], [ -86.601434, 35.909959 ], [ -86.601394, 35.910002 ], [ -86.601305, 35.910057 ], [ -86.601261, 35.910074 ], [ -86.601187, 35.910093 ], [ -86.601108, 35.910098 ], [ -86.601013, 35.910096 ], [ -86.600708, 35.910055 ], [ -86.599994, 35.909937 ], [ -86.599913, 35.909924 ], [ -86.599753, 35.909912 ], [ -86.599696, 35.909916 ], [ -86.599615, 35.909934 ], [ -86.599559, 35.909954 ], [ -86.599493, 35.909985 ], [ -86.599407, 35.91004 ], [ -86.599316, 35.910123 ], [ -86.599229, 35.91025 ], [ -86.599159, 35.910486 ], [ -86.599061, 35.91101 ], [ -86.598855, 35.911546 ], [ -86.598739, 35.911933 ], [ -86.598382, 35.913639 ], [ -86.598044, 35.915477 ], [ -86.598018, 35.915606 ], [ -86.597645, 35.917497 ], [ -86.59757, 35.917688 ], [ -86.597494, 35.91765 ], [ -86.59732, 35.917565 ], [ -86.597264, 35.917545 ], [ -86.597185, 35.917518 ], [ -86.597176, 35.917586 ], [ -86.597169, 35.917976 ], [ -86.597122, 35.918097 ], [ -86.597048, 35.918179 ], [ -86.596947, 35.918245 ], [ -86.596859, 35.918372 ], [ -86.596798, 35.918608 ], [ -86.596717, 35.918707 ], [ -86.596623, 35.918795 ], [ -86.5964, 35.918944 ], [ -86.596055, 35.919378 ], [ -86.595751, 35.919873 ], [ -86.59567, 35.920048 ], [ -86.595612, 35.920255 ], [ -86.595637, 35.920433 ], [ -86.595677, 35.920593 ], [ -86.595759, 35.920768 ], [ -86.595907, 35.92101 ], [ -86.595853, 35.921164 ], [ -86.595779, 35.921296 ], [ -86.595762, 35.921316 ], [ -86.595475, 35.921664 ], [ -86.595441, 35.921741 ], [ -86.595421, 35.921879 ], [ -86.595387, 35.922005 ], [ -86.595327, 35.922077 ], [ -86.595219, 35.922137 ], [ -86.59509, 35.922187 ], [ -86.594982, 35.922247 ], [ -86.594918, 35.922293 ], [ -86.594867, 35.92233 ], [ -86.594719, 35.922528 ], [ -86.594689, 35.922586 ], [ -86.594624, 35.92272 ], [ -86.594388, 35.923127 ], [ -86.594111, 35.923435 ], [ -86.594034, 35.923489 ], [ -86.593841, 35.923627 ], [ -86.593739, 35.923688 ], [ -86.593728, 35.923704 ], [ -86.593706, 35.923737 ], [ -86.593692, 35.923786 ], [ -86.593699, 35.923874 ], [ -86.593807, 35.924078 ], [ -86.593807, 35.924133 ], [ -86.593767, 35.924193 ], [ -86.593692, 35.924259 ], [ -86.593523, 35.924364 ], [ -86.593206, 35.924468 ], [ -86.593091, 35.924518 ], [ -86.592949, 35.924622 ], [ -86.592814, 35.924765 ], [ -86.592726, 35.92493 ], [ -86.592716, 35.924988 ], [ -86.592693, 35.925133 ], [ -86.592639, 35.925337 ], [ -86.592557, 35.925507 ], [ -86.592456, 35.925644 ], [ -86.592287, 35.925831 ], [ -86.592051, 35.925952 ], [ -86.591037, 35.926304 ], [ -86.590558, 35.926381 ], [ -86.589936, 35.926398 ], [ -86.589686, 35.926393 ], [ -86.589456, 35.926398 ], [ -86.58926, 35.926376 ], [ -86.589105, 35.926349 ], [ -86.588963, 35.926338 ], [ -86.588531, 35.92642 ], [ -86.588375, 35.926481 ], [ -86.587983, 35.926684 ], [ -86.587747, 35.926756 ], [ -86.587694, 35.926757 ], [ -86.587517, 35.926761 ], [ -86.587382, 35.926745 ], [ -86.586976, 35.926613 ], [ -86.586841, 35.92658 ], [ -86.586463, 35.926564 ], [ -86.586226, 35.926586 ], [ -86.586037, 35.926619 ], [ -86.585819, 35.926679 ], [ -86.585959, 35.926747 ], [ -86.586381, 35.926952 ], [ -86.586522, 35.927021 ], [ -86.587795, 35.927687 ], [ -86.587911, 35.927748 ], [ -86.589374, 35.928501 ], [ -86.589742, 35.928726 ], [ -86.59146, 35.929944 ], [ -86.592126, 35.930416 ], [ -86.592633, 35.930776 ], [ -86.592816, 35.930906 ], [ -86.592845, 35.930926 ], [ -86.593479, 35.931381 ], [ -86.593691, 35.931533 ], [ -86.593925, 35.931701 ], [ -86.594459, 35.932083 ], [ -86.594638, 35.932192 ], [ -86.594885, 35.932342 ], [ -86.594991, 35.932406 ], [ -86.595446, 35.932642 ], [ -86.595508, 35.932674 ], [ -86.595658, 35.932744 ], [ -86.595788, 35.932805 ], [ -86.596816, 35.933291 ], [ -86.596857, 35.933235 ], [ -86.596884, 35.933206 ], [ -86.597792, 35.933671 ], [ -86.598267, 35.933889 ], [ -86.598621, 35.934043 ], [ -86.598783, 35.934121 ], [ -86.599138, 35.934279 ], [ -86.600639, 35.93493 ], [ -86.60135, 35.935247 ], [ -86.601935, 35.935504 ], [ -86.603347, 35.93614 ], [ -86.603742, 35.936307 ], [ -86.60406, 35.936425 ], [ -86.604371, 35.936498 ], [ -86.604812, 35.936602 ], [ -86.605571, 35.936775 ], [ -86.605567, 35.936785 ], [ -86.605562, 35.936797 ], [ -86.605558, 35.936808 ], [ -86.60555, 35.936829 ], [ -86.60554, 35.936853 ], [ -86.605536, 35.936864 ], [ -86.605511, 35.936931 ], [ -86.605481, 35.937017 ], [ -86.605193, 35.937845 ], [ -86.605111, 35.937834 ], [ -86.605055, 35.938003 ], [ -86.605052, 35.938014 ], [ -86.604915, 35.938464 ], [ -86.604883, 35.938572 ], [ -86.604759, 35.939207 ], [ -86.604376, 35.941675 ], [ -86.604048, 35.943787 ], [ -86.603939, 35.944577 ], [ -86.603822, 35.945283 ], [ -86.603485, 35.947336 ], [ -86.603478, 35.947401 ], [ -86.60346, 35.947607 ], [ -86.603483, 35.947899 ], [ -86.603547, 35.948106 ], [ -86.603559, 35.948147 ], [ -86.603669, 35.948323 ], [ -86.603847, 35.948509 ], [ -86.604235, 35.94875 ], [ -86.604646, 35.948982 ], [ -86.604875, 35.949111 ], [ -86.605039, 35.94922 ], [ -86.605189, 35.949374 ], [ -86.605292, 35.949539 ], [ -86.605321, 35.949732 ], [ -86.604637, 35.952271 ], [ -86.604611, 35.952368 ], [ -86.604599, 35.9524 ], [ -86.604459, 35.952785 ], [ -86.604437, 35.952856 ], [ -86.604023, 35.954233 ], [ -86.603392, 35.954135 ], [ -86.602956, 35.954107 ], [ -86.602428, 35.954029 ], [ -86.602258, 35.954005 ], [ -86.602132, 35.954003 ], [ -86.602013, 35.954012 ], [ -86.601874, 35.954043 ], [ -86.60168, 35.954126 ], [ -86.601532, 35.954214 ], [ -86.601242, 35.95437 ], [ -86.601164, 35.954399 ], [ -86.601136, 35.954407 ], [ -86.601013, 35.954441 ], [ -86.600914, 35.95446 ], [ -86.600705, 35.954486 ], [ -86.600488, 35.954505 ], [ -86.600001, 35.954514 ], [ -86.599718, 35.954512 ], [ -86.599529, 35.954516 ], [ -86.599425, 35.954524 ], [ -86.599376, 35.954533 ], [ -86.599179, 35.954582 ], [ -86.598892, 35.954684 ], [ -86.598542, 35.95482 ], [ -86.598368, 35.954895 ], [ -86.597844, 35.955139 ], [ -86.597829, 35.955149 ], [ -86.597629, 35.955293 ], [ -86.597469, 35.955437 ], [ -86.597268, 35.955635 ], [ -86.597013, 35.955801 ], [ -86.596816, 35.955941 ], [ -86.596696, 35.956048 ], [ -86.596623, 35.956135 ], [ -86.596597, 35.956171 ], [ -86.596583, 35.956189 ], [ -86.596543, 35.956245 ], [ -86.596531, 35.956264 ], [ -86.596224, 35.956693 ], [ -86.595818, 35.956912 ], [ -86.593809, 35.957176 ], [ -86.5935, 35.957254 ], [ -86.587504, 35.958852 ], [ -86.586701, 35.959223 ], [ -86.584307, 35.960075 ], [ -86.583463, 35.960161 ], [ -86.582509, 35.960269 ], [ -86.581762, 35.960349 ], [ -86.580478, 35.960195 ], [ -86.579132, 35.960233 ], [ -86.575952, 35.961549 ], [ -86.571068, 35.962089 ], [ -86.56886, 35.963355 ], [ -86.567388, 35.965325 ], [ -86.566693, 35.967326 ], [ -86.566492, 35.9676 ], [ -86.566355, 35.967787 ], [ -86.566226, 35.96759 ], [ -86.563475, 35.963806 ], [ -86.561625, 35.961804 ], [ -86.551653, 35.952754 ], [ -86.53223, 35.935242 ], [ -86.532031, 35.935063 ], [ -86.532385, 35.934688 ], [ -86.533491, 35.933208 ], [ -86.533963, 35.930634 ], [ -86.534232, 35.928892 ], [ -86.534832, 35.926371 ], [ -86.536129, 35.925376 ], [ -86.537435, 35.925174 ], [ -86.540169, 35.925429 ], [ -86.541559, 35.925759 ], [ -86.544265, 35.926939 ], [ -86.54542, 35.927322 ], [ -86.546157, 35.927439 ], [ -86.547417, 35.92742 ], [ -86.548592, 35.926998 ], [ -86.549413, 35.926241 ], [ -86.549701, 35.925519 ], [ -86.550084, 35.923201 ], [ -86.550352, 35.921245 ], [ -86.550372, 35.921108 ], [ -86.550379, 35.921069 ], [ -86.550497, 35.920302 ], [ -86.550698, 35.918997 ], [ -86.550959, 35.917235 ], [ -86.551051, 35.916647 ], [ -86.551328, 35.914886 ], [ -86.551421, 35.914299 ], [ -86.551471, 35.913976 ], [ -86.551543, 35.913526 ], [ -86.551618, 35.913009 ], [ -86.551666, 35.912687 ], [ -86.552044, 35.9105 ], [ -86.552333, 35.908746 ], [ -86.552923, 35.905336 ], [ -86.553338, 35.90463 ], [ -86.553785, 35.904258 ], [ -86.554732, 35.903898 ], [ -86.555818, 35.903889 ], [ -86.560251, 35.904392 ], [ -86.56055, 35.904412 ], [ -86.560732, 35.904407 ], [ -86.560807, 35.904406 ], [ -86.561044, 35.904371 ], [ -86.561254, 35.904315 ], [ -86.56145, 35.904243 ], [ -86.561562, 35.90419 ], [ -86.561639, 35.904154 ], [ -86.561745, 35.904094 ], [ -86.561808, 35.904059 ], [ -86.561957, 35.903954 ], [ -86.562026, 35.903884 ], [ -86.562078, 35.903832 ], [ -86.56221, 35.903688 ], [ -86.562226, 35.903671 ], [ -86.562321, 35.903514 ], [ -86.562373, 35.903428 ], [ -86.562388, 35.903391 ], [ -86.562466, 35.903201 ], [ -86.562501, 35.902988 ], [ -86.562505, 35.902969 ], [ -86.562509, 35.902849 ], [ -86.562511, 35.902804 ], [ -86.562506, 35.902752 ], [ -86.562496, 35.902611 ], [ -86.562354, 35.902 ], [ -86.562451, 35.900879 ], [ -86.562836, 35.897827 ], [ -86.562945, 35.897022 ], [ -86.563004, 35.89673 ], [ -86.563103, 35.896454 ], [ -86.56323, 35.896188 ], [ -86.563267, 35.896128 ], [ -86.563431, 35.895873 ], [ -86.565085, 35.893912 ], [ -86.565436, 35.893498 ], [ -86.565706, 35.893185 ], [ -86.565756, 35.893127 ], [ -86.565892, 35.892953 ], [ -86.566021, 35.892766 ], [ -86.566031, 35.892752 ], [ -86.566102, 35.892626 ], [ -86.566147, 35.892534 ], [ -86.566168, 35.892494 ], [ -86.566229, 35.892336 ], [ -86.566271, 35.892209 ], [ -86.566312, 35.89206 ], [ -86.566415, 35.891569 ], [ -86.566464, 35.891267 ], [ -86.566549, 35.89075 ], [ -86.566951, 35.888593 ], [ -86.567232, 35.888074 ], [ -86.568342341584327, 35.887181834585306 ], [ -86.568876, 35.886765 ], [ -86.568964, 35.886698 ], [ -86.569166, 35.88652 ], [ -86.569442, 35.886221 ], [ -86.569583, 35.886027 ], [ -86.570008, 35.885387 ], [ -86.570146, 35.885181 ], [ -86.570191, 35.885108 ], [ -86.570809, 35.884243 ], [ -86.571017, 35.884067 ], [ -86.57122, 35.883942 ], [ -86.571229, 35.883936 ], [ -86.571429, 35.883829 ], [ -86.571601, 35.883741 ], [ -86.571795, 35.883635 ], [ -86.571892, 35.883573 ], [ -86.571975, 35.883509 ], [ -86.572077, 35.883416 ], [ -86.572172, 35.883329 ], [ -86.572284, 35.883195 ], [ -86.572371, 35.883076 ], [ -86.57238, 35.883056 ], [ -86.572484, 35.882848 ], [ -86.572548, 35.8827 ], [ -86.572987, 35.881953 ], [ -86.573422, 35.881503 ], [ -86.57365, 35.881265 ], [ -86.573723, 35.881191 ], [ -86.573804, 35.881085 ], [ -86.573877, 35.880979 ], [ -86.573927, 35.880889 ], [ -86.574008, 35.880695 ], [ -86.574034, 35.880612 ], [ -86.574063, 35.880477 ], [ -86.574076, 35.880393 ], [ -86.574127, 35.880068 ], [ -86.57524, 35.880296 ], [ -86.575539, 35.880326 ], [ -86.575788, 35.88032 ], [ -86.575972, 35.880293 ], [ -86.576329, 35.880221 ], [ -86.578523, 35.880016 ], [ -86.583558127734136, 35.880735789403289 ], [ -86.584276, 35.880853 ], [ -86.584819, 35.880916 ], [ -86.586363, 35.880882 ], [ -86.588479, 35.882146 ] ] ], [ [ [ -86.59808, 35.956757 ], [ -86.598564, 35.956815 ], [ -86.599008, 35.956869 ], [ -86.599463, 35.956951 ], [ -86.59962, 35.956992 ], [ -86.599806, 35.957055 ], [ -86.59808, 35.956757 ] ] ], [ [ [ -86.599806, 35.957055 ], [ -86.599938, 35.957114 ], [ -86.600044, 35.957175 ], [ -86.600146, 35.957244 ], [ -86.600262, 35.957344 ], [ -86.600337, 35.957431 ], [ -86.600406, 35.957529 ], [ -86.600479, 35.957662 ], [ -86.600534, 35.957811 ], [ -86.599806, 35.957055 ] ] ], [ [ [ -86.600534, 35.957811 ], [ -86.600561, 35.957993 ], [ -86.600563, 35.95814 ], [ -86.60055, 35.958311 ], [ -86.600229, 35.960314 ], [ -86.600534, 35.957811 ] ] ], [ [ [ -86.599959015440476, 35.962061088902907 ], [ -86.599906, 35.962422 ], [ -86.599895, 35.962496 ], [ -86.59979, 35.963162 ], [ -86.599696, 35.963763 ], [ -86.599959015440476, 35.962061088902907 ] ] ], [ [ [ -86.600443404684086, 35.964669351023517 ], [ -86.600492, 35.964696 ], [ -86.600715, 35.964833 ], [ -86.600777, 35.964877 ], [ -86.600829, 35.964915 ], [ -86.600935, 35.965008 ], [ -86.601017, 35.96513 ], [ -86.601076, 35.96526 ], [ -86.601135, 35.965508 ], [ -86.600443404684086, 35.964669351023517 ] ] ] ] } },
{ "type": "Feature", "properties": { "precinct_key": "RUTHERFORD - 007669", "name20": "Rutherford - 007669", "county_norm": "RUTHERFORD", "prec_id": "007669", "district_num": "63", "area_weight": 0.00010463321008189794, "geometry_status": "sliver", "suggested_action": "manual_split_review" }, "geometry": { "type": "GeometryCollection", "geometries": [ { "type": "Polygon", "coordinates": [ [ [ -86.618899, 35.968141 ], [ -86.6189, 35.967963 ], [ -86.618928, 35.967712 ], [ -86.618899, 35.968141 ] ] ] }, { "type": "Polygon", "coordinates": [ [ [ -86.62015177303384, 35.967897611010088 ], [ -86.620309, 35.967921 ], [ -86.620811, 35.967997 ], [ -86.621783, 35.968145 ], [ -86.62015177303384, 35.967897611010088 ] ] ] }, { "type": "Polygon", "coordinates": [ [ [ -86.625036, 35.966706 ], [ -86.624027, 35.96453 ], [ -86.62401, 35.964492 ], [ -86.625036, 35.966706 ] ] ] }, { "type": "Polygon", "coordinates": [ [ [ -86.622197946345281, 35.960787897917491 ], [ -86.622195, 35.959463 ], [ -86.622363, 35.958019 ], [ -86.622197946345281, 35.960787897917491 ] ] ] }, { "type": "Polygon", "coordinates": [ [ [ -86.625090482116235, 35.954333178039391 ], [ -86.624949, 35.954122 ], [ -86.624984, 35.953923 ], [ -86.625090482116235, 35.954333178039391 ] ] ] }, { "type": "Polygon", "coordinates": [ [ [ -86.623788, 35.952701 ], [ -86.623733, 35.952645 ], [ -86.623629, 35.952539 ], [ -86.623009217128455, 35.951905957459481 ], [ -86.623788, 35.952701 ] ] ] }, { "type": "Polygon", "coordinates": [ [ [ -86.614985, 35.943708 ], [ -86.615032, 35.943593 ], [ -86.615267709094013, 35.943017294619729 ], [ -86.614985, 35.943708 ] ] ] }, { "type": "Polygon", "coordinates": [ [ [ -86.616395, 35.940263 ], [ -86.619121, 35.933946 ], [ -86.624995, 35.920343 ], [ -86.616395, 35.940263 ] ] ] }, { "type": "Polygon", "coordinates": [ [ [ -86.624995, 35.920343 ], [ -86.625468, 35.919017 ], [ -86.625552279087444, 35.918879482302209 ], [ -86.624995, 35.920343 ] ] ] }, { "type": "Polygon", "coordinates": [ [ [ -86.626978, 35.915135 ], [ -86.626884, 35.914956 ], [ -86.626532, 35.914281 ], [ -86.626216, 35.913181 ], [ -86.626978, 35.915135 ] ] ] }, { "type": "Polygon", "coordinates": [ [ [ -86.626216, 35.913181 ], [ -86.626625, 35.91249 ], [ -86.62731, 35.911574 ], [ -86.62791, 35.910961 ], [ -86.626216, 35.913181 ] ] ] }, { "type": "Polygon", "coordinates": [ [ [ -86.627338, 35.909018 ], [ -86.627157, 35.908857 ], [ -86.626927, 35.908502 ], [ -86.62687438357645, 35.908381218945188 ], [ -86.627338, 35.909018 ] ] ] }, { "type": "Polygon", "coordinates": [ [ [ -86.62544, 35.906411 ], [ -86.624994, 35.906052 ], [ -86.624243, 35.905421 ], [ -86.61763, 35.899864 ], [ -86.62544, 35.906411 ] ] ] }, { "type": "LineString", "coordinates": [ [ -86.623629, 35.95805 ], [ -86.624585, 35.958169 ] ] }, { "type": "LineString", "coordinates": [ [ -86.624984, 35.953923 ], [ -86.623788, 35.952701 ] ] }, { "type": "LineString", "coordinates": [ [ -86.61763, 35.899864 ], [ -86.616933, 35.896957 ] ] }, { "type": "Point", "coordinates": [ -86.622003, 35.964058 ] }, { "type": "Point", "coordinates": [ -86.625153, 35.954574 ] }, { "type": "Point", "coordinates": [ -86.621683, 35.950552 ] }, { "type": "Point", "coordinates": [ -86.615132, 35.88944 ] } ] } }
]
}
