{
"type": "FeatureCollection",
"name": "precinct",
"crs": { "type": "name", "properties": { "name": "urn:ogc:def:crs:OGC:1.3:CRS84" } },
"features": [
{ "type": "Feature", "properties": { "precinct_key": "RUTHERFORD - 007669", "name20": "Rutherford - 007669", "county_norm": "RUTHERFORD", "prec_id": "007669" }, "geometry": { "type": "Polygon", "coordinates": [ [ [ -86.588479, 35.882146 ], [ -86.586363, 35.880882 ], [ -86.584819, 35.880916 ], [ -86.578523, 35.880016 ], [ -86.576329, 35.880221 ], [ -86.574127, 35.880068 ], [ -86.573422, 35.881503 ], [ -86.572987, 35.881953 ], [ -86.572548, 35.8827 ], [ -86.571017, 35.884067 ], [ -86.570809, 35.884243 ], [ -86.570191, 35.885108 ], [ -86.569583, 35.886027 ], [ -86.569166, 35.88652 ], [ -86.567232, 35.888074 ], [ -86.566951, 35.888593 ], [ -86.566549, 35.89075 ], [ -86.566464, 35.891267 ], [ -86.566415, 35.891569 ], [ -86.566312, 35.89206 ], [ -86.566271, 35.892209 ], [ -86.566229, 35.892336 ], [ -86.566168, 35.892494 ], [ -86.566147, 35.892534 ], [ -86.566102, 35.892626 ], [ -86.566031, 35.892752 ], [ -86.566021, 35.892766 ], [ -86.565892, 35.892953 ], [ -86.565756, 35.893127 ], [ -86.565706, 35.893185 ], [ -86.565436, 35.893498 ], [ -86.565085, 35.893912 ], [ -86.563431, 35.895873 ], [ -86.563267, 35.896128 ], [ -86.56323, 35.896188 ], [ -86.563103, 35.896454 ], [ -86.563004, 35.89673 ], [ -86.562945, 35.897022 ], [ -86.562836, 35.897827 ], [ -86.562451, 35.900879 ], [ -86.562354, 35.902 ], [ -86.562496, 35.902611 ], [ -86.562466, 35.903201 ], [ -86.561957, 35.903954 ], [ -86.56145, 35.904243 ], [ -86.560807, 35.904406 ], [ -86.560251, 35.904392 ], [ -86.555818, 35.903889 ], [ -86.554732, 35.903898 ], [ -86.553785, 35.904258 ], [ -86.553338, 35.90463 ], [ -86.552923, 35.905336 ], [ -86.552333, 35.908746 ], [ -86.552044, 35.9105 ], [ -86.551666, 35.912687 ], [ -86.550959, 35.917235 ], [ -86.550698, 35.918997 ], [ -86.550497, 35.920302 ], [ -86.550379, 35.921069 ], [ -86.550372, 35.921108 ], [ -86.550352, 35.921245 ], [ -86.550084, 35.923201 ], [ -86.549701, 35.925519 ], [ -86.549413, 35.926241 ], [ -86.548592, 35.926998 ], [ -86.547417, 35.92742 ], [ -86.546157, 35.927439 ], [ -86.54542, 35.927322 ], [ -86.544265, 35.926939 ], [ -86.541559, 35.925759 ], [ -86.540169, 35.925429 ], [ -86.537435, 35.925174 ], [ -86.536129, 35.925376 ], [ -86.534832, 35.926371 ], [ -86.534232, 35.928892 ], [ -86.533963, 35.930634 ], [ -86.533491, 35.933208 ], [ -86.532385, 35.934688 ], [ -86.532031, 35.935063 ], [ -86.53223, 35.935242 ], [ -86.551653, 35.952754 ], [ -86.561625, 35.961804 ], [ -86.563475, 35.963806 ], [ -86.566226, 35.96759 ], [ -86.566355, 35.967787 ], [ -86.566492, 35.9676 ], [ -86.566693, 35.967326 ], [ -86.567388, 35.965325 ], [ -86.56886, 35.963355 ], [ -86.571068, 35.962089 ], [ -86.575952, 35.961549 ], [ -86.579132, 35.960233 ], [ -86.580478, 35.960195 ], [ -86.581762, 35.960349 ], [ -86.582509, 35.960269 ], [ -86.583463, 35.960161 ], [ -86.584307, 35.960075 ], [ -86.586701, 35.959223 ], [ -86.587504, 35.958852 ], [ -86.5935, 35.957254 ], [ -86.593809, 35.957176 ], [ -86.595818, 35.956912 ], [ -86.596224, 35.956693 ], [ -86.596531, 35.956264 ], [ -86.59808, 35.956757 ], [ -86.599806, 35.957055 ], [ -86.600534, 35.957811 ], [ -86.600229, 35.960314 ], [ -86.599696, 35.963763 ], [ -86.601135, 35.965508 ], [ -86.602486, 35.966347 ], [ -86.60481, 35.966578 ], [ -86.610572, 35.967295 ], [ -86.611944, 35.967422 ], [ -86.614216, 35.967247 ], [ -86.616061, 35.967787 ], [ -86.618899, 35.968141 ], [ -86.618928, 35.967712 ], [ -86.621783, 35.968145 ], [ -86.625036, 35.966706 ], [ -86.62401, 35.964492 ], [ -86.622003, 35.964058 ], [ -86.622363, 35.958019 ], [ -86.623629, 35.95805 ], [ -86.624585, 35.958169 ], [ -86.625153, 35.954574 ], [ -86.624984, 35.953923 ], [ -86.623788, 35.952701 ], [ -86.621683, 35.950552 ], [ -86.614985, 35.943708 ], [ -86.616395, 35.940263 ], [ -86.624995, 35.920343 ], [ -86.626978, 35.915135 ], [ -86.626216, 35.913181 ], [ -86.62791, 35.910961 ], [ -86.627338, 35.909018 ], [ -86.62544, 35.906411 ], [ -86.61763, 35.899864 ], [ -86.616933, 35.896957 ], [ -86.615132, 35.88944 ], [ -86.613857, 35.889666 ], [ -86.611634, 35.889682 ], [ -86.610595, 35.890148 ], [ -86.609944, 35.89127 ], [ -86.608749, 35.89166 ], [ -86.605582, 35.89086 ], [ -86.60296, 35.890542 ], [ -86.596396, 35.889742 ], [ -86.595115, 35.888822 ], [ -86.59494, 35.887925 ], [ -86.594626, 35.88603 ], [ -86.59434, 35.885798 ], [ -86.591748, 35.883953 ], [ -86.588479, 35.882146 ] ] ] } }
]
}
