{
"type": "FeatureCollection",
"name": "intersection_pieces",
"crs": { "type": "name", "properties": { "name": "urn:ogc:def:crs:OGC:1.3:CRS84" } },
"features": [
{ "type": "Feature", "properties": { "precinct_key": "DAVIDSON - 001950", "name20": "Davidson - 001950", "county_norm": "DAVIDSON", "prec_id": "001950", "district_num": "13", "area_weight": 0.00061466076796968421, "geometry_status": "sliver", "suggested_action": "manual_split_review" }, "geometry": { "type": "GeometryCollection", "geometries": [ { "type": "Polygon", "coordinates": [ [ [ -86.612335, 36.009994 ], [ -86.611849, 36.010081 ], [ -86.611703, 36.010116 ], [ -86.611328, 36.010259 ], [ -86.611224, 36.010271 ], [ -86.611071, 36.010266 ], [ -86.610786, 36.010206 ], [ -86.610716, 36.010217 ], [ -86.610626, 36.010274 ], [ -86.610578, 36.01032 ], [ -86.610543, 36.010342 ], [ -86.610439, 36.010343 ], [ -86.610007, 36.010288 ], [ -86.609978889059064, 36.01028623203193 ], [ -86.612335, 36.009994 ] ] ] }, { "type": "Polygon", "coordinates": [ [ [ -86.608751701295972, 36.010438422628965 ], [ -86.60866, 36.010454 ], [ -86.608543, 36.010466 ], [ -86.608489, 36.010471 ], [ -86.608751701295972, 36.010438422628965 ] ] ] }, { "type": "Polygon", "coordinates": [ [ [ -86.606891, 36.010682 ], [ -86.606776, 36.010682 ], [ -86.606613, 36.010643 ], [ -86.60641, 36.010511 ], [ -86.60618, 36.010385 ], [ -86.60608750751463, 36.010309944658303 ], [ -86.606891, 36.010682 ] ] ] }, { "type": "Polygon", "coordinates": [ [ [ -86.605822, 36.010187 ], [ -86.605693, 36.010253 ], [ -86.605504, 36.010413 ], [ -86.605375, 36.01049 ], [ -86.605247, 36.010539 ], [ -86.604997, 36.010583 ], [ -86.60478, 36.010622 ], [ -86.604675, 36.010682 ], [ -86.604494, 36.010781 ], [ -86.604324, 36.010824 ], [ -86.604162, 36.010845 ], [ -86.604028, 36.010843 ], [ -86.603944, 36.01083 ], [ -86.603853, 36.010811 ], [ -86.603733, 36.010849 ], [ -86.603598285704578, 36.010870979734761 ], [ -86.605822, 36.010187 ] ] ] }, { "type": "Polygon", "coordinates": [ [ [ -86.60167784823426, 36.011480952618342 ], [ -86.601608, 36.011519 ], [ -86.601549, 36.011541 ], [ -86.6015, 36.011552 ], [ -86.60167784823426, 36.011480952618342 ] ] ] }, { "type": "Polygon", "coordinates": [ [ [ -86.598157157017056, 36.014603534945259 ], [ -86.598051, 36.014735 ], [ -86.597931, 36.014869 ], [ -86.598157157017056, 36.014603534945259 ] ] ] }, { "type": "Polygon", "coordinates": [ [ [ -86.597931, 36.014869 ], [ -86.597685, 36.015292 ], [ -86.596922, 36.016467 ], [ -86.596577, 36.016947 ], [ -86.59638894812565, 36.017195230890579 ], [ -86.597931, 36.014869 ] ] ] }, { "type": "Polygon", "coordinates": [ [ [ -86.594983, 36.019316 ], [ -86.594541, 36.019819 ], [ -86.594333, 36.020072 ], [ -86.594291, 36.020104 ], [ -86.594119, 36.020261 ], [ -86.594983, 36.019316 ] ] ] }, { "type": "Polygon", "coordinates": [ [ [ -86.594119, 36.020261 ], [ -86.593944, 36.020452 ], [ -86.593831, 36.020535 ], [ -86.593761, 36.020579 ], [ -86.593704, 36.020633 ], [ -86.593652, 36.020669 ], [ -86.593346, 36.020925 ], [ -86.593147, 36.021114 ], [ -86.59299, 36.021242 ], [ -86.59282, 36.021356 ], [ -86.592534, 36.021515 ], [ -86.592184, 36.021772 ], [ -86.592052, 36.021866 ], [ -86.594119, 36.020261 ] ] ] }, { "type": "Polygon", "coordinates": [ [ [ -86.591529, 36.022599 ], [ -86.591652, 36.022892 ], [ -86.591891, 36.023103 ], [ -86.592, 36.023292 ], [ -86.592034, 36.023541 ], [ -86.591986, 36.023774 ], [ -86.591877, 36.023945 ], [ -86.591618, 36.024129 ], [ -86.591529, 36.022599 ] ] ] }, { "type": "Polygon", "coordinates": [ [ [ -86.591618, 36.024129 ], [ -86.591263, 36.024206 ], [ -86.590997, 36.024189 ], [ -86.590335, 36.024029 ], [ -86.591618, 36.024129 ] ] ] }, { "type": "Polygon", "coordinates": [ [ [ -86.589977000304827, 36.024220756656696 ], [ -86.589652, 36.024461 ], [ -86.589407, 36.024528 ], [ -86.589401575608193, 36.02452896910156 ], [ -86.589977000304827, 36.024220756656696 ] ] ] }, { "type": "Polygon", "coordinates": [ [ [ -86.58830664588811, 36.025115427171585 ], [ -86.58826, 36.025143 ], [ -86.587871, 36.025409 ], [ -86.587553, 36.025529 ], [ -86.587499, 36.025548 ], [ -86.58830664588811, 36.025115427171585 ] ] ] }, { "type": "Polygon", "coordinates": [ [ [ -86.587499, 36.025548 ], [ -86.587475, 36.025558 ], [ -86.5873, 36.025604 ], [ -86.587499, 36.025548 ] ] ] }, { "type": "Polygon", "coordinates": [ [ [ -86.5873, 36.025604 ], [ -86.587089, 36.025658 ], [ -86.587033179346491, 36.025663391796698 ], [ -86.5873, 36.025604 ] ] ] }, { "type": "Polygon", "coordinates": [ [ [ -86.585068610707467, 36.02610066517169 ], [ -86.585039, 36.026109 ], [ -86.585025436644102, 36.026110274425918 ], [ -86.585068610707467, 36.02610066517169 ] ] ] }, { "type": "Polygon", "coordinates": [ [ [ -86.582488, 36.026675 ], [ -86.58219, 36.026697 ], [ -86.581575, 36.026631 ], [ -86.581344, 36.026579 ], [ -86.581232, 36.026553 ], [ -86.581054850154274, 36.026512119429164 ], [ -86.582488, 36.026675 ] ] ] }, { "type": "Polygon", "coordinates": [ [ [ -86.578632, 36.026638 ], [ -86.578483, 36.026803 ], [ -86.578344, 36.026921 ], [ -86.578205, 36.027039 ], [ -86.578085359109934, 36.027087188710489 ], [ -86.578632, 36.026638 ] ] ] }, { "type": "Polygon", "coordinates": [ [ [ -86.578060225618856, 36.027107841346954 ], [ -86.578055, 36.027181 ], [ -86.577989, 36.027243 ], [ -86.577955, 36.027276 ], [ -86.577818, 36.027318 ], [ -86.577796302549245, 36.027324710607026 ], [ -86.578060225618856, 36.027107841346954 ] ] ] }, { "type": "Polygon", "coordinates": [ [ [ -86.5751, 36.029711 ], [ -86.574613, 36.02987 ], [ -86.57416, 36.029945 ], [ -86.574033257728189, 36.029967366288673 ], [ -86.5751, 36.029711 ] ] ] }, { "type": "Polygon", "coordinates": [ [ [ -86.573111, 36.030189 ], [ -86.572583, 36.0307 ], [ -86.572355894906323, 36.030764474761845 ], [ -86.573111, 36.030189 ] ] ] }, { "type": "Polygon", "coordinates": [ [ [ -86.571934, 36.031086 ], [ -86.572035, 36.031387 ], [ -86.57211, 36.031591 ], [ -86.572114, 36.031703 ], [ -86.572117, 36.031756 ], [ -86.571934, 36.032008 ], [ -86.571934, 36.031086 ] ] ] }, { "type": "Polygon", "coordinates": [ [ [ -86.571934, 36.032008 ], [ -86.571296, 36.032353 ], [ -86.570811, 36.032615 ], [ -86.570723, 36.032663 ], [ -86.570714484349892, 36.032666732899912 ], [ -86.571934, 36.032008 ] ] ] }, { "type": "Polygon", "coordinates": [ [ [ -86.569979, 36.033064 ], [ -86.569877, 36.03341 ], [ -86.569654, 36.033613 ], [ -86.569622, 36.033638 ], [ -86.569343, 36.033861 ], [ -86.56923, 36.034019 ], [ -86.569018, 36.034317 ], [ -86.568974, 36.034328 ], [ -86.568761, 36.034388 ], [ -86.569979, 36.033064 ] ] ] }, { "type": "Polygon", "coordinates": [ [ [ -86.567207, 36.034496 ], [ -86.566825, 36.034614 ], [ -86.566494, 36.034652 ], [ -86.566400410602611, 36.034635564836861 ], [ -86.567207, 36.034496 ] ] ] }, { "type": "Polygon", "coordinates": [ [ [ -86.564260838887918, 36.035005747712795 ], [ -86.564119, 36.035037 ], [ -86.564039045282456, 36.035044119429074 ], [ -86.564260838887918, 36.035005747712795 ] ] ] }, { "type": "Polygon", "coordinates": [ [ [ -86.561608, 36.037543 ], [ -86.56145, 36.037717 ], [ -86.56127, 36.037917 ], [ -86.560947, 36.038218 ], [ -86.561608, 36.037543 ] ] ] }, { "type": "Polygon", "coordinates": [ [ [ -86.566007738554802, 36.04786456119831 ], [ -86.566158, 36.048226 ], [ -86.566241050351209, 36.04842854126796 ], [ -86.566007738554802, 36.04786456119831 ] ] ] }, { "type": "LineString", "coordinates": [ [ -86.612691, 36.007523 ], [ -86.612335, 36.009994 ] ] }, { "type": "Point", "coordinates": [ -86.560677, 36.039845 ] }, { "type": "Point", "coordinates": [ -86.576125, 36.028698 ] }, { "type": "Point", "coordinates": [ -86.601888, 36.011397 ] }, { "type": "Point", "coordinates": [ -86.566379, 36.048762 ] }, { "type": "Point", "coordinates": [ -86.600134, 36.012283 ] }, { "type": "Point", "coordinates": [ -86.580174, 36.026412 ] }, { "type": "Point", "coordinates": [ -86.562427, 36.035323 ] }, { "type": "Point", "coordinates": [ -86.565363, 36.046306 ] } ] } },
{ "type": "Feature", "properties": { "precinct_key": "DAVIDSON - 001950", "name20": "Davidson - 001950", "county_norm": "DAVIDSON", "prec_id": "001950", "district_num": "52", "area_weight": 0.56694992613817496, "geometry_status": "dominant", "suggested_action": "manual_split_review" }, "geometry": { "type": "Polygon", "coordinates": [ [ [ -86.628001, 36.064969 ], [ -86.626164, 36.065234 ], [ -86.622116, 36.064777 ], [ -86.617016, 36.064154 ], [ -86.615512, 36.06401 ], [ -86.614022, 36.063713 ], [ -86.612712, 36.063471 ], [ -86.608179, 36.062751 ], [ -86.597898, 36.067825 ], [ -86.595585, 36.068537 ], [ -86.593827, 36.069853 ], [ -86.592787, 36.070287 ], [ -86.58996, 36.071764 ], [ -86.588822, 36.072217 ], [ -86.588097, 36.072532 ], [ -86.583743, 36.075986 ], [ -86.582257, 36.076541 ], [ -86.576854, 36.076481 ], [ -86.576434, 36.074788 ], [ -86.574979, 36.074799 ], [ -86.574464, 36.076267 ], [ -86.573165, 36.078295 ], [ -86.571939, 36.077822 ], [ -86.570253, 36.078295 ], [ -86.56957, 36.079235 ], [ -86.570017, 36.080263 ], [ -86.568906, 36.082296 ], [ -86.567789, 36.081455 ], [ -86.567152, 36.081924 ], [ -86.567437, 36.080851 ], [ -86.566354, 36.080054 ], [ -86.566665, 36.078576 ], [ -86.568304, 36.077504 ], [ -86.567383, 36.075206 ], [ -86.565101, 36.073426 ], [ -86.56569, 36.072541 ], [ -86.567376, 36.071744 ], [ -86.568885, 36.072436 ], [ -86.570185, 36.071524 ], [ -86.569867, 36.069908 ], [ -86.567998, 36.067562 ], [ -86.569481, 36.066517 ], [ -86.572886, 36.066116 ], [ -86.575011, 36.065319 ], [ -86.57539, 36.064143 ], [ -86.577393, 36.063769 ], [ -86.578612, 36.06295 ], [ -86.578232, 36.06168 ], [ -86.57899, 36.060345 ], [ -86.581291, 36.059448 ], [ -86.58295, 36.060185 ], [ -86.582144, 36.059102 ], [ -86.58077, 36.058619 ], [ -86.581081, 36.057393 ], [ -86.58008, 36.057915 ], [ -86.578536, 36.057899 ], [ -86.577615, 36.056783 ], [ -86.576431, 36.057179 ], [ -86.576065, 36.056316 ], [ -86.57455, 36.057284 ], [ -86.570996, 36.058175 ], [ -86.569351, 36.056916 ], [ -86.569317, 36.056075 ], [ -86.571767, 36.054476 ], [ -86.570657, 36.054333 ], [ -86.566874, 36.055053 ], [ -86.564755, 36.054289 ], [ -86.565913, 36.053042 ], [ -86.566359, 36.05125 ], [ -86.567652, 36.050458 ], [ -86.566285, 36.050046 ], [ -86.566379, 36.048762 ], [ -86.566241050351209, 36.04842854126796 ], [ -86.566158, 36.048226 ], [ -86.566007738554802, 36.04786456119831 ], [ -86.565363, 36.046306 ], [ -86.560677, 36.039845 ], [ -86.560947, 36.038218 ], [ -86.56127, 36.037917 ], [ -86.56145, 36.037717 ], [ -86.561608, 36.037543 ], [ -86.562427, 36.035323 ], [ -86.564039045282456, 36.035044119429074 ], [ -86.564119, 36.035037 ], [ -86.564260838887918, 36.035005747712795 ], [ -86.566400410602611, 36.034635564836861 ], [ -86.566494, 36.034652 ], [ -86.566825, 36.034614 ], [ -86.567207, 36.034496 ], [ -86.568761, 36.034388 ], [ -86.568974, 36.034328 ], [ -86.569018, 36.034317 ], [ -86.56923, 36.034019 ], [ -86.569343, 36.033861 ], [ -86.569622, 36.033638 ], [ -86.569654, 36.033613 ], [ -86.569877, 36.03341 ], [ -86.569979, 36.033064 ], [ -86.570714484349892, 36.032666732899912 ], [ -86.570723, 36.032663 ], [ -86.570811, 36.032615 ], [ -86.571296, 36.032353 ], [ -86.571934, 36.032008 ], [ -86.572117, 36.031756 ], [ -86.572114, 36.031703 ], [ -86.57211, 36.031591 ], [ -86.572035, 36.031387 ], [ -86.571934, 36.031086 ], [ -86.572355894906323, 36.030764474761845 ], [ -86.572583, 36.0307 ], [ -86.573111, 36.030189 ], [ -86.574033257728189, 36.029967366288673 ], [ -86.57416, 36.029945 ], [ -86.574613, 36.02987 ], [ -86.5751, 36.029711 ], [ -86.576125, 36.028698 ], [ -86.577796302549245, 36.027324710607026 ], [ -86.577818, 36.027318 ], [ -86.577955, 36.027276 ], [ -86.577989, 36.027243 ], [ -86.578055, 36.027181 ], [ -86.578060225618856, 36.027107841346954 ], [ -86.578085359109934, 36.027087188710489 ], [ -86.578205, 36.027039 ], [ -86.578344, 36.026921 ], [ -86.578483, 36.026803 ], [ -86.578632, 36.026638 ], [ -86.580174, 36.026412 ], [ -86.581054850154274, 36.026512119429164 ], [ -86.581232, 36.026553 ], [ -86.581344, 36.026579 ], [ -86.581575, 36.026631 ], [ -86.58219, 36.026697 ], [ -86.582488, 36.026675 ], [ -86.585025436644102, 36.026110274425918 ], [ -86.585039, 36.026109 ], [ -86.585068610707467, 36.02610066517169 ], [ -86.587033179346491, 36.025663391796698 ], [ -86.587089, 36.025658 ], [ -86.5873, 36.025604 ], [ -86.587349, 36.025642 ], [ -86.58751, 36.025768 ], [ -86.588146, 36.02627 ], [ -86.58836, 36.026439 ], [ -86.588699, 36.026705 ], [ -86.588801, 36.0268 ], [ -86.589757, 36.027689 ], [ -86.590055, 36.027966 ], [ -86.590474, 36.028355 ], [ -86.590175, 36.028774 ], [ -86.589279, 36.030033 ], [ -86.588981, 36.030453 ], [ -86.58887, 36.030612 ], [ -86.588538, 36.031092 ], [ -86.588469, 36.031194 ], [ -86.588426, 36.031251 ], [ -86.588264, 36.031478 ], [ -86.58778, 36.032162 ], [ -86.587694, 36.032285 ], [ -86.58762, 36.03239 ], [ -86.587386, 36.03275 ], [ -86.58725, 36.03301 ], [ -86.587217, 36.033079 ], [ -86.587101, 36.033338 ], [ -86.587081, 36.03338 ], [ -86.587059, 36.033436 ], [ -86.586963, 36.033706 ], [ -86.586867, 36.03407 ], [ -86.586852, 36.034176 ], [ -86.586767, 36.034791 ], [ -86.586736, 36.035016 ], [ -86.586729, 36.035069 ], [ -86.586634, 36.035691 ], [ -86.5866, 36.035916 ], [ -86.58658, 36.036052 ], [ -86.58652, 36.036461 ], [ -86.586501, 36.036598 ], [ -86.58648, 36.036757 ], [ -86.586416, 36.037235 ], [ -86.586396, 36.037395 ], [ -86.586381, 36.037578 ], [ -86.586337, 36.03813 ], [ -86.586323, 36.038315 ], [ -86.586201, 36.038963 ], [ -86.586078, 36.039479 ], [ -86.586075, 36.039489 ], [ -86.585919, 36.040053 ], [ -86.585609, 36.041307 ], [ -86.585465, 36.041961 ], [ -86.585263, 36.042773 ], [ -86.585203, 36.042973 ], [ -86.585065, 36.043251 ], [ -86.585039, 36.043288 ], [ -86.584894, 36.043492 ], [ -86.584688, 36.043757 ], [ -86.584623, 36.043832 ], [ -86.584521, 36.043966 ], [ -86.584166, 36.044376 ], [ -86.583568, 36.045067 ], [ -86.583106, 36.045611 ], [ -86.582756, 36.046025 ], [ -86.582705, 36.04608 ], [ -86.582555, 36.046246 ], [ -86.582505, 36.046302 ], [ -86.583046, 36.046387 ], [ -86.583443, 36.046434 ], [ -86.585922, 36.046705 ], [ -86.585984, 36.046712 ], [ -86.588267, 36.04697 ], [ -86.589126, 36.04708 ], [ -86.589615, 36.047139 ], [ -86.589987, 36.047199 ], [ -86.590059, 36.047225 ], [ -86.59046, 36.047337 ], [ -86.590522, 36.047355 ], [ -86.59152, 36.047667 ], [ -86.591873, 36.047778 ], [ -86.592107, 36.047851 ], [ -86.592811, 36.048072 ], [ -86.593046, 36.048146 ], [ -86.593685, 36.048328 ], [ -86.59418, 36.048444 ], [ -86.594415, 36.048486 ], [ -86.595278, 36.048644 ], [ -86.596232, 36.048827 ], [ -86.597151, 36.048979 ], [ -86.597574, 36.049032 ], [ -86.598598, 36.049152 ], [ -86.600001, 36.049317 ], [ -86.600378, 36.047402 ], [ -86.600382, 36.04739 ], [ -86.600652, 36.046697 ], [ -86.601073, 36.046102 ], [ -86.601859, 36.045506 ], [ -86.602627, 36.045081 ], [ -86.603882, 36.044369 ], [ -86.604856, 36.043836 ], [ -86.606105, 36.043154 ], [ -86.606556, 36.042855 ], [ -86.607108, 36.042536 ], [ -86.606967, 36.042764 ], [ -86.606934, 36.042852 ], [ -86.606917, 36.042925 ], [ -86.606918, 36.042983 ], [ -86.607014, 36.043363 ], [ -86.607207, 36.043574 ], [ -86.60841, 36.044639 ], [ -86.608866, 36.045043 ], [ -86.608892, 36.045067 ], [ -86.609027, 36.045191 ], [ -86.609153, 36.045299 ], [ -86.609197, 36.045338 ], [ -86.609545931966395, 36.045640536337253 ], [ -86.612207, 36.047979 ], [ -86.614724, 36.050442 ], [ -86.614725, 36.050464 ], [ -86.61473, 36.050535 ], [ -86.614799, 36.050603 ], [ -86.614885157529599, 36.050681044512892 ], [ -86.618472, 36.054057 ], [ -86.618523, 36.054109 ], [ -86.618677, 36.054265 ], [ -86.618729, 36.054317 ], [ -86.619961847395246, 36.056064295698611 ], [ -86.621277, 36.058094 ], [ -86.621284, 36.058103 ], [ -86.621456, 36.058327 ], [ -86.621654, 36.05855 ], [ -86.621864, 36.05876 ], [ -86.622059, 36.058941 ], [ -86.622347, 36.05921 ], [ -86.622458, 36.05931 ], [ -86.622728, 36.059555 ], [ -86.623673694908092, 36.060411727488614 ], [ -86.624359222711007, 36.061037389398123 ], [ -86.624664, 36.061318 ], [ -86.624744, 36.061392 ], [ -86.624937, 36.06157 ], [ -86.625413, 36.062009 ], [ -86.625493, 36.062083 ], [ -86.625631726332813, 36.062198729010639 ], [ -86.626538110670253, 36.063025902386556 ], [ -86.626607, 36.063091 ], [ -86.62755, 36.063951 ], [ -86.627596, 36.063993 ], [ -86.628142, 36.06449 ], [ -86.628209, 36.064551 ], [ -86.628412, 36.064736 ], [ -86.62848, 36.064798 ], [ -86.628001, 36.064969 ] ] ] } },
{ "type": "Feature", "properties": { "precinct_key": "DAVIDSON - 001950", "name20": "Davidson - 001950", "county_norm": "DAVIDSON", "prec_id": "001950", "district_num": "53", "area_weight": 0.43208468811438916, "geometry_status": "real_secondary", "suggested_action": "manual_split_review" }, "geometry": { "type": "Polygon", "coordinates": [ [ [ -86.608841, 36.041547 ], [ -86.608099, 36.04197 ], [ -86.607108, 36.042536 ], [ -86.606556, 36.042855 ], [ -86.606105, 36.043154 ], [ -86.604856, 36.043836 ], [ -86.603882, 36.044369 ], [ -86.602627, 36.045081 ], [ -86.601859, 36.045506 ], [ -86.601073, 36.046102 ], [ -86.600652, 36.046697 ], [ -86.600382, 36.04739 ], [ -86.600378, 36.047402 ], [ -86.600001, 36.049317 ], [ -86.598598, 36.049152 ], [ -86.597574, 36.049032 ], [ -86.597151, 36.048979 ], [ -86.596232, 36.048827 ], [ -86.595278, 36.048644 ], [ -86.594415, 36.048486 ], [ -86.59418, 36.048444 ], [ -86.593685, 36.048328 ], [ -86.593046, 36.048146 ], [ -86.592811, 36.048072 ], [ -86.592107, 36.047851 ], [ -86.591873, 36.047778 ], [ -86.59152, 36.047667 ], [ -86.590522, 36.047355 ], [ -86.59046, 36.047337 ], [ -86.590059, 36.047225 ], [ -86.589987, 36.047199 ], [ -86.589615, 36.047139 ], [ -86.589126, 36.04708 ], [ -86.588267, 36.04697 ], [ -86.585984, 36.046712 ], [ -86.585922, 36.046705 ], [ -86.583443, 36.046434 ], [ -86.583046, 36.046387 ], [ -86.582505, 36.046302 ], [ -86.582555, 36.046246 ], [ -86.582705, 36.04608 ], [ -86.582756, 36.046025 ], [ -86.583106, 36.045611 ], [ -86.583568, 36.045067 ], [ -86.584166, 36.044376 ], [ -86.584521, 36.043966 ], [ -86.584623, 36.043832 ], [ -86.584688, 36.043757 ], [ -86.584894, 36.043492 ], [ -86.585039, 36.043288 ], [ -86.585065, 36.043251 ], [ -86.585203, 36.042973 ], [ -86.585263, 36.042773 ], [ -86.585465, 36.041961 ], [ -86.585609, 36.041307 ], [ -86.585919, 36.040053 ], [ -86.586075, 36.039489 ], [ -86.586078, 36.039479 ], [ -86.586201, 36.038963 ], [ -86.586323, 36.038315 ], [ -86.586337, 36.03813 ], [ -86.586381, 36.037578 ], [ -86.586396, 36.037395 ], [ -86.586416, 36.037235 ], [ -86.58648, 36.036757 ], [ -86.586501, 36.036598 ], [ -86.58652, 36.036461 ], [ -86.58658, 36.036052 ], [ -86.5866, 36.035916 ], [ -86.586634, 36.035691 ], [ -86.586729, 36.035069 ], [ -86.586736, 36.035016 ], [ -86.586767, 36.034791 ], [ -86.586852, 36.034176 ], [ -86.586867, 36.03407 ], [ -86.586963, 36.033706 ], [ -86.587059, 36.033436 ], [ -86.587081, 36.03338 ], [ -86.587101, 36.033338 ], [ -86.587217, 36.033079 ], [ -86.58725, 36.03301 ], [ -86.587386, 36.03275 ], [ -86.58762, 36.03239 ], [ -86.587694, 36.032285 ], [ -86.58778, 36.032162 ], [ -86.588264, 36.031478 ], [ -86.588426, 36.031251 ], [ -86.588469, 36.031194 ], [ -86.588538, 36.031092 ], [ -86.58887, 36.030612 ], [ -86.588981, 36.030453 ], [ -86.589279, 36.030033 ], [ -86.590175, 36.028774 ], [ -86.590474, 36.028355 ], [ -86.590055, 36.027966 ], [ -86.589757, 36.027689 ], [ -86.588801, 36.0268 ], [ -86.588699, 36.026705 ], [ -86.58836, 36.026439 ], [ -86.588146, 36.02627 ], [ -86.58751, 36.025768 ], [ -86.587349, 36.025642 ], [ -86.5873, 36.025604 ], [ -86.587475, 36.025558 ], [ -86.587499, 36.025548 ], [ -86.587553, 36.025529 ], [ -86.587871, 36.025409 ], [ -86.58826, 36.025143 ], [ -86.58830664588811, 36.025115427171585 ], [ -86.589401575608193, 36.02452896910156 ], [ -86.589407, 36.024528 ], [ -86.589652, 36.024461 ], [ -86.589977000304827, 36.024220756656696 ], [ -86.590335, 36.024029 ], [ -86.590997, 36.024189 ], [ -86.591263, 36.024206 ], [ -86.591618, 36.024129 ], [ -86.591877, 36.023945 ], [ -86.591986, 36.023774 ], [ -86.592034, 36.023541 ], [ -86.592, 36.023292 ], [ -86.591891, 36.023103 ], [ -86.591652, 36.022892 ], [ -86.591529, 36.022599 ], [ -86.592052, 36.021866 ], [ -86.592184, 36.021772 ], [ -86.592534, 36.021515 ], [ -86.59282, 36.021356 ], [ -86.59299, 36.021242 ], [ -86.593147, 36.021114 ], [ -86.593346, 36.020925 ], [ -86.593652, 36.020669 ], [ -86.593704, 36.020633 ], [ -86.593761, 36.020579 ], [ -86.593831, 36.020535 ], [ -86.593944, 36.020452 ], [ -86.594119, 36.020261 ], [ -86.594291, 36.020104 ], [ -86.594333, 36.020072 ], [ -86.594541, 36.019819 ], [ -86.594983, 36.019316 ], [ -86.59638894812565, 36.017195230890579 ], [ -86.596577, 36.016947 ], [ -86.596922, 36.016467 ], [ -86.597685, 36.015292 ], [ -86.597931, 36.014869 ], [ -86.598051, 36.014735 ], [ -86.598157157017056, 36.014603534945259 ], [ -86.600134, 36.012283 ], [ -86.6015, 36.011552 ], [ -86.601549, 36.011541 ], [ -86.601608, 36.011519 ], [ -86.60167784823426, 36.011480952618342 ], [ -86.601888, 36.011397 ], [ -86.603598285704578, 36.010870979734761 ], [ -86.603733, 36.010849 ], [ -86.603853, 36.010811 ], [ -86.603944, 36.01083 ], [ -86.604028, 36.010843 ], [ -86.604162, 36.010845 ], [ -86.604324, 36.010824 ], [ -86.604494, 36.010781 ], [ -86.604675, 36.010682 ], [ -86.60478, 36.010622 ], [ -86.604997, 36.010583 ], [ -86.605247, 36.010539 ], [ -86.605375, 36.01049 ], [ -86.605504, 36.010413 ], [ -86.605693, 36.010253 ], [ -86.605822, 36.010187 ], [ -86.60608750751463, 36.010309944658303 ], [ -86.60618, 36.010385 ], [ -86.60641, 36.010511 ], [ -86.606613, 36.010643 ], [ -86.606776, 36.010682 ], [ -86.606891, 36.010682 ], [ -86.608489, 36.010471 ], [ -86.608543, 36.010466 ], [ -86.60866, 36.010454 ], [ -86.608751701295972, 36.010438422628965 ], [ -86.609978889059064, 36.01028623203193 ], [ -86.610007, 36.010288 ], [ -86.610439, 36.010343 ], [ -86.610543, 36.010342 ], [ -86.610578, 36.01032 ], [ -86.610626, 36.010274 ], [ -86.610716, 36.010217 ], [ -86.610786, 36.010206 ], [ -86.611071, 36.010266 ], [ -86.611224, 36.010271 ], [ -86.611328, 36.010259 ], [ -86.611703, 36.010116 ], [ -86.611849, 36.010081 ], [ -86.612335, 36.009994 ], [ -86.612691, 36.007523 ], [ -86.620442, 36.014507 ], [ -86.633687, 36.026312 ], [ -86.639497, 36.031591 ], [ -86.638588, 36.033424 ], [ -86.638366, 36.035453 ], [ -86.636262, 36.035182 ], [ -86.634896, 36.036188 ], [ -86.635075, 36.037328 ], [ -86.635929, 36.038193 ], [ -86.635847, 36.038226 ], [ -86.635721, 36.038282 ], [ -86.635477, 36.038406 ], [ -86.635246, 36.038544 ], [ -86.635095, 36.038647 ], [ -86.634791, 36.038915 ], [ -86.634296, 36.039424 ], [ -86.633262, 36.040471 ], [ -86.631108, 36.03973 ], [ -86.622255, 36.033953 ], [ -86.614089, 36.028489 ], [ -86.613983, 36.028599 ], [ -86.613773, 36.028805 ], [ -86.61354, 36.029035 ], [ -86.613374, 36.029193 ], [ -86.613166, 36.029416 ], [ -86.612975, 36.029648 ], [ -86.612871, 36.029792 ], [ -86.612803, 36.029889 ], [ -86.612724, 36.030014 ], [ -86.612653, 36.03018 ], [ -86.612514, 36.030418 ], [ -86.612421, 36.030644 ], [ -86.6124, 36.030696 ], [ -86.612307, 36.030978 ], [ -86.612234, 36.031265 ], [ -86.612183, 36.031555 ], [ -86.612089, 36.031946 ], [ -86.612041, 36.032155 ], [ -86.611925, 36.032663 ], [ -86.611286, 36.035422 ], [ -86.611189, 36.035856 ], [ -86.611181, 36.035896 ], [ -86.611171, 36.035942 ], [ -86.610156, 36.040076 ], [ -86.608841, 36.041547 ] ] ] } },
{ "type": "Feature", "properties": { "precinct_key": "DAVIDSON - 001950", "name20": "Davidson - 001950", "county_norm": "DAVIDSON", "prec_id": "001950", "district_num": "55", "area_weight": 0.00035072497946612053, "geometry_status": "sliver", "suggested_action": "manual_split_review" }, "geometry": { "type": "GeometryCollection", "geometries": [ { "type": "Polygon", "coordinates": [ [ [ -86.62848, 36.064798 ], [ -86.628412, 36.064736 ], [ -86.628209, 36.064551 ], [ -86.628142, 36.06449 ], [ -86.627596, 36.063993 ], [ -86.62755, 36.063951 ], [ -86.626607, 36.063091 ], [ -86.626538110670253, 36.063025902386556 ], [ -86.62848, 36.064798 ] ] ] }, { "type": "Polygon", "coordinates": [ [ [ -86.625631726332813, 36.062198729010639 ], [ -86.625493, 36.062083 ], [ -86.625413, 36.062009 ], [ -86.624937, 36.06157 ], [ -86.624744, 36.061392 ], [ -86.624664, 36.061318 ], [ -86.624359222711007, 36.061037389398123 ], [ -86.625631726332813, 36.062198729010639 ] ] ] }, { "type": "Polygon", "coordinates": [ [ [ -86.623673694908092, 36.060411727488614 ], [ -86.622728, 36.059555 ], [ -86.622458, 36.05931 ], [ -86.622347, 36.05921 ], [ -86.622059, 36.058941 ], [ -86.621864, 36.05876 ], [ -86.623673694908092, 36.060411727488614 ] ] ] }, { "type": "Polygon", "coordinates": [ [ [ -86.621864, 36.05876 ], [ -86.621654, 36.05855 ], [ -86.621456, 36.058327 ], [ -86.621284, 36.058103 ], [ -86.621277, 36.058094 ], [ -86.619961847395246, 36.056064295698611 ], [ -86.621864, 36.05876 ] ] ] }, { "type": "Polygon", "coordinates": [ [ [ -86.618729, 36.054317 ], [ -86.618677, 36.054265 ], [ -86.618523, 36.054109 ], [ -86.618472, 36.054057 ], [ -86.618729, 36.054317 ] ] ] }, { "type": "Polygon", "coordinates": [ [ [ -86.614885157529599, 36.050681044512892 ], [ -86.614799, 36.050603 ], [ -86.61473, 36.050535 ], [ -86.614885157529599, 36.050681044512892 ] ] ] }, { "type": "Polygon", "coordinates": [ [ [ -86.61473, 36.050535 ], [ -86.614725, 36.050464 ], [ -86.614724, 36.050442 ], [ -86.61473, 36.050535 ] ] ] }, { "type": "Polygon", "coordinates": [ [ [ -86.609545931966395, 36.045640536337253 ], [ -86.609197, 36.045338 ], [ -86.609153, 36.045299 ], [ -86.609027, 36.045191 ], [ -86.608892, 36.045067 ], [ -86.608866, 36.045043 ], [ -86.609545931966395, 36.045640536337253 ] ] ] }, { "type": "Polygon", "coordinates": [ [ [ -86.608866, 36.045043 ], [ -86.60841, 36.044639 ], [ -86.607207, 36.043574 ], [ -86.607014, 36.043363 ], [ -86.608866, 36.045043 ] ] ] }, { "type": "Polygon", "coordinates": [ [ [ -86.607014, 36.043363 ], [ -86.606918, 36.042983 ], [ -86.606917, 36.042925 ], [ -86.606934, 36.042852 ], [ -86.606967, 36.042764 ], [ -86.607108, 36.042536 ], [ -86.607014, 36.043363 ] ] ] }, { "type": "Polygon", "coordinates": [ [ [ -86.607108, 36.042536 ], [ -86.608099, 36.04197 ], [ -86.608841, 36.041547 ], [ -86.607108, 36.042536 ] ] ] }, { "type": "Polygon", "coordinates": [ [ [ -86.611181, 36.035896 ], [ -86.611189, 36.035856 ], [ -86.611286, 36.035422 ], [ -86.611925, 36.032663 ], [ -86.611181, 36.035896 ] ] ] }, { "type": "Polygon", "coordinates": [ [ [ -86.611925, 36.032663 ], [ -86.612041, 36.032155 ], [ -86.612089, 36.031946 ], [ -86.612183, 36.031555 ], [ -86.612234, 36.031265 ], [ -86.612307, 36.030978 ], [ -86.6124, 36.030696 ], [ -86.612421, 36.030644 ], [ -86.612514, 36.030418 ], [ -86.612653, 36.03018 ], [ -86.612724, 36.030014 ], [ -86.611925, 36.032663 ] ] ] }, { "type": "Polygon", "coordinates": [ [ [ -86.612724, 36.030014 ], [ -86.612803, 36.029889 ], [ -86.612871, 36.029792 ], [ -86.612975, 36.029648 ], [ -86.613166, 36.029416 ], [ -86.613374, 36.029193 ], [ -86.61354, 36.029035 ], [ -86.613773, 36.028805 ], [ -86.613983, 36.028599 ], [ -86.614089, 36.028489 ], [ -86.612724, 36.030014 ] ] ] }, { "type": "Polygon", "coordinates": [ [ [ -86.633262, 36.040471 ], [ -86.634296, 36.039424 ], [ -86.634791, 36.038915 ], [ -86.635095, 36.038647 ], [ -86.635246, 36.038544 ], [ -86.635477, 36.038406 ], [ -86.635721, 36.038282 ], [ -86.635847, 36.038226 ], [ -86.635929, 36.038193 ], [ -86.633262, 36.040471 ] ] ] }, { "type": "LineString", "coordinates": [ [ -86.611171, 36.035942 ], [ -86.611181, 36.035896 ] ] }, { "type": "Point", "coordinates": [ -86.622255, 36.033953 ] }, { "type": "Point", "coordinates": [ -86.610156, 36.040076 ] }, { "type": "Point", "coordinates": [ -86.612207, 36.047979 ] }, { "type": "Point", "coordinates": [ -86.638366, 36.035453 ] }, { "type": "Point", "coordinates": [ -86.631108, 36.03973 ] } ] } }
]
}
