{
"type": "FeatureCollection",
"name": "precinct",
"crs": { "type": "name", "properties": { "name": "urn:ogc:def:crs:OGC:1.3:CRS84" } },
"features": [
{ "type": "Feature", "properties": { "precinct_key": "DAVIDSON - 001950", "name20": "Davidson - 001950", "county_norm": "DAVIDSON", "prec_id": "001950" }, "geometry": { "type": "Polygon", "coordinates": [ [ [ -86.570657, 36.054333 ], [ -86.571767, 36.054476 ], [ -86.569317, 36.056075 ], [ -86.569351, 36.056916 ], [ -86.570996, 36.058175 ], [ -86.57455, 36.057284 ], [ -86.576065, 36.056316 ], [ -86.576431, 36.057179 ], [ -86.577615, 36.056783 ], [ -86.578536, 36.057899 ], [ -86.58008, 36.057915 ], [ -86.581081, 36.057393 ], [ -86.58077, 36.058619 ], [ -86.582144, 36.059102 ], [ -86.58295, 36.060185 ], [ -86.581291, 36.059448 ], [ -86.57899, 36.060345 ], [ -86.578232, 36.06168 ], [ -86.578612, 36.06295 ], [ -86.577393, 36.063769 ], [ -86.57539, 36.064143 ], [ -86.575011, 36.065319 ], [ -86.572886, 36.066116 ], [ -86.569481, 36.066517 ], [ -86.567998, 36.067562 ], [ -86.569867, 36.069908 ], [ -86.570185, 36.071524 ], [ -86.568885, 36.072436 ], [ -86.567376, 36.071744 ], [ -86.56569, 36.072541 ], [ -86.565101, 36.073426 ], [ -86.567383, 36.075206 ], [ -86.568304, 36.077504 ], [ -86.566665, 36.078576 ], [ -86.566354, 36.080054 ], [ -86.567437, 36.080851 ], [ -86.567152, 36.081924 ], [ -86.567789, 36.081455 ], [ -86.568906, 36.082296 ], [ -86.570017, 36.080263 ], [ -86.56957, 36.079235 ], [ -86.570253, 36.078295 ], [ -86.571939, 36.077822 ], [ -86.573165, 36.078295 ], [ -86.574464, 36.076267 ], [ -86.574979, 36.074799 ], [ -86.576434, 36.074788 ], [ -86.576854, 36.076481 ], [ -86.582257, 36.076541 ], [ -86.583743, 36.075986 ], [ -86.588097, 36.072532 ], [ -86.588822, 36.072217 ], [ -86.58996, 36.071764 ], [ -86.592787, 36.070287 ], [ -86.593827, 36.069853 ], [ -86.595585, 36.068537 ], [ -86.597898, 36.067825 ], [ -86.608179, 36.062751 ], [ -86.612712, 36.063471 ], [ -86.614022, 36.063713 ], [ -86.615512, 36.06401 ], [ -86.617016, 36.064154 ], [ -86.622116, 36.064777 ], [ -86.626164, 36.065234 ], [ -86.628001, 36.064969 ], [ -86.62848, 36.064798 ], [ -86.621864, 36.05876 ], [ -86.618729, 36.054317 ], [ -86.618472, 36.054057 ], [ -86.61473, 36.050535 ], [ -86.614724, 36.050442 ], [ -86.612207, 36.047979 ], [ -86.608866, 36.045043 ], [ -86.607014, 36.043363 ], [ -86.607108, 36.042536 ], [ -86.608841, 36.041547 ], [ -86.610156, 36.040076 ], [ -86.611171, 36.035942 ], [ -86.611181, 36.035896 ], [ -86.611925, 36.032663 ], [ -86.612724, 36.030014 ], [ -86.614089, 36.028489 ], [ -86.622255, 36.033953 ], [ -86.631108, 36.03973 ], [ -86.633262, 36.040471 ], [ -86.635929, 36.038193 ], [ -86.635075, 36.037328 ], [ -86.634896, 36.036188 ], [ -86.636262, 36.035182 ], [ -86.638366, 36.035453 ], [ -86.638588, 36.033424 ], [ -86.639497, 36.031591 ], [ -86.633687, 36.026312 ], [ -86.620442, 36.014507 ], [ -86.612691, 36.007523 ], [ -86.612335, 36.009994 ], [ -86.608489, 36.010471 ], [ -86.606891, 36.010682 ], [ -86.605822, 36.010187 ], [ -86.601888, 36.011397 ], [ -86.6015, 36.011552 ], [ -86.600134, 36.012283 ], [ -86.597931, 36.014869 ], [ -86.594983, 36.019316 ], [ -86.594119, 36.020261 ], [ -86.592052, 36.021866 ], [ -86.591529, 36.022599 ], [ -86.591618, 36.024129 ], [ -86.590335, 36.024029 ], [ -86.587499, 36.025548 ], [ -86.5873, 36.025604 ], [ -86.582488, 36.026675 ], [ -86.580174, 36.026412 ], [ -86.578632, 36.026638 ], [ -86.576125, 36.028698 ], [ -86.5751, 36.029711 ], [ -86.573111, 36.030189 ], [ -86.571934, 36.031086 ], [ -86.571934, 36.032008 ], [ -86.569979, 36.033064 ], [ -86.568761, 36.034388 ], [ -86.567207, 36.034496 ], [ -86.562427, 36.035323 ], [ -86.561608, 36.037543 ], [ -86.560947, 36.038218 ], [ -86.560677, 36.039845 ], [ -86.565363, 36.046306 ], [ -86.566379, 36.048762 ], [ -86.566285, 36.050046 ], [ -86.567652, 36.050458 ], [ -86.566359, 36.05125 ], [ -86.565913, 36.053042 ], [ -86.564755, 36.054289 ], [ -86.566874, 36.055053 ], [ -86.570657, 36.054333 ] ] ] } }
]
}
