{
"type": "FeatureCollection",
"name": "intersection_pieces",
"crs": { "type": "name", "properties": { "name": "urn:ogc:def:crs:OGC:1.3:CRS84" } },
"features": [
{ "type": "Feature", "properties": { "precinct_key": "RUTHERFORD - 007663", "name20": "Rutherford - 007663", "county_norm": "RUTHERFORD", "prec_id": "007663", "district_num": "13", "area_weight": 0.55633092080080293, "geometry_status": "dominant", "suggested_action": "manual_split_review" }, "geometry": { "type": "GeometryCollection", "geometries": [ { "type": "Polygon", "coordinates": [ [ [ -86.49604, 35.809245 ], [ -86.496945, 35.809325 ], [ -86.49852, 35.809493 ], [ -86.499439, 35.809602 ], [ -86.503002, 35.810086 ], [ -86.506749, 35.810532 ], [ -86.50984, 35.811502 ], [ -86.5122, 35.810742 ], [ -86.511471, 35.815063 ], [ -86.511835, 35.81612 ], [ -86.511583, 35.817803 ], [ -86.510145, 35.826393 ], [ -86.509649, 35.826789 ], [ -86.505321, 35.82648 ], [ -86.503809, 35.826107 ], [ -86.503323, 35.826612 ], [ -86.502722, 35.830626 ], [ -86.502193, 35.834328 ], [ -86.501679, 35.837827 ], [ -86.50097, 35.842489 ], [ -86.500299, 35.842539 ], [ -86.495793, 35.842876 ], [ -86.493332, 35.843065 ], [ -86.490028, 35.84333 ], [ -86.487961, 35.842191 ], [ -86.487542, 35.840059 ], [ -86.485834, 35.839378 ], [ -86.485848, 35.83796 ], [ -86.486156, 35.836245 ], [ -86.487761, 35.834975 ], [ -86.487754, 35.833864 ], [ -86.487058, 35.832528 ], [ -86.484341, 35.832488 ], [ -86.483479, 35.831862 ], [ -86.483575, 35.831184 ], [ -86.486003, 35.829649 ], [ -86.484822, 35.828515 ], [ -86.484498, 35.828386 ], [ -86.484153, 35.828172 ], [ -86.483606, 35.827551 ], [ -86.482971, 35.826908 ], [ -86.482735, 35.826595 ], [ -86.482755, 35.826408 ], [ -86.483066, 35.826216 ], [ -86.483403, 35.826182 ], [ -86.484091, 35.826353 ], [ -86.48428, 35.826374 ], [ -86.484517, 35.826259 ], [ -86.484631, 35.825984 ], [ -86.484604, 35.825577 ], [ -86.484482, 35.824236 ], [ -86.484549, 35.823901 ], [ -86.484819, 35.823604 ], [ -86.485466, 35.823285 ], [ -86.486121, 35.822779 ], [ -86.486687, 35.822246 ], [ -86.48691, 35.822108 ], [ -86.487213, 35.822086 ], [ -86.487302, 35.822108 ], [ -86.487668, 35.822197 ], [ -86.48779, 35.821571 ], [ -86.488235, 35.818914 ], [ -86.488347, 35.818187 ], [ -86.491708, 35.818516 ], [ -86.491415, 35.818195 ], [ -86.490147, 35.816811 ], [ -86.489798, 35.816396 ], [ -86.489414, 35.815968 ], [ -86.488983, 35.815475 ], [ -86.488561, 35.815004 ], [ -86.488318, 35.814739 ], [ -86.48816, 35.814584 ], [ -86.487967, 35.814423 ], [ -86.487743, 35.814276 ], [ -86.48752, 35.814159 ], [ -86.48719, 35.814 ], [ -86.486836, 35.813831 ], [ -86.48644, 35.813638 ], [ -86.486293, 35.813545 ], [ -86.486067, 35.813379 ], [ -86.485873, 35.813218 ], [ -86.485718, 35.813057 ], [ -86.485546, 35.812845 ], [ -86.485391, 35.812608 ], [ -86.485268, 35.812401 ], [ -86.485225, 35.812308 ], [ -86.485178, 35.812166 ], [ -86.485105, 35.811913 ], [ -86.484999, 35.811498 ], [ -86.484922, 35.811209 ], [ -86.48483, 35.810994 ], [ -86.484742, 35.81082 ], [ -86.484674, 35.810697 ], [ -86.484511, 35.810482 ], [ -86.483756, 35.809658 ], [ -86.482799, 35.808579 ], [ -86.482736, 35.80851 ], [ -86.482848, 35.808441 ], [ -86.482489, 35.808034 ], [ -86.49604, 35.809245 ] ] ] }, { "type": "Polygon", "coordinates": [ [ [ -86.480621313237037, 35.808119525523409 ], [ -86.480043, 35.808582 ], [ -86.479443, 35.809055 ], [ -86.479405, 35.809085 ], [ -86.479217, 35.80918 ], [ -86.479024, 35.809235 ], [ -86.478968, 35.809252 ], [ -86.478789, 35.809277 ], [ -86.480621313237037, 35.808119525523409 ] ] ] }, { "type": "Polygon", "coordinates": [ [ [ -86.478789, 35.809277 ], [ -86.478288, 35.809269 ], [ -86.47694, 35.809211 ], [ -86.478789, 35.809277 ] ] ] }, { "type": "Polygon", "coordinates": [ [ [ -86.470028, 35.808874 ], [ -86.469969, 35.808871 ], [ -86.469873278695175, 35.808863909560174 ], [ -86.470028, 35.808874 ] ] ] }, { "type": "Polygon", "coordinates": [ [ [ -86.469752, 35.808856 ], [ -86.469578, 35.808798 ], [ -86.46954, 35.808785 ], [ -86.469752, 35.808856 ] ] ] }, { "type": "Polygon", "coordinates": [ [ [ -86.46954, 35.808785 ], [ -86.469397, 35.808693 ], [ -86.469223, 35.808534 ], [ -86.469181, 35.80848 ], [ -86.469161, 35.808454 ], [ -86.46905, 35.80831 ], [ -86.46954, 35.808785 ] ] ] }, { "type": "Polygon", "coordinates": [ [ [ -86.464606, 35.821914 ], [ -86.464628, 35.821916 ], [ -86.464706, 35.821924 ], [ -86.465118, 35.821965 ], [ -86.465197, 35.821973 ], [ -86.465294, 35.821983 ], [ -86.465332, 35.821987 ], [ -86.465982, 35.822052 ], [ -86.466011, 35.822054 ], [ -86.466308, 35.822084 ], [ -86.467908, 35.822217 ], [ -86.46908, 35.822335 ], [ -86.46965, 35.822392 ], [ -86.469765, 35.822403 ], [ -86.469833, 35.822408 ], [ -86.469869, 35.822411 ], [ -86.477014, 35.822961 ], [ -86.47697, 35.823278 ], [ -86.476787, 35.824527 ], [ -86.476721, 35.82501 ], [ -86.476525, 35.826462 ], [ -86.47646, 35.826946 ], [ -86.476435, 35.827147 ], [ -86.476363, 35.827751 ], [ -86.47634, 35.827953 ], [ -86.476084, 35.82981 ], [ -86.475469, 35.833699 ], [ -86.475375, 35.83384 ], [ -86.474805, 35.835623 ], [ -86.474599, 35.836264 ], [ -86.473146, 35.836082 ], [ -86.471779, 35.835928 ], [ -86.470076, 35.835479 ], [ -86.467598, 35.834376 ], [ -86.466239, 35.834223 ], [ -86.4654, 35.834135 ], [ -86.465475, 35.834069 ], [ -86.465481, 35.834047 ], [ -86.465589, 35.833905 ], [ -86.465663, 35.833729 ], [ -86.465677, 35.833553 ], [ -86.46563, 35.833195 ], [ -86.465474, 35.832899 ], [ -86.4654, 35.832855 ], [ -86.465336, 35.832797 ], [ -86.464798424219396, 35.831719588263709 ], [ -86.464792, 35.831651 ], [ -86.464738, 35.83142 ], [ -86.46465, 35.831261 ], [ -86.464535, 35.83114 ], [ -86.46443797931272, 35.830997164023948 ], [ -86.46439, 35.830901 ], [ -86.464155, 35.83035 ], [ -86.464093801924534, 35.829379963654617 ], [ -86.464123, 35.829233 ], [ -86.464137, 35.829079 ], [ -86.464103, 35.828629 ], [ -86.464031173169602, 35.82838722351336 ], [ -86.463906, 35.826403 ], [ -86.464088, 35.826199 ], [ -86.464109, 35.826144 ], [ -86.464149, 35.826128 ], [ -86.464244, 35.825875 ], [ -86.464264, 35.825518 ], [ -86.464223, 35.825248 ], [ -86.46421915351722, 35.825201654854858 ], [ -86.464621, 35.82366 ], [ -86.464661, 35.823522 ], [ -86.464668, 35.823396 ], [ -86.464615437664435, 35.823012553775207 ], [ -86.464607106730838, 35.82204282629111 ], [ -86.464613, 35.821978 ], [ -86.464606454656831, 35.821966923267212 ], [ -86.464606, 35.821914 ] ] ] }, { "type": "LineString", "coordinates": [ [ -86.482489, 35.808034 ], [ -86.482292, 35.808018 ] ] }, { "type": "Point", "coordinates": [ -86.480896, 35.807946 ] }, { "type": "Point", "coordinates": [ -86.481231, 35.828405 ] } ] } },
{ "type": "Feature", "properties": { "precinct_key": "RUTHERFORD - 007663", "name20": "Rutherford - 007663", "county_norm": "RUTHERFORD", "prec_id": "007663", "district_num": "34", "area_weight": 0.44366907919919879, "geometry_status": "real_secondary", "suggested_action": "manual_split_review" }, "geometry": { "type": "GeometryCollection", "geometries": [ { "type": "Polygon", "coordinates": [ [ [ -86.482489, 35.808034 ], [ -86.482848, 35.808441 ], [ -86.482736, 35.80851 ], [ -86.482799, 35.808579 ], [ -86.483756, 35.809658 ], [ -86.484511, 35.810482 ], [ -86.484674, 35.810697 ], [ -86.484742, 35.81082 ], [ -86.48483, 35.810994 ], [ -86.484922, 35.811209 ], [ -86.484999, 35.811498 ], [ -86.485105, 35.811913 ], [ -86.485178, 35.812166 ], [ -86.485225, 35.812308 ], [ -86.485268, 35.812401 ], [ -86.485391, 35.812608 ], [ -86.485546, 35.812845 ], [ -86.485718, 35.813057 ], [ -86.485873, 35.813218 ], [ -86.486067, 35.813379 ], [ -86.486293, 35.813545 ], [ -86.48644, 35.813638 ], [ -86.486836, 35.813831 ], [ -86.48719, 35.814 ], [ -86.48752, 35.814159 ], [ -86.487743, 35.814276 ], [ -86.487967, 35.814423 ], [ -86.48816, 35.814584 ], [ -86.488318, 35.814739 ], [ -86.488561, 35.815004 ], [ -86.488983, 35.815475 ], [ -86.489414, 35.815968 ], [ -86.489798, 35.816396 ], [ -86.490147, 35.816811 ], [ -86.491415, 35.818195 ], [ -86.491708, 35.818516 ], [ -86.488347, 35.818187 ], [ -86.488235, 35.818914 ], [ -86.48779, 35.821571 ], [ -86.487668, 35.822197 ], [ -86.487302, 35.822108 ], [ -86.487213, 35.822086 ], [ -86.48691, 35.822108 ], [ -86.486687, 35.822246 ], [ -86.486121, 35.822779 ], [ -86.485466, 35.823285 ], [ -86.484819, 35.823604 ], [ -86.484549, 35.823901 ], [ -86.484482, 35.824236 ], [ -86.484604, 35.825577 ], [ -86.484631, 35.825984 ], [ -86.484517, 35.826259 ], [ -86.48428, 35.826374 ], [ -86.484091, 35.826353 ], [ -86.483403, 35.826182 ], [ -86.483066, 35.826216 ], [ -86.482755, 35.826408 ], [ -86.482735, 35.826595 ], [ -86.482971, 35.826908 ], [ -86.483606, 35.827551 ], [ -86.484153, 35.828172 ], [ -86.484498, 35.828386 ], [ -86.484822, 35.828515 ], [ -86.481231, 35.828405 ], [ -86.47634, 35.827953 ], [ -86.476363, 35.827751 ], [ -86.476435, 35.827147 ], [ -86.47646, 35.826946 ], [ -86.476525, 35.826462 ], [ -86.476721, 35.82501 ], [ -86.476787, 35.824527 ], [ -86.47697, 35.823278 ], [ -86.477014, 35.822961 ], [ -86.469869, 35.822411 ], [ -86.469833, 35.822408 ], [ -86.469765, 35.822403 ], [ -86.46965, 35.822392 ], [ -86.46908, 35.822335 ], [ -86.467908, 35.822217 ], [ -86.466308, 35.822084 ], [ -86.466011, 35.822054 ], [ -86.465982, 35.822052 ], [ -86.465332, 35.821987 ], [ -86.465294, 35.821983 ], [ -86.465197, 35.821973 ], [ -86.465118, 35.821965 ], [ -86.464706, 35.821924 ], [ -86.464628, 35.821916 ], [ -86.464606, 35.821914 ], [ -86.465887, 35.820195 ], [ -86.465987, 35.820156 ], [ -86.462082, 35.820086 ], [ -86.460143, 35.819827 ], [ -86.457995, 35.819983 ], [ -86.456877, 35.820828 ], [ -86.455739, 35.820773 ], [ -86.45509, 35.820741 ], [ -86.454664, 35.82072 ], [ -86.453618, 35.82067 ], [ -86.451403, 35.820563 ], [ -86.44971, 35.821154 ], [ -86.448178, 35.821095 ], [ -86.445646, 35.820711 ], [ -86.443711, 35.820827 ], [ -86.443586, 35.821218 ], [ -86.443468, 35.822075 ], [ -86.443474, 35.823227 ], [ -86.442542, 35.824657 ], [ -86.442391, 35.826054 ], [ -86.439895, 35.825796 ], [ -86.437117, 35.825515 ], [ -86.432807, 35.825082 ], [ -86.432824, 35.821807 ], [ -86.432714, 35.819856 ], [ -86.432428, 35.819551 ], [ -86.431975, 35.819504 ], [ -86.43075, 35.818346 ], [ -86.43017, 35.816326 ], [ -86.430381, 35.816283 ], [ -86.430449, 35.81609 ], [ -86.435974, 35.815046 ], [ -86.437473, 35.814924 ], [ -86.437647, 35.814892 ], [ -86.445106, 35.813481 ], [ -86.448802, 35.812742 ], [ -86.454868, 35.811528 ], [ -86.459229, 35.810716 ], [ -86.464832, 35.809605 ], [ -86.466789, 35.809161 ], [ -86.468149, 35.80869 ], [ -86.46905, 35.80831 ], [ -86.469161, 35.808454 ], [ -86.469181, 35.80848 ], [ -86.469223, 35.808534 ], [ -86.469397, 35.808693 ], [ -86.46954, 35.808785 ], [ -86.469578, 35.808798 ], [ -86.469752, 35.808856 ], [ -86.469873278695175, 35.808863909560174 ], [ -86.469969, 35.808871 ], [ -86.470028, 35.808874 ], [ -86.47694, 35.809211 ], [ -86.478288, 35.809269 ], [ -86.478789, 35.809277 ], [ -86.478968, 35.809252 ], [ -86.479024, 35.809235 ], [ -86.479217, 35.80918 ], [ -86.479405, 35.809085 ], [ -86.479443, 35.809055 ], [ -86.480043, 35.808582 ], [ -86.480621313237037, 35.808119525523409 ], [ -86.480896, 35.807946 ], [ -86.482292, 35.808018 ], [ -86.482489, 35.808034 ] ] ] }, { "type": "Polygon", "coordinates": [ [ [ -86.464606454656831, 35.821966923267212 ], [ -86.464613, 35.821978 ], [ -86.464607106730838, 35.82204282629111 ], [ -86.464606454656831, 35.821966923267212 ] ] ] }, { "type": "Polygon", "coordinates": [ [ [ -86.464615437664435, 35.823012553775207 ], [ -86.464668, 35.823396 ], [ -86.464661, 35.823522 ], [ -86.464621, 35.82366 ], [ -86.464615437664435, 35.823012553775207 ] ] ] }, { "type": "Polygon", "coordinates": [ [ [ -86.46421915351722, 35.825201654854858 ], [ -86.464223, 35.825248 ], [ -86.464264, 35.825518 ], [ -86.464244, 35.825875 ], [ -86.464149, 35.826128 ], [ -86.464109, 35.826144 ], [ -86.464088, 35.826199 ], [ -86.463906, 35.826403 ], [ -86.46421915351722, 35.825201654854858 ] ] ] }, { "type": "Polygon", "coordinates": [ [ [ -86.464031173169602, 35.82838722351336 ], [ -86.464103, 35.828629 ], [ -86.464137, 35.829079 ], [ -86.464123, 35.829233 ], [ -86.464093801924534, 35.829379963654617 ], [ -86.464031173169602, 35.82838722351336 ] ] ] }, { "type": "Polygon", "coordinates": [ [ [ -86.46443797931272, 35.830997164023948 ], [ -86.464535, 35.83114 ], [ -86.46465, 35.831261 ], [ -86.464738, 35.83142 ], [ -86.464792, 35.831651 ], [ -86.464798424219396, 35.831719588263709 ], [ -86.46443797931272, 35.830997164023948 ] ] ] }, { "type": "Polygon", "coordinates": [ [ [ -86.465336, 35.832797 ], [ -86.4654, 35.832855 ], [ -86.465474, 35.832899 ], [ -86.46563, 35.833195 ], [ -86.465336, 35.832797 ] ] ] }, { "type": "Polygon", "coordinates": [ [ [ -86.465677, 35.833553 ], [ -86.465663, 35.833729 ], [ -86.465589, 35.833905 ], [ -86.465481, 35.834047 ], [ -86.465475, 35.834069 ], [ -86.4654, 35.834135 ], [ -86.465677, 35.833553 ] ] ] }, { "type": "LineString", "coordinates": [ [ -86.46563, 35.833195 ], [ -86.465677, 35.833553 ] ] }, { "type": "Point", "coordinates": [ -86.46439, 35.830901 ] }, { "type": "Point", "coordinates": [ -86.464155, 35.83035 ] } ] } }
]
}
