{
"type": "FeatureCollection",
"name": "precinct",
"crs": { "type": "name", "properties": { "name": "urn:ogc:def:crs:OGC:1.3:CRS84" } },
"features": [
{ "type": "Feature", "properties": { "precinct_key": "RUTHERFORD - 007663", "name20": "Rutherford - 007663", "county_norm": "RUTHERFORD", "prec_id": "007663" }, "geometry": { "type": "Polygon", "coordinates": [ [ [ -86.500299, 35.842539 ], [ -86.50097, 35.842489 ], [ -86.501679, 35.837827 ], [ -86.502193, 35.834328 ], [ -86.502722, 35.830626 ], [ -86.503323, 35.826612 ], [ -86.503809, 35.826107 ], [ -86.505321, 35.82648 ], [ -86.509649, 35.826789 ], [ -86.510145, 35.826393 ], [ -86.511583, 35.817803 ], [ -86.511835, 35.81612 ], [ -86.511471, 35.815063 ], [ -86.5122, 35.810742 ], [ -86.50984, 35.811502 ], [ -86.506749, 35.810532 ], [ -86.503002, 35.810086 ], [ -86.499439, 35.809602 ], [ -86.49852, 35.809493 ], [ -86.496945, 35.809325 ], [ -86.49604, 35.809245 ], [ -86.482489, 35.808034 ], [ -86.482292, 35.808018 ], [ -86.480896, 35.807946 ], [ -86.478789, 35.809277 ], [ -86.47694, 35.809211 ], [ -86.470028, 35.808874 ], [ -86.469752, 35.808856 ], [ -86.46954, 35.808785 ], [ -86.46905, 35.80831 ], [ -86.468149, 35.80869 ], [ -86.466789, 35.809161 ], [ -86.464832, 35.809605 ], [ -86.459229, 35.810716 ], [ -86.454868, 35.811528 ], [ -86.448802, 35.812742 ], [ -86.445106, 35.813481 ], [ -86.437647, 35.814892 ], [ -86.437473, 35.814924 ], [ -86.435974, 35.815046 ], [ -86.430449, 35.81609 ], [ -86.430381, 35.816283 ], [ -86.43017, 35.816326 ], [ -86.43075, 35.818346 ], [ -86.431975, 35.819504 ], [ -86.432428, 35.819551 ], [ -86.432714, 35.819856 ], [ -86.432824, 35.821807 ], [ -86.432807, 35.825082 ], [ -86.437117, 35.825515 ], [ -86.439895, 35.825796 ], [ -86.442391, 35.826054 ], [ -86.442542, 35.824657 ], [ -86.443474, 35.823227 ], [ -86.443468, 35.822075 ], [ -86.443586, 35.821218 ], [ -86.443711, 35.820827 ], [ -86.445646, 35.820711 ], [ -86.448178, 35.821095 ], [ -86.44971, 35.821154 ], [ -86.451403, 35.820563 ], [ -86.453618, 35.82067 ], [ -86.454664, 35.82072 ], [ -86.45509, 35.820741 ], [ -86.455739, 35.820773 ], [ -86.456877, 35.820828 ], [ -86.457995, 35.819983 ], [ -86.460143, 35.819827 ], [ -86.462082, 35.820086 ], [ -86.465987, 35.820156 ], [ -86.465887, 35.820195 ], [ -86.464606, 35.821914 ], [ -86.464621, 35.82366 ], [ -86.463906, 35.826403 ], [ -86.464155, 35.83035 ], [ -86.46439, 35.830901 ], [ -86.465336, 35.832797 ], [ -86.46563, 35.833195 ], [ -86.465677, 35.833553 ], [ -86.4654, 35.834135 ], [ -86.466239, 35.834223 ], [ -86.467598, 35.834376 ], [ -86.470076, 35.835479 ], [ -86.471779, 35.835928 ], [ -86.473146, 35.836082 ], [ -86.474599, 35.836264 ], [ -86.474805, 35.835623 ], [ -86.475375, 35.83384 ], [ -86.475469, 35.833699 ], [ -86.476084, 35.82981 ], [ -86.47634, 35.827953 ], [ -86.481231, 35.828405 ], [ -86.484822, 35.828515 ], [ -86.486003, 35.829649 ], [ -86.483575, 35.831184 ], [ -86.483479, 35.831862 ], [ -86.484341, 35.832488 ], [ -86.487058, 35.832528 ], [ -86.487754, 35.833864 ], [ -86.487761, 35.834975 ], [ -86.486156, 35.836245 ], [ -86.485848, 35.83796 ], [ -86.485834, 35.839378 ], [ -86.487542, 35.840059 ], [ -86.487961, 35.842191 ], [ -86.490028, 35.84333 ], [ -86.493332, 35.843065 ], [ -86.495793, 35.842876 ], [ -86.500299, 35.842539 ] ] ] } }
]
}
